ProviderNumber,HospitalName,Address1,City,ZipCode,CountyName,PhoneNumber,HospitalOwner,Condition,Sample,label
10034,COMMUNITY HOSPITAL INC,805 FRIENDSHIP ROAD,TALLASSEE,36078,ELMORE,3342836541,Voluntary non-profit - Private,Pneumonia,52 patients,0
10010,MARSHALL MEDICAL CENTER NORTH,8000 ALABAMA HIGHWAY 69,GUNTERSVILLE,35976,MARSHALL,2565718000,Government - Hospital District or Authority,Pneumonia,133 patients,0
10029,EAST ALABAMA MEDICAL CENTER AND SNF,2000 PEPPERELL PARKWAY,OPELIKA,36801,LEE,3347493411,Government - Hospital District or Authority,Surgical Infection Prevention,962 patients,0
10022,CHEROKEE MEDICAL CENTER,400 NORTHWOOD DR,CENTRE,35960,CHEROKEE,2569275531,Voluntary non-profit - Private,Surgical Infection Prevention,1 patients,0
10108,PRATTVILLE BAPTIST HOSPITAL,124 S MEMORIAL DR,PRATTVILLE,36067,AUTAUGA,3343614267,Voluntary non-profit - Private,Heart Failure,18 patients,0
10021,DALE MEDICAL CENTER,126 HOSPITAL AVE,OZARK,36360,DALE,3347742601,Government - Hospital District or Authority,Heart Failure,32 patients,0
10039,HUNTSVILLE HOSPITAL,101 SIVLEY RD,HUNTSVILLE,35801,MADISON,2562651000,Government - Hospital District or Authority,Children s Asthma Care,193 patients,0
10164,COOSA VALLEY MEDICAL CENTER,315 W HICKORY ST,SYLACAUGA,35150,TALLADEGA,2562495000,Voluntary non-profit - Other,Heart Failure,78 patients,0
10024,JACKSON HOSPITAL & CLINIC INC,1725 PINE STREET,MONTGOMERY,36106,MONTGOMERY,3342938000,Voluntary non-profit - Private,Pneumonia,184 patients,0
10007,MIZELL MEMORIAL HOSPITAL,702 N MAIN ST,OPP,36467,COVINGTON,3344933541,Voluntary non-profit - Private,Surgical Infection Prevention,101 patients,0
10038,STRINGFELLOW MEMORIAL HOSPITAL,301 EAST 18TH ST,ANNISTON,36201,CALHOUN,2562358900,Proprietary,Heart Failure,49 patients,0
10036,ANDALUSIA REGIONAL HOSPITAL,849 SOUTH THREE NOTCH STREET,ANDALUSIA,36420,COVINGTON,3342228466,Proprietary,Pneumonia,77 patients,0
10015,SOUTHWEST ALABAMA MEDICAL CENTER,33700 HIGHWAY 43,THOMASVILLE,36784,CLARKE,3346366221,Government - Federal,Heart Attack,0 patients,0
10049,MEDICAL CENTER ENTERPRISE,400 N EDWARDS STREET,ENTERPRISE,36330,COFFEE,3343470584,Proprietary,Surgical Infection Prevention,27 patients,0
10086,NORTHWEST MEDICAL CENTER,1530 U S HIGHWAY 43,WINFIELD,35594,MARION,2054877736,Proprietary,Surgical Infection Prevention,102 patients,0
10033,UNIVERSITY OF ALABAMA HOSPITAL,619 SOUTH 19TH STREET,BIRMINGHAM,35233,JEFFERSON,2059344011,Government - State,Heart Attack,229 patients,0
10012,DEKALB REGIONAL MEDICAL CENTER,200 MED CENTER DRIVE,FORT PAYNE,35968,DE KALB,2568453150,Voluntary non-profit - Church,Heart Attack,41 patients,0
10086,NORTHWEST MEDICAL CENTER,1530 U S HIGHWAY 43,WINFIELD,35594,MARION,2054877736,Proprietary,Surgical Infection Prevention,102 patients,0
10038,STRINGFELLOW MEMORIAL HOSPITAL,301 EAST 18TH ST,ANNISTON,36201,CALHOUN,2562358900,Proprietary,Heart Attack,73 patients,0
10010,MARSHALL MEDICAL CENTER NORTH,8000 ALABAMA HIGHWAY 69,GUNTERSVILLE,35976,MARSHALL,2565718000,Government - Hospital District or Authority,Heart Attack,2 patients,0
10046,RIVERVIEW REGIONAL MEDICAL CENTER,600 SOUTH THIRD STREET,GADSDEN,35901,ETOWAH,2565435200,Proprietary,Surgical Infection Prevention,107 patients,0
10040,GADSDEN REGIONAL MEDICAL CENTER,1007 GOODYEAR AVENUE,GADSDEN,35903,ETOWAH,2564944000,Proprietary,Pneumonia,187 patients,0
10024,JACKSON HOSPITAL & CLINIC INC,1725 PINE STREET,MONTGOMERY,36106,MONTGOMERY,3342938000,Voluntary non-profit - Private,Heart Attack,111 patients,0
10012,DEKALB REGIONAL MEDICAL CENTER,200 MED CENTER DRIVE,FORT PAYNE,35968,DE KALB,2568453150,Voluntary non-profit - Church,Pneumonia,37 patients,0
10024,JACKSON HOSPITAL & CLINIC INC,1725 PINE STREET,MONTGOMERY,36106,MONTGOMERY,3342938000,Voluntary non-profit - Private,Pneumonia,233 patients,0
10008,CRENSHAW COMMUNITY HOSPITAL,101 HOSPITAL CIRCLE,LUVERNE,36049,CRENSHAW,3343353374,Government - Federal,Pneumonia,15 patients,0
10008,CRENSHAW COMMUNITY HOSPITAL,101 HOSPITAL CIRCLE,LUVERNE,36049,CRENSHAW,3343353374,Government - Federal,Surgical Infection Prevention,4 patients,0
10009,HARTSELLE MEDICAL CENTER,201 PINE STREET NORTHWEST,HARTSELLE,35640,MORGAN,2567736511,Proprietary,Heart Attack,0 patients,0
10018,CALLAHAN EYE FOUNDATION HOSPITAL,1720 UNIVERSITY BLVD,BIRMINGHAM,35233,JEFFERSON,2053258100,Voluntary non-profit - Private,Pneumonia,Empty,0
10108,PRATTVILLE BAPTIST HOSPITAL,124 S MEMORIAL DR,PRATTVILLE,36067,AUTAUGA,3343614267,Voluntary non-profit - Private,Heart Failure,93 patients,0
10006,ELIZA COFFEE MEMORIAL HOSPITAL,205 MARENGO STREET,FLORENCE,35631,LAUDERDALE,2567688400,Voluntary non-profit - Other,Pneumonia,138 patients,0
10044,MARION REGIONAL MEDICAL CENTER,1256 MILITARY STREET SOUTH,HAMILTON,35570,MARION,2059216200,Voluntary non-profit - Private,Heart Attack,3 patients,0
10001,SOUTHEAST ALABAMA MEDICAL CENTER,1108 ROSS CLARK CIRCLE,DOTHAN,36302,HOUSTON,3347938701,Government - Hospital District or Authority,Surgical Infection Prevention,79 patients,0
10016,SHELBY BAPTIST MEDICAL CENTER,1000 FIRST STREET NORTH,ALABASTER,35007,SHELBY,2056208100,Voluntary non-profit - Church,Surgical Infection Prevention,370 patients,0
10086,NORTHWEST MEDICAL CENTER,1530 U S HIGHWAY 43,WINFIELD,35594,MARION,2054877736,Proprietary,Surgical Infection Prevention,19 patients,0
10045,FAYETTE MEDICAL CENTER,1653 TEMPLE AVENUE NORTH,FAYETTE,35555,FAYETTE,2059325966,Voluntary non-profit - Other,Heart Failure,67 patients,0
10015,SOUTHWEST ALABAMA MEDICAL CENTER,33700 HIGHWAY 43,THOMASVILLE,36784,CLARKE,3346366221,Government - Federal,Heart Attack,0 patients,0
10043,CHILTON MEDICAL CENTER,1010 LAY DAM ROAD,CLANTON,35045,CHILTON,2057552500,Voluntary non-profit - Private,Surgical Infection Prevention,0 patients,0
10021,DALE MEDICAL CENTER,126 HOSPITAL AVE,OZARK,36360,DALE,3347742601,Government - Hospital District or Authority,Heart Attack,0 patients,0
10027,ELBA GENERAL HOSPITAL,987 DRAYTON STREET,ELBA,36323,COFFEE,3348972257,Voluntary non-profit - Other,Surgical Infection Prevention,Empty,0
10043,CHILTON MEDICAL CENTER,1010 LAY DAM ROAD,CLANTON,35045,CHILTON,2057552500,Voluntary non-profit - Private,Heart Failure,28 patients,0
10055,FLOWERS HOSPITAL,4370 WEST MAIN STREET,DOTHAN,36305,HOUSTON,3347935000,Proprietary,Surgical Infection Prevention,957 patients,0
10009,HARTSELLE MEDICAL CENTER,201 PINE STREET NORTHWEST,HARTSELLE,35640,MORGAN,2567736511,Proprietary,Heart Attack,2 patients,0
10006,ELIZA COFFEE MEMORIAL HOSPITAL,205 MARENGO STREET,FLORENCE,35631,LAUDERDALE,2567688400,Voluntary non-profit - Other,Pneumonia,200 patients,0
10040,GADSDEN REGIONAL MEDICAL CENTER,1007 GOODYEAR AVENUE,GADSDEN,35903,ETOWAH,2564944000,Proprietary,Pneumonia,187 patients,0
10018,CALLAHAN EYE FOUNDATION HOSPITAL,1720 UNIVERSITY BLVD,BIRMINGHAM,35233,JEFFERSON,2053258100,Voluntary non-profit - Private,Surgical Infection Prevention,Empty,0
10008,CRENSHAW COMMUNITY HOSPITAL,101 HOSPITAL CIRCLE,LUVERNE,36049,CRENSHAW,3343353374,Government - Federal,Heart Attack,0 patients,0
10023,BAPTIST MEDICAL CENTER SOUTH,2105 EAST SOUTH BOULEVARD,MONTGOMERY,36116,MONTGOMERY,3342882100,Voluntary non-profit - Church,Heart Failure,77 patients,0
20017,ALASKA REGIONAL HOSPITAL,2801 DEBARR ROAD,ANCHORAGE,99508,ANCHORAGE,9072761131,Proprietary,Surgical Infection Prevention,146 patients,0
10012,DEKALB REGIONAL MEDICAL CENTER,200 MED CENTER DRIVE,FORT PAYNE,35968,DE KALB,2568453150,Voluntary non-profit - Church,Heart Attack,46 patients,0
10010,MARSHALL MEDICAL CENTER NORTH,8000 ALABAMA HIGHWAY 69,GUNTERSVILLE,35976,MARSHALL,2565718000,Government - Hospital District or Authority,Heart Failure,55 patients,0
10019,HELEN KELLER MEMORIAL HOSPITAL,1300 SOUTH MONTGOMERY AVENUE,SHEFFIELD,35660,JEFFERSON,2563864556,Government - Hospital District or Authority,Surgical Infection Prevention,245 patients,0
10024,JACKSON HOSPITAL & CLINIC INC,1725 PINE STREET,MONTGOMERY,36106,MONTGOMERY,3342938000,Voluntary non-profit - Private,Heart Attack,173 patients,0
10025,G H LANIER MEMORIAL HOSPITAL,4800 48TH ST,VALLEY,36854,CHAMBERS,3347561400,Voluntary non-profit - Other,Surgical Infection Prevention,116 patients,0
10040,GADSDEN REGIONAL MEDICAL CENTER,1007 GOODYEAR AVENUE,GADSDEN,35903,ETOWAH,2564944000,Proprietary,Surgical Infection Prevention,520 patients,0
10005,MARSHALL MEDICAL CENTER SOUTH,2505 U S HIGHWAY 431 NORTH,BOAZ,35957,MARSHALL,2565938310,Government - Hospital District or Authority,Heart Attack,0 patients,0
10043,CHILTON MEDICAL CENTER,1010 LAY DAM ROAD,CLANTON,35045,CHILTON,2057552500,Voluntary non-profit - Private,Surgical Infection Prevention,4 patients,0
10027,ELBA GENERAL HOSPITAL,987 DRAYTON STREET,ELBA,36323,COFFEE,3348972257,Voluntary non-profit - Other,Surgical Infection Prevention,Empty,0
10025,G H LANIER MEMORIAL HOSPITAL,4800 48TH ST,VALLEY,36854,CHAMBERS,3347561400,Voluntary non-profit - Other,Surgical Infection Prevention,117 patients,0
10044,MARION REGIONAL MEDICAL CENTER,1256 MILITARY STREET SOUTH,HAMILTON,35570,MARION,2059216200,Voluntary non-profit - Private,Heart Failure,18 patients,0
10018,CALLAHAN EYE FOUNDATION HOSPITAL,1720 UNIVERSITY BLVD,BIRMINGHAM,35233,JEFFERSON,2053258100,Voluntary non-profit - Private,Heart Attack,Empty,0
10108,PRATTVILLE BAPTIST HOSPITAL,124 S MEMORIAL DR,PRATTVILLE,36067,AUTAUGA,3343614267,Voluntary non-profit - Private,Pneumonia,131 patients,0
10022,CHEROKEE MEDICAL CENTER,400 NORTHWOOD DR,CENTRE,35960,CHEROKEE,2569275531,Voluntary non-profit - Private,Surgical Infection Prevention,5 patients,0
10164,COOSA VALLEY MEDICAL CENTER,315 W HICKORY ST,SYLACAUGA,35150,TALLADEGA,2562495000,Voluntary non-profit - Other,Heart Failure,105 patients,0
10018,CALLAHAN EYE FOUNDATION HOSPITAL,1720 UNIVERSITY BLVD,BIRMINGHAM,35233,JEFFERSON,2053258100,Voluntary non-profit - Private,Pneumonia,Empty,0
10108,PRATTVILLE BAPTIST HOSPITAL,124 S MEMORIAL DR,PRATTVILLE,36067,AUTAUGA,3343614267,Voluntary non-profit - Private,Pneumonia,116 patients,0
10005,MARSHALL MEDICAL CENTER SOUTH,2505 U S HIGHWAY 431 NORTH,BOAZ,35957,MARSHALL,2565938310,Government - Hospital District or Authority,Surgical Infection Prevention,237 patients,0
10087,UNIV OF SOUTH ALABAMA MEDICAL CENTER,2451 FILLINGIM STREET,MOBILE,36617,MOBILE,2514717110,Government - State,Heart Failure,150 patients,0
10046,RIVERVIEW REGIONAL MEDICAL CENTER,600 SOUTH THIRD STREET,GADSDEN,35901,ETOWAH,2565435200,Proprietary,Children s Asthma Care,4 patients,0
10025,G H LANIER MEMORIAL HOSPITAL,4800 48TH ST,VALLEY,36854,CHAMBERS,3347561400,Voluntary non-profit - Other,Heart Attack,13 patients,0
10024,JACKSON HOSPITAL & CLINIC INC,1725 PINE STREET,MONTGOMERY,36106,MONTGOMERY,3342938000,Voluntary non-profit - Private,Surgical Infection Prevention,270 patients,0
10010,MARSHALL MEDICAL CENTER NORTH,8000 ALABAMA HIGHWAY 69,GUNTERSVILLE,35976,MARSHALL,2565718000,Government - Hospital District or Authority,Heart Failure,27 patients,0
10036,ANDALUSIA REGIONAL HOSPITAL,849 SOUTH THREE NOTCH STREET,ANDALUSIA,36420,COVINGTON,3342228466,Proprietary,Heart Attack,0 patients,0
10011,ST VINCENT'S EAST,50 MEDICAL PARK EAST DRIVE,BIRMINGHAM,35235,JEFFERSON,2058383122,Voluntary non-profit - Private,Heart Failure,69 patients,0
10005,MARSHALL MEDICAL CENTER SOUTH,2505 U S HIGHWAY 431 NORTH,BOAZ,35957,MARSHALL,2565938310,Government - Hospital District or Authority,Heart Failure,110 patients,0
10038,STRINGFELLOW MEMORIAL HOSPITAL,301 EAST 18TH ST,ANNISTON,36201,CALHOUN,2562358900,Proprietary,Heart Attack,81 patients,0
10035,CULLMAN REGIONAL MEDICAL CENTER,1912 ALABAMA HIGHWAY 157,CULLMAN,35058,CULLMAN,2567372000,Government - Hospital District or Authority,Surgical Infection Prevention,298 patients,0
10038,STRINGFELLOW MEMORIAL HOSPITAL,301 EAST 18TH ST,ANNISTON,36201,CALHOUN,2562358900,Proprietary,Heart Failure,41 patients,0
10010,MARSHALL MEDICAL CENTER NORTH,8000 ALABAMA HIGHWAY 69,GUNTERSVILLE,35976,MARSHALL,2565718000,Government - Hospital District or Authority,Surgical Infection Prevention,64 patients,0
10016,SHELBY BAPTIST MEDICAL CENTER,1000 FIRST STREET NORTH,ALABASTER,35007,SHELBY,2056208100,Voluntary non-profit - Church,Surgical Infection Prevention,225 patients,0
10011,ST VINCENT'S EAST,50 MEDICAL PARK EAST DRIVE,BIRMINGHAM,35235,JEFFERSON,2058383122,Voluntary non-profit - Private,Pneumonia,135 patients,0
10050,ST VINCENTS BLOUNT,150 GILBREATH DRIVE,ONEONTA,35121,BLOUNT,2052743000,Voluntary non-profit - Private,Heart Attack,0 patients,0
10023,BAPTIST MEDICAL CENTER SOUTH,2105 EAST SOUTH BOULEVARD,MONTGOMERY,36116,MONTGOMERY,3342882100,Voluntary non-profit - Church,Pneumonia,103 patients,0
10047,GEORGIANA HOSPITAL,515 MIRANDA ST,GEORGIANA,36033,BUTLER,3343762205,Voluntary non-profit - Private,Heart Attack,16 patients,0
10023,BAPTIST MEDICAL CENTER SOUTH,2105 EAST SOUTH BOULEVARD,MONTGOMERY,36116,MONTGOMERY,3342882100,Voluntary non-profit - Church,Surgical Infection Prevention,179 patients,0
10038,STRINGFELLOW MEMORIAL HOSPITAL,301 EAST 18TH ST,ANNISTON,36201,CALHOUN,2562358900,Proprietary,Heart Failure,142 patients,0
10035,CULLMAN REGIONAL MEDICAL CENTER,1912 ALABAMA HIGHWAY 157,CULLMAN,35058,CULLMAN,2567372000,Government - Hospital District or Authority,Surgical Infection Prevention,598 patients,0
10007,MIZELL MEMORIAL HOSPITAL,702 N MAIN ST,OPP,36467,COVINGTON,3344933541,Voluntary non-profit - Private,Heart Failure,59 patients,0
10033,UNIVERSITY OF ALABAMA HOSPITAL,619 SOUTH 19TH STREET,BIRMINGHAM,35233,JEFFERSON,2059344011,Government - State,Heart Attack,0 patients,0
10019,HELEN KELLER MEMORIAL HOSPITAL,1300 SOUTH MONTGOMERY AVENUE,SHEFFIELD,35660,JEFFERSON,2563864556,Government - Hospital District or Authority,Surgical Infection Prevention,144 patients,0
10009,HARTSELLE MEDICAL CENTER,201 PINE STREET NORTHWEST,HARTSELLE,35640,MORGAN,2567736511,Proprietary,Heart Failure,42 patients,0
10009,HARTSELLE MEDICAL CENTER,201 PINE STREET NORTHWEST,HARTSELLE,35640,MORGAN,2567736511,Proprietary,Heart Failure,35 patients,0
10011,ST VINCENT'S EAST,50 MEDICAL PARK EAST DRIVE,BIRMINGHAM,35235,JEFFERSON,2058383122,Voluntary non-profit - Private,Heart Attack,0 patients,0
10005,MARSHALL MEDICAL CENTER SOUTH,2505 U S HIGHWAY 431 NORTH,BOAZ,35957,MARSHALL,2565938310,Government - Hospital District or Authority,Heart Attack,5 patients,0
10025,G H LANIER MEMORIAL HOSPITAL,4800 48TH ST,VALLEY,36854,CHAMBERS,3347561400,Voluntary non-profit - Other,Surgical Infection Prevention,85 patients,0
10011,ST VINCENT'S EAST,50 MEDICAL PARK EAST DRIVE,BIRMINGHAM,35235,JEFFERSON,2058383122,Voluntary non-profit - Private,Heart Failure,372 patients,0
10018,CALLAHAN EYE FOUNDATION HOSPITAL,1720 UNIVERSITY BLVD,BIRMINGHAM,35233,JEFFERSON,2053258100,Voluntary non-profit - Private,Pneumonia,Empty,0
10038,STRINGFELLOW MEMORIAL HOSPITAL,301 EAST 18TH ST,ANNISTON,36201,CALHOUN,2562358900,Proprietary,Children s Asthma Care,9 patients,0
10016,SHELBY BAPTIST MEDICAL CENTER,1000 FIRST STREET NORTH,ALABASTER,35007,SHELBY,2056208100,Voluntary non-profit - Church,Heart Failure,71 patients,0
10008,CRENSHAW COMMUNITY HOSPITAL,101 HOSPITAL CIRCLE,LUVERNE,36049,CRENSHAW,3343353374,Government - Federal,Heart Attack,0 patients,0
10055,FLOWERS HOSPITAL,4370 WEST MAIN STREET,DOTHAN,36305,HOUSTON,3347935000,Proprietary,Pneumonia,112 patients,0
10005,MARSHALL MEDICAL CENTER SOUTH,2505 U S HIGHWAY 431 NORTH,BOAZ,35957,MARSHALL,2565938310,Government - Hospital District or Authority,Surgical Infection Prevention,237 patients,0
10032,WEDOWEE HOSPITAL,209 NORTH MAIN STREET,WEDOWEE,36278,RANDOLPH,2563572111,Government - Local,Surgical Infection Prevention,Empty,0
10086,NORTHWEST MEDICAL CENTER,1530 U S HIGHWAY 43,WINFIELD,35594,MARION,2054877736,Proprietary,Pneumonia,66 patients,0
20017,ALASKA REGIONAL HOSPITAL,2801 DEBARR ROAD,ANCHORAGE,99508,ANCHORAGE,9072761131,Proprietary,Pneumonia,47 patients,0
10038,STRINGFELLOW MEMORIAL HOSPITAL,301 EAST 18TH ST,ANNISTON,36201,CALHOUN,2562358900,Proprietary,Surgical Infection Prevention,96 patients,0
10024,JACKSON HOSPITAL & CLINIC INC,1725 PINE STREET,MONTGOMERY,36106,MONTGOMERY,3342938000,Voluntary non-profit - Private,Heart Failure,93 patients,0
10012,DEKALB REGIONAL MEDICAL CENTER,200 MED CENTER DRIVE,FORT PAYNE,35968,DE KALB,2568453150,Voluntary non-profit - Church,Pneumonia,82 patients,0
10034,COMMUNITY HOSPITAL INC,805 FRIENDSHIP ROAD,TALLASSEE,36078,ELMORE,3342836541,Voluntary non-profit - Private,Heart Failure,65 patients,0
10006,ELIZA COFFEE MEMORIAL HOSPITAL,205 MARENGO STREET,FLORENCE,35631,LAUDERDALE,2567688400,Voluntary non-profit - Other,Heart Attack,159 patients,0
10050,ST VINCENTS BLOUNT,150 GILBREATH DRIVE,ONEONTA,35121,BLOUNT,2052743000,Voluntary non-profit - Private,Pneumonia,29 patients,0
10108,PRATTVILLE BAPTIST HOSPITAL,124 S MEMORIAL DR,PRATTVILLE,36067,AUTAUGA,3343614267,Voluntary non-profit - Private,Heart Attack,0 patients,0
10001,SOUTHEAST ALABAMA MEDICAL CENTER,1108 ROSS CLARK CIRCLE,DOTHAN,36302,HOUSTON,3347938701,Government - Hospital District or Authority,Heart Attack,0 patients,0
10027,ELBA GENERAL HOSPITAL,987 DRAYTON STREET,ELBA,36323,COFFEE,3348972257,Voluntary non-profit - Other,Surgical Infection Prevention,Empty,0
10011,ST VINCENT'S EAST,50 MEDICAL PARK EAST DRIVE,BIRMINGHAM,35235,JEFFERSON,2058383122,Voluntary non-profit - Private,Surgical Infection Prevention,601 patients,0
10023,BAPTIST MEDICAL CENTER SOUTH,2105 EAST SOUTH BOULEVARD,MONTGOMERY,36116,MONTGOMERY,3342882100,Voluntary non-profit - Church,Surgical Infection Prevention,412 patients,0
10007,MIZELL MEMORIAL HOSPITAL,702 N MAIN ST,OPP,36467,COVINGTON,3344933541,Voluntary non-profit - Private,Pneumonia,28 patients,0
10047,GEORGIANA HOSPITAL,515 MIRANDA ST,GEORGIANA,36033,BUTLER,3343762205,Voluntary non-profit - Private,Surgical Infection Prevention,Empty,0
10025,G H LANIER MEMORIAL HOSPITAL,4800 48TH ST,VALLEY,36854,CHAMBERS,3347561400,Voluntary non-profit - Other,Surgical Infection Prevention,19 patients,0
10033,UNIVERSITY OF ALABAMA HOSPITAL,619 SOUTH 19TH STREET,BIRMINGHAM,35233,JEFFERSON,2059344011,Government - State,Pneumonia,242 patients,0
10035,CULLMAN REGIONAL MEDICAL CENTER,1912 ALABAMA HIGHWAY 157,CULLMAN,35058,CULLMAN,2567372000,Government - Hospital District or Authority,Heart Attack,26 patients,0
10022,CHEROKEE MEDICAL CENTER,400 NORTHWOOD DR,CENTRE,35960,CHEROKEE,2569275531,Voluntary non-profit - Private,Heart Failure,10 patients,0
10011,ST VINCENT'S EAST,50 MEDICAL PARK EAST DRIVE,BIRMINGHAM,35235,JEFFERSON,2058383122,Voluntary non-profit - Private,Surgical Infection Prevention,473 patients,0
10164,COOSA VALLEY MEDICAL CENTER,315 W HICKORY ST,SYLACAUGA,35150,TALLADEGA,2562495000,Voluntary non-profit - Other,Heart Attack,4 patients,0
10036,ANDALUSIA REGIONAL HOSPITAL,849 SOUTH THREE NOTCH STREET,ANDALUSIA,36420,COVINGTON,3342228466,Proprietary,Surgical Infection Prevention,204 patients,0
10005,MARSHALL MEDICAL CENTER SOUTH,2505 U S HIGHWAY 431 NORTH,BOAZ,35957,MARSHALL,2565938310,Government - Hospital District or Authority,Pneumonia,211 patients,0
10018,CALLAHAN EYE FOUNDATION HOSPITAL,1720 UNIVERSITY BLVD,BIRMINGHAM,35233,JEFFERSON,2053258100,Voluntary non-profit - Private,Heart Failure,Empty,0
10044,MARION REGIONAL MEDICAL CENTER,1256 MILITARY STREET SOUTH,HAMILTON,35570,MARION,2059216200,Voluntary non-profit - Private,Surgical Infection Prevention,15 patients,0
10043,CHILTON MEDICAL CENTER,1010 LAY DAM ROAD,CLANTON,35045,CHILTON,2057552500,Voluntary non-profit - Private,Heart Attack,1 patients,0
10023,BAPTIST MEDICAL CENTER SOUTH,2105 EAST SOUTH BOULEVARD,MONTGOMERY,36116,MONTGOMERY,3342882100,Voluntary non-profit - Church,Pneumonia,80 patients,0
10007,MIZELL MEMORIAL HOSPITAL,702 N MAIN ST,OPP,36467,COVINGTON,3344933541,Voluntary non-profit - Private,Heart Attack,0 patients,0
10033,UNIVERSITY OF ALABAMA HOSPITAL,619 SOUTH 19TH STREET,BIRMINGHAM,35233,JEFFERSON,2059344011,Government - State,Surgical Infection Prevention,140 patients,0
10040,GADSDEN REGIONAL MEDICAL CENTER,1007 GOODYEAR AVENUE,GADSDEN,35903,ETOWAH,2564944000,Proprietary,Surgical Infection Prevention,315 patients,0
10044,MARION REGIONAL MEDICAL CENTER,1256 MILITARY STREET SOUTH,HAMILTON,35570,MARION,2059216200,Voluntary non-profit - Private,Heart Attack,0 patients,0
10024,JACKSON HOSPITAL & CLINIC INC,1725 PINE STREET,MONTGOMERY,36106,MONTGOMERY,3342938000,Voluntary non-profit - Private,Surgical Infection Prevention,259 patients,0
10050,ST VINCENTS BLOUNT,150 GILBREATH DRIVE,ONEONTA,35121,BLOUNT,2052743000,Voluntary non-profit - Private,Heart Failure,24 patients,0
10043,CHILTON MEDICAL CENTER,1010 LAY DAM ROAD,CLANTON,35045,CHILTON,2057552500,Voluntary non-profit - Private,Surgical Infection Prevention,4 patients,0
10025,G H LANIER MEMORIAL HOSPITAL,4800 48TH ST,VALLEY,36854,CHAMBERS,3347561400,Voluntary non-profit - Other,Heart Failure,75 patients,0
10022,CHEROKEE MEDICAL CENTER,400 NORTHWOOD DR,CENTRE,35960,CHEROKEE,2569275531,Voluntary non-profit - Private,Heart Attack,0 patients,0
10024,JACKSON HOSPITAL & CLINIC INC,1725 PINE STREET,MONTGOMERY,36106,MONTGOMERY,3342938000,Voluntary non-profit - Private,Surgical Infection Prevention,1062 patients,0
10086,NORTHWEST MEDICAL CENTER,1530 U S HIGHWAY 43,WINFIELD,35594,MARION,2054877736,Proprietary,Heart Attack,10 patients,0
10035,CULLMAN REGIONAL MEDICAL CENTER,1912 ALABAMA HIGHWAY 157,CULLMAN,35058,CULLMAN,2567372000,Government - Hospital District or Authority,Heart Attack,23 patients,0
10025,G H LANIER MEMORIAL HOSPITAL,4800 48TH ST,VALLEY,36854,CHAMBERS,3347561400,Voluntary non-profit - Other,Heart Failure,137 patients,0
10045,FAYETTE MEDICAL CENTER,1653 TEMPLE AVENUE NORTH,FAYETTE,35555,FAYETTE,2059325966,Voluntary non-profit - Other,Heart Attack,11 patients,0
10005,MARSHALL MEDICAL CENTER SOUTH,2505 U S HIGHWAY 431 NORTH,BOAZ,35957,MARSHALL,2565938310,Government - Hospital District or Authority,Heart Attack,0 patients,0
10012,DEKALB REGIONAL MEDICAL CENTER,200 MED CENTER DRIVE,FORT PAYNE,35968,DE KALB,2568453150,Voluntary non-profit - Church,Heart Failure,94 patients,0
10010,MARSHALL MEDICAL CENTER NORTH,8000 ALABAMA HIGHWAY 69,GUNTERSVILLE,35976,MARSHALL,2565718000,Government - Hospital District or Authority,Heart Failure,80 patients,0
10108,PRATTVILLE BAPTIST HOSPITAL,124 S MEMORIAL DR,PRATTVILLE,36067,AUTAUGA,3343614267,Voluntary non-profit - Private,Pneumonia,138 patients,0
10005,MARSHALL MEDICAL CENTER SOUTH,2505 U S HIGHWAY 431 NORTH,BOAZ,35957,MARSHALL,2565938310,Government - Hospital District or Authority,Pneumonia,175 patients,0
10036,ANDALUSIA REGIONAL HOSPITAL,849 SOUTH THREE NOTCH STREET,ANDALUSIA,36420,COVINGTON,3342228466,Proprietary,Heart Attack,6 patients,0
10021,DALE MEDICAL CENTER,126 HOSPITAL AVE,OZARK,36360,DALE,3347742601,Government - Hospital District or Authority,Surgical Infection Prevention,94 patients,0
10045,FAYETTE MEDICAL CENTER,1653 TEMPLE AVENUE NORTH,FAYETTE,35555,FAYETTE,2059325966,Voluntary non-profit - Other,Heart Failure,16 patients,0
10012,DEKALB REGIONAL MEDICAL CENTER,200 MED CENTER DRIVE,FORT PAYNE,35968,DE KALB,2568453150,Voluntary non-profit - Church,Heart Attack,5 patients,0
10035,CULLMAN REGIONAL MEDICAL CENTER,1912 ALABAMA HIGHWAY 157,CULLMAN,35058,CULLMAN,2567372000,Government - Hospital District or Authority,Surgical Infection Prevention,68 patients,0
10005,MARSHALL MEDICAL CENTER SOUTH,2505 U S HIGHWAY 431 NORTH,BOAZ,35957,MARSHALL,2565938310,Government - Hospital District or Authority,Heart Attack,2 patients,0
10015,SOUTHWEST ALABAMA MEDICAL CENTER,33700 HIGHWAY 43,THOMASVILLE,36784,CLARKE,3346366221,Government - Federal,Surgical Infection Prevention,10 patients,0
10010,MARSHALL MEDICAL CENTER NORTH,8000 ALABAMA HIGHWAY 69,GUNTERSVILLE,35976,MARSHALL,2565718000,Government - Hospital District or Authority,Surgical Infection Prevention,64 patients,0
10087,UNIV OF SOUTH ALABAMA MEDICAL CENTER,2451 FILLINGIM STREET,MOBILE,36617,MOBILE,2514717110,Government - State,Pneumonia,7 patients,0
10018,CALLAHAN EYE FOUNDATION HOSPITAL,1720 UNIVERSITY BLVD,BIRMINGHAM,35233,JEFFERSON,2053258100,Voluntary non-profit - Private,Heart Attack,Empty,0
10016,SHELBY BAPTIST MEDICAL CENTER,1000 FIRST STREET NORTH,ALABASTER,35007,SHELBY,2056208100,Voluntary non-profit - Church,Heart Attack,179 patients,0
10035,CULLMAN REGIONAL MEDICAL CENTER,1912 ALABAMA HIGHWAY 157,CULLMAN,35058,CULLMAN,2567372000,Government - Hospital District or Authority,Surgical Infection Prevention,417 patients,0
10034,COMMUNITY HOSPITAL INC,805 FRIENDSHIP ROAD,TALLASSEE,36078,ELMORE,3342836541,Voluntary non-profit - Private,Surgical Infection Prevention,3 patients,0
10035,CULLMAN REGIONAL MEDICAL CENTER,1912 ALABAMA HIGHWAY 157,CULLMAN,35058,CULLMAN,2567372000,Government - Hospital District or Authority,Surgical Infection Prevention,405 patients,0
10047,GEORGIANA HOSPITAL,515 MIRANDA ST,GEORGIANA,36033,BUTLER,3343762205,Voluntary non-profit - Private,Pneumonia,30 patients,0
10009,HARTSELLE MEDICAL CENTER,201 PINE STREET NORTHWEST,HARTSELLE,35640,MORGAN,2567736511,Proprietary,Heart Attack,1 patients,0
10036,ANDALUSIA REGIONAL HOSPITAL,849 SOUTH THREE NOTCH STREET,ANDALUSIA,36420,COVINGTON,3342228466,Proprietary,Heart Failure,121 patients,0
10049,MEDICAL CENTER ENTERPRISE,400 N EDWARDS STREET,ENTERPRISE,36330,COFFEE,3343470584,Proprietary,Heart Failure,34 patients,0
10032,WEDOWEE HOSPITAL,209 NORTH MAIN STREET,WEDOWEE,36278,RANDOLPH,2563572111,Government - Local,Surgical Infection Prevention,Empty,0
10086,NORTHWEST MEDICAL CENTER,1530 U S HIGHWAY 43,WINFIELD,35594,MARION,2054877736,Proprietary,Heart Attack,2 patients,0
10025,G H LANIER MEMORIAL HOSPITAL,4800 48TH ST,VALLEY,36854,CHAMBERS,3347561400,Voluntary non-profit - Other,Pneumonia,34 patients,0
20017,ALASKA REGIONAL HOSPITAL,2801 DEBARR ROAD,ANCHORAGE,99508,ANCHORAGE,9072761131,Proprietary,Surgical Infection Prevention,690 patients,0
10032,WEDOWEE HOSPITAL,209 NORTH MAIN STREET,WEDOWEE,36278,RANDOLPH,2563572111,Government - Local,Surgical Infection Prevention,Empty,0
10086,NORTHWEST MEDICAL CENTER,1530 U S HIGHWAY 43,WINFIELD,35594,MARION,2054877736,Proprietary,Surgical Infection Prevention,58 patients,0
10009,HARTSELLE MEDICAL CENTER,201 PINE STREET NORTHWEST,HARTSELLE,35640,MORGAN,2567736511,Proprietary,Heart Failure,42 patients,0
10047,GEORGIANA HOSPITAL,515 MIRANDA ST,GEORGIANA,36033,BUTLER,3343762205,Voluntary non-profit - Private,Surgical Infection Prevention,Empty,0
10050,ST VINCENTS BLOUNT,150 GILBREATH DRIVE,ONEONTA,35121,BLOUNT,2052743000,Voluntary non-profit - Private,Heart Attack,7 patients,0
10001,SOUTHEAST ALABAMA MEDICAL CENTER,1108 ROSS CLARK CIRCLE,DOTHAN,36302,HOUSTON,3347938701,Government - Hospital District or Authority,Heart Attack,40 patients,0
10029,EAST ALABAMA MEDICAL CENTER AND SNF,2000 PEPPERELL PARKWAY,OPELIKA,36801,LEE,3347493411,Government - Hospital District or Authority,Heart Attack,26 patients,0
10044,MARION REGIONAL MEDICAL CENTER,1256 MILITARY STREET SOUTH,HAMILTON,35570,MARION,2059216200,Voluntary non-profit - Private,Heart Attack,0 patients,0
10012,DEKALB REGIONAL MEDICAL CENTER,200 MED CENTER DRIVE,FORT PAYNE,35968,DE KALB,2568453150,Voluntary non-profit - Church,Heart Attack,11 patients,0
10045,FAYETTE MEDICAL CENTER,1653 TEMPLE AVENUE NORTH,FAYETTE,35555,FAYETTE,2059325966,Voluntary non-profit - Other,Surgical Infection Prevention,0 patients,0
10036,ANDALUSIA REGIONAL HOSPITAL,849 SOUTH THREE NOTCH STREET,ANDALUSIA,36420,COVINGTON,3342228466,Proprietary,Heart Attack,0 patients,0
10029,EAST ALABAMA MEDICAL CENTER AND SNF,2000 PEPPERELL PARKWAY,OPELIKA,36801,LEE,3347493411,Government - Hospital District or Authority,Surgical Infection Prevention,208 patients,0
10164,COOSA VALLEY MEDICAL CENTER,315 W HICKORY ST,SYLACAUGA,35150,TALLADEGA,2562495000,Voluntary non-profit - Other,Heart Attack,0 patients,0
10005,MARSHALL MEDICAL CENTER SOUTH,2505 U S HIGHWAY 431 NORTH,BOAZ,35957,MARSHALL,2565938310,Government - Hospital District or Authority,Surgical Infection Prevention,76 patients,0
10055,FLOWERS HOSPITAL,4370 WEST MAIN STREET,DOTHAN,36305,HOUSTON,3347935000,Proprietary,Surgical Infection Prevention,882 patients,0
20017,ALASKA REGIONAL HOSPITAL,2801 DEBARR ROAD,ANCHORAGE,99508,ANCHORAGE,9072761131,Proprietary,Surgical Infection Prevention,513 patients,0
10034,COMMUNITY HOSPITAL INC,805 FRIENDSHIP ROAD,TALLASSEE,36078,ELMORE,3342836541,Voluntary non-profit - Private,Heart Failure,65 patients,0
10019,HELEN KELLER MEMORIAL HOSPITAL,1300 SOUTH MONTGOMERY AVENUE,SHEFFIELD,35660,JEFFERSON,2563864556,Government - Hospital District or Authority,Heart Attack,0 patients,0
10025,G H LANIER MEMORIAL HOSPITAL,4800 48TH ST,VALLEY,36854,CHAMBERS,3347561400,Voluntary non-profit - Other,Heart Attack,24 patients,0
10035,CULLMAN REGIONAL MEDICAL CENTER,1912 ALABAMA HIGHWAY 157,CULLMAN,35058,CULLMAN,2567372000,Government - Hospital District or Authority,Heart Failure,42 patients,0
10011,ST VINCENT'S EAST,50 MEDICAL PARK EAST DRIVE,BIRMINGHAM,35235,JEFFERSON,2058383122,Voluntary non-profit - Private,Heart Failure,316 patients,0
10008,CRENSHAW COMMUNITY HOSPITAL,101 HOSPITAL CIRCLE,LUVERNE,36049,CRENSHAW,3343353374,Government - Federal,Surgical Infection Prevention,0 patients,0
10008,CRENSHAW COMMUNITY HOSPITAL,101 HOSPITAL CIRCLE,LUVERNE,36049,CRENSHAW,3343353374,Government - Federal,Surgical Infection Prevention,1 patients,0
10022,CHEROKEE MEDICAL CENTER,400 NORTHWOOD DR,CENTRE,35960,CHEROKEE,2569275531,Voluntary non-profit - Private,Surgical Infection Prevention,6 patients,0
10045,FAYETTE MEDICAL CENTER,1653 TEMPLE AVENUE NORTH,FAYETTE,35555,FAYETTE,2059325966,Voluntary non-profit - Other,Heart Failure,67 patients,0
10032,WEDOWEE HOSPITAL,209 NORTH MAIN STREET,WEDOWEE,36278,RANDOLPH,2563572111,Government - Local,Pneumonia,28 patients,0
10023,BAPTIST MEDICAL CENTER SOUTH,2105 EAST SOUTH BOULEVARD,MONTGOMERY,36116,MONTGOMERY,3342882100,Voluntary non-profit - Church,Heart Failure,292 patients,0
10036,ANDALUSIA REGIONAL HOSPITAL,849 SOUTH THREE NOTCH STREET,ANDALUSIA,36420,COVINGTON,3342228466,Proprietary,Surgical Infection Prevention,66 patients,0
10027,ELBA GENERAL HOSPITAL,987 DRAYTON STREET,ELBA,36323,COFFEE,3348972257,Voluntary non-profit - Other,Surgical Infection Prevention,Empty,0
10033,UNIVERSITY OF ALABAMA HOSPITAL,619 SOUTH 19TH STREET,BIRMINGHAM,35233,JEFFERSON,2059344011,Government - State,Heart Attack,229 patients,0
10008,CRENSHAW COMMUNITY HOSPITAL,101 HOSPITAL CIRCLE,LUVERNE,36049,CRENSHAW,3343353374,Government - Federal,Pneumonia,9 patients,0
10036,ANDALUSIA REGIONAL HOSPITAL,849 SOUTH THREE NOTCH STREET,ANDALUSIA,36420,COVINGTON,3342228466,Proprietary,Surgical Infection Prevention,19 patients,0
10016,SHELBY BAPTIST MEDICAL CENTER,1000 FIRST STREET NORTH,ALABASTER,35007,SHELBY,2056208100,Voluntary non-profit - Church,Heart Attack,36 patients,0
10049,MEDICAL CENTER ENTERPRISE,400 N EDWARDS STREET,ENTERPRISE,36330,COFFEE,3343470584,Proprietary,Heart Attack,2 patients,0
10035,CULLMAN REGIONAL MEDICAL CENTER,1912 ALABAMA HIGHWAY 157,CULLMAN,35058,CULLMAN,2567372000,Government - Hospital District or Authority,Heart Failure,158 patients,0
10024,JACKSON HOSPITAL & CLINIC INC,1725 PINE STREET,MONTGOMERY,36106,MONTGOMERY,3342938000,Voluntary non-profit - Private,Surgical Infection Prevention,270 patients,0
10027,ELBA GENERAL HOSPITAL,987 DRAYTON STREET,ELBA,36323,COFFEE,3348972257,Voluntary non-profit - Other,Pneumonia,19 patients,0
10035,CULLMAN REGIONAL MEDICAL CENTER,1912 ALABAMA HIGHWAY 157,CULLMAN,35058,CULLMAN,2567372000,Government - Hospital District or Authority,Heart Attack,51 patients,0
10009,HARTSELLE MEDICAL CENTER,201 PINE STREET NORTHWEST,HARTSELLE,35640,MORGAN,2567736511,Proprietary,Surgical Infection Prevention,11 patients,0
10046,RIVERVIEW REGIONAL MEDICAL CENTER,600 SOUTH THIRD STREET,GADSDEN,35901,ETOWAH,2565435200,Proprietary,Heart Attack,25 patients,0
10016,SHELBY BAPTIST MEDICAL CENTER,1000 FIRST STREET NORTH,ALABASTER,35007,SHELBY,2056208100,Voluntary non-profit - Church,Surgical Infection Prevention,116 patients,0
10010,MARSHALL MEDICAL CENTER NORTH,8000 ALABAMA HIGHWAY 69,GUNTERSVILLE,35976,MARSHALL,2565718000,Government - Hospital District or Authority,Heart Attack,6 patients,0
10046,RIVERVIEW REGIONAL MEDICAL CENTER,600 SOUTH THIRD STREET,GADSDEN,35901,ETOWAH,2565435200,Proprietary,Surgical Infection Prevention,607 patients,0
10086,NORTHWEST MEDICAL CENTER,1530 U S HIGHWAY 43,WINFIELD,35594,MARION,2054877736,Proprietary,Heart Attack,1 patients,0
20018,YUKON KUSKOKWIM DELTA REG HOSPITAL,PO BOX 287,BETHEL,99559,BETHEL,9075436300,Government - Federal,Heart Attack,Empty,0
10008,CRENSHAW COMMUNITY HOSPITAL,101 HOSPITAL CIRCLE,LUVERNE,36049,CRENSHAW,3343353374,Government - Federal,Pneumonia,15 patients,0
10029,EAST ALABAMA MEDICAL CENTER AND SNF,2000 PEPPERELL PARKWAY,OPELIKA,36801,LEE,3347493411,Government - Hospital District or Authority,Surgical Infection Prevention,473 patients,0
10045,FAYETTE MEDICAL CENTER,1653 TEMPLE AVENUE NORTH,FAYETTE,35555,FAYETTE,2059325966,Voluntary non-profit - Other,Surgical Infection Prevention,7 patients,0
10011,ST VINCENT'S EAST,50 MEDICAL PARK EAST DRIVE,BIRMINGHAM,35235,JEFFERSON,2058383122,Voluntary non-profit - Private,Pneumonia,89 patients,0
10008,CRENSHAW COMMUNITY HOSPITAL,101 HOSPITAL CIRCLE,LUVERNE,36049,CRENSHAW,3343353374,Government - Federal,Heart Attack,1 patients,0
10164,COOSA VALLEY MEDICAL CENTER,315 W HICKORY ST,SYLACAUGA,35150,TALLADEGA,2562495000,Voluntary non-profit - Other,Pneumonia,51 patients,0
20017,ALASKA REGIONAL HOSPITAL,2801 DEBARR ROAD,ANCHORAGE,99508,ANCHORAGE,9072761131,Proprietary,Heart Failure,13 patients,0
10008,CRENSHAW COMMUNITY HOSPITAL,101 HOSPITAL CIRCLE,LUVERNE,36049,CRENSHAW,3343353374,Government - Federal,Heart Failure,5 patients,0
10006,ELIZA COFFEE MEMORIAL HOSPITAL,205 MARENGO STREET,FLORENCE,35631,LAUDERDALE,2567688400,Voluntary non-profit - Other,Heart Attack,159 patients,0
20017,ALASKA REGIONAL HOSPITAL,2801 DEBARR ROAD,ANCHORAGE,99508,ANCHORAGE,9072761131,Proprietary,Heart Failure,33 patients,0
10039,HUNTSVILLE HOSPITAL,101 SIVLEY RD,HUNTSVILLE,35801,MADISON,2562651000,Government - Hospital District or Authority,Surgical Infection Prevention,852 patients,0
10055,FLOWERS HOSPITAL,4370 WEST MAIN STREET,DOTHAN,36305,HOUSTON,3347935000,Proprietary,Pneumonia,146 patients,0
10023,BAPTIST MEDICAL CENTER SOUTH,2105 EAST SOUTH BOULEVARD,MONTGOMERY,36116,MONTGOMERY,3342882100,Voluntary non-profit - Church,Pneumonia,101 patients,0
10022,CHEROKEE MEDICAL CENTER,400 NORTHWOOD DR,CENTRE,35960,CHEROKEE,2569275531,Voluntary non-profit - Private,Heart Attack,0 patients,0
10019,HELEN KELLER MEMORIAL HOSPITAL,1300 SOUTH MONTGOMERY AVENUE,SHEFFIELD,35660,JEFFERSON,2563864556,Government - Hospital District or Authority,Heart Attack,4 patients,0
10001,SOUTHEAST ALABAMA MEDICAL CENTER,1108 ROSS CLARK CIRCLE,DOTHAN,36302,HOUSTON,3347938701,Government - Hospital District or Authority,Pneumonia,147 patients,0
20017,ALASKA REGIONAL HOSPITAL,2801 DEBARR ROAD,ANCHORAGE,99508,ANCHORAGE,9072761131,Proprietary,Surgical Infection Prevention,690 patients,0
10045,FAYETTE MEDICAL CENTER,1653 TEMPLE AVENUE NORTH,FAYETTE,35555,FAYETTE,2059325966,Voluntary non-profit - Other,Pneumonia,41 patients,0
10050,ST VINCENTS BLOUNT,150 GILBREATH DRIVE,ONEONTA,35121,BLOUNT,2052743000,Voluntary non-profit - Private,Heart Attack,7 patients,0
10007,MIZELL MEMORIAL HOSPITAL,702 N MAIN ST,OPP,36467,COVINGTON,3344933541,Voluntary non-profit - Private,Surgical Infection Prevention,11 patients,0
10006,ELIZA COFFEE MEMORIAL HOSPITAL,205 MARENGO STREET,FLORENCE,35631,LAUDERDALE,2567688400,Voluntary non-profit - Other,Heart Failure,53 patients,0
10022,CHEROKEE MEDICAL CENTER,400 NORTHWOOD DR,CENTRE,35960,CHEROKEE,2569275531,Voluntary non-profit - Private,Pneumonia,44 patients,0
10018,CALLAHAN EYE FOUNDATION HOSPITAL,1720 UNIVERSITY BLVD,BIRMINGHAM,35233,JEFFERSON,2053258100,Voluntary non-profit - Private,Surgical Infection Prevention,Empty,0
10005,MARSHALL MEDICAL CENTER SOUTH,2505 U S HIGHWAY 431 NORTH,BOAZ,35957,MARSHALL,2565938310,Government - Hospital District or Authority,Heart Failure,69 patients,0
10024,JACKSON HOSPITAL & CLINIC INC,1725 PINE STREET,MONTGOMERY,36106,MONTGOMERY,3342938000,Voluntary non-profit - Private,Heart Attack,0 patients,0
10023,BAPTIST MEDICAL CENTER SOUTH,2105 EAST SOUTH BOULEVARD,MONTGOMERY,36116,MONTGOMERY,3342882100,Voluntary non-profit - Church,Heart Attack,254 patients,0
10046,RIVERVIEW REGIONAL MEDICAL CENTER,600 SOUTH THIRD STREET,GADSDEN,35901,ETOWAH,2565435200,Proprietary,Heart Attack,125 patients,0
10038,STRINGFELLOW MEMORIAL HOSPITAL,301 EAST 18TH ST,ANNISTON,36201,CALHOUN,2562358900,Proprietary,Surgical Infection Prevention,117 patients,0
10008,CRENSHAW COMMUNITY HOSPITAL,101 HOSPITAL CIRCLE,LUVERNE,36049,CRENSHAW,3343353374,Government - Federal,Surgical Infection Prevention,4 patients,0
10025,G H LANIER MEMORIAL HOSPITAL,4800 48TH ST,VALLEY,36854,CHAMBERS,3347561400,Voluntary non-profit - Other,Heart Attack,1 patients,0
10039,HUNTSVILLE HOSPITAL,101 SIVLEY RD,HUNTSVILLE,35801,MADISON,2562651000,Government - Hospital District or Authority,Children s Asthma Care,193 patients,0
10024,JACKSON HOSPITAL & CLINIC INC,1725 PINE STREET,MONTGOMERY,36106,MONTGOMERY,3342938000,Voluntary non-profit - Private,Heart Attack,165 patients,0
10023,BAPTIST MEDICAL CENTER SOUTH,2105 EAST SOUTH BOULEVARD,MONTGOMERY,36116,MONTGOMERY,3342882100,Voluntary non-profit - Church,Pneumonia,87 patients,0
10036,ANDALUSIA REGIONAL HOSPITAL,849 SOUTH THREE NOTCH STREET,ANDALUSIA,36420,COVINGTON,3342228466,Proprietary,Heart Failure,32 patients,0
10019,HELEN KELLER MEMORIAL HOSPITAL,1300 SOUTH MONTGOMERY AVENUE,SHEFFIELD,35660,JEFFERSON,2563864556,Government - Hospital District or Authority,Pneumonia,150 patients,0
10046,RIVERVIEW REGIONAL MEDICAL CENTER,600 SOUTH THIRD STREET,GADSDEN,35901,ETOWAH,2565435200,Proprietary,Heart Attack,145 patients,0
10040,GADSDEN REGIONAL MEDICAL CENTER,1007 GOODYEAR AVENUE,GADSDEN,35903,ETOWAH,2564944000,Proprietary,Pneumonia,255 patients,0
10006,ELIZA COFFEE MEMORIAL HOSPITAL,205 MARENGO STREET,FLORENCE,35631,LAUDERDALE,2567688400,Voluntary non-profit - Other,Pneumonia,137 patients,0
10035,CULLMAN REGIONAL MEDICAL CENTER,1912 ALABAMA HIGHWAY 157,CULLMAN,35058,CULLMAN,2567372000,Government - Hospital District or Authority,Heart Failure,200 patients,0
10029,EAST ALABAMA MEDICAL CENTER AND SNF,2000 PEPPERELL PARKWAY,OPELIKA,36801,LEE,3347493411,Government - Hospital District or Authority,Surgical Infection Prevention,1016 patients,0
10011,ST VINCENT'S EAST,50 MEDICAL PARK EAST DRIVE,BIRMINGHAM,35235,JEFFERSON,2058383122,Voluntary non-profit - Private,Heart Attack,131 patients,0
10045,FAYETTE MEDICAL CENTER,1653 TEMPLE AVENUE NORTH,FAYETTE,35555,FAYETTE,2059325966,Voluntary non-profit - Other,Pneumonia,109 patients,0
10085,DECATUR GENERAL HOSPITAL,1201 7TH STREET SE,DECATUR,35609,MORGAN,2563412000,Government - Hospital District or Authority,Surgical Infection Prevention,205 patients,0
10040,GADSDEN REGIONAL MEDICAL CENTER,1007 GOODYEAR AVENUE,GADSDEN,35903,ETOWAH,2564944000,Proprietary,Pneumonia,187 patients,0
10016,SHELBY BAPTIST MEDICAL CENTER,1000 FIRST STREET NORTH,ALABASTER,35007,SHELBY,2056208100,Voluntary non-profit - Church,Heart Failure,210 patients,0
10034,COMMUNITY HOSPITAL INC,805 FRIENDSHIP ROAD,TALLASSEE,36078,ELMORE,3342836541,Voluntary non-profit - Private,Heart Attack,4 patients,0
10045,FAYETTE MEDICAL CENTER,1653 TEMPLE AVENUE NORTH,FAYETTE,35555,FAYETTE,2059325966,Voluntary non-profit - Other,Heart Attack,1 patients,0
10045,FAYETTE MEDICAL CENTER,1653 TEMPLE AVENUE NORTH,FAYETTE,35555,FAYETTE,2059325966,Voluntary non-profit - Other,Pneumonia,41 patients,0
10035,CULLMAN REGIONAL MEDICAL CENTER,1912 ALABAMA HIGHWAY 157,CULLMAN,35058,CULLMAN,2567372000,Government - Hospital District or Authority,Heart Failure,200 patients,0
10108,PRATTVILLE BAPTIST HOSPITAL,124 S MEMORIAL DR,PRATTVILLE,36067,AUTAUGA,3343614267,Voluntary non-profit - Private,Heart Attack,4 patients,0
10036,ANDALUSIA REGIONAL HOSPITAL,849 SOUTH THREE NOTCH STREET,ANDALUSIA,36420,COVINGTON,3342228466,Proprietary,Heart Attack,5 patients,0
10025,G H LANIER MEMORIAL HOSPITAL,4800 48TH ST,VALLEY,36854,CHAMBERS,3347561400,Voluntary non-profit - Other,Surgical Infection Prevention,117 patients,0
10025,G H LANIER MEMORIAL HOSPITAL,4800 48TH ST,VALLEY,36854,CHAMBERS,3347561400,Voluntary non-profit - Other,Pneumonia,50 patients,0
10019,HELEN KELLER MEMORIAL HOSPITAL,1300 SOUTH MONTGOMERY AVENUE,SHEFFIELD,35660,JEFFERSON,2563864556,Government - Hospital District or Authority,Pneumonia,149 patients,0
10023,BAPTIST MEDICAL CENTER SOUTH,2105 EAST SOUTH BOULEVARD,MONTGOMERY,36116,MONTGOMERY,3342882100,Voluntary non-profit - Church,Pneumonia,99 patients,0
10040,GADSDEN REGIONAL MEDICAL CENTER,1007 GOODYEAR AVENUE,GADSDEN,35903,ETOWAH,2564944000,Proprietary,Heart Attack,79 patients,0
10012,DEKALB REGIONAL MEDICAL CENTER,200 MED CENTER DRIVE,FORT PAYNE,35968,DE KALB,2568453150,Voluntary non-profit - Church,Pneumonia,88 patients,0
10021,DALE MEDICAL CENTER,126 HOSPITAL AVE,OZARK,36360,DALE,3347742601,Government - Hospital District or Authority,Pneumonia,67 patients,0
10039,HUNTSVILLE HOSPITAL,101 SIVLEY RD,HUNTSVILLE,35801,MADISON,2562651000,Government - Hospital District or Authority,Pneumonia,313 patients,0
10032,WEDOWEE HOSPITAL,209 NORTH MAIN STREET,WEDOWEE,36278,RANDOLPH,2563572111,Government - Local,Surgical Infection Prevention,Empty,0
10011,ST VINCENT'S EAST,50 MEDICAL PARK EAST DRIVE,BIRMINGHAM,35235,JEFFERSON,2058383122,Voluntary non-profit - Private,Heart Attack,240 patients,0
10108,PRATTVILLE BAPTIST HOSPITAL,124 S MEMORIAL DR,PRATTVILLE,36067,AUTAUGA,3343614267,Voluntary non-profit - Private,Pneumonia,89 patients,0
10047,GEORGIANA HOSPITAL,515 MIRANDA ST,GEORGIANA,36033,BUTLER,3343762205,Voluntary non-profit - Private,Heart Attack,15 patients,0
10039,HUNTSVILLE HOSPITAL,101 SIVLEY RD,HUNTSVILLE,35801,MADISON,2562651000,Government - Hospital District or Authority,Heart Attack,44 patients,0
10006,ELIZA COFFEE MEMORIAL HOSPITAL,205 MARENGO STREET,FLORENCE,35631,LAUDERDALE,2567688400,Voluntary non-profit - Other,Surgical Infection Prevention,242 patients,0
10001,SOUTHEAST ALABAMA MEDICAL CENTER,1108 ROSS CLARK CIRCLE,DOTHAN,36302,HOUSTON,3347938701,Government - Hospital District or Authority,Heart Attack,516 patients,0
10007,MIZELL MEMORIAL HOSPITAL,702 N MAIN ST,OPP,36467,COVINGTON,3344933541,Voluntary non-profit - Private,Surgical Infection Prevention,76 patients,0
20017,ALASKA REGIONAL HOSPITAL,2801 DEBARR ROAD,ANCHORAGE,99508,ANCHORAGE,9072761131,Proprietary,Heart Failure,61 patients,0
10009,HARTSELLE MEDICAL CENTER,201 PINE STREET NORTHWEST,HARTSELLE,35640,MORGAN,2567736511,Proprietary,Surgical Infection Prevention,9 patients,0
10040,GADSDEN REGIONAL MEDICAL CENTER,1007 GOODYEAR AVENUE,GADSDEN,35903,ETOWAH,2564944000,Proprietary,Surgical Infection Prevention,315 patients,0
10021,DALE MEDICAL CENTER,126 HOSPITAL AVE,OZARK,36360,DALE,3347742601,Government - Hospital District or Authority,Pneumonia,62 patients,0
10016,SHELBY BAPTIST MEDICAL CENTER,1000 FIRST STREET NORTH,ALABASTER,35007,SHELBY,2056208100,Voluntary non-profit - Church,Surgical Infection Prevention,96 patients,0
10001,SOUTHEAST ALABAMA MEDICAL CENTER,1108 ROSS CLARK CIRCLE,DOTHAN,36302,HOUSTON,3347938701,Government - Hospital District or Authority,Heart Attack,244 patients,0
10044,MARION REGIONAL MEDICAL CENTER,1256 MILITARY STREET SOUTH,HAMILTON,35570,MARION,2059216200,Voluntary non-profit - Private,Surgical Infection Prevention,4 patients,0
10108,PRATTVILLE BAPTIST HOSPITAL,124 S MEMORIAL DR,PRATTVILLE,36067,AUTAUGA,3343614267,Voluntary non-profit - Private,Heart Failure,75 patients,0
10049,MEDICAL CENTER ENTERPRISE,400 N EDWARDS STREET,ENTERPRISE,36330,COFFEE,3343470584,Proprietary,Heart Failure,15 patients,0
10047,GEORGIANA HOSPITAL,515 MIRANDA ST,GEORGIANA,36033,BUTLER,3343762205,Voluntary non-profit - Private,Surgical Infection Prevention,Empty,0
10006,ELIZA COFFEE MEMORIAL HOSPITAL,205 MARENGO STREET,FLORENCE,35631,LAUDERDALE,2567688400,Voluntary non-profit - Other,Heart Attack,61 patients,0
10032,WEDOWEE HOSPITAL,209 NORTH MAIN STREET,WEDOWEE,36278,RANDOLPH,2563572111,Government - Local,Surgical Infection Prevention,Empty,0
10008,CRENSHAW COMMUNITY HOSPITAL,101 HOSPITAL CIRCLE,LUVERNE,36049,CRENSHAW,3343353374,Government - Federal,Heart Attack,1 patients,0
10027,ELBA GENERAL HOSPITAL,987 DRAYTON STREET,ELBA,36323,COFFEE,3348972257,Voluntary non-profit - Other,Heart Attack,Empty,0
10164,COOSA VALLEY MEDICAL CENTER,315 W HICKORY ST,SYLACAUGA,35150,TALLADEGA,2562495000,Voluntary non-profit - Other,Heart Attack,1 patients,0
10047,GEORGIANA HOSPITAL,515 MIRANDA ST,GEORGIANA,36033,BUTLER,3343762205,Voluntary non-profit - Private,Heart Attack,19 patients,0
10001,SOUTHEAST ALABAMA MEDICAL CENTER,1108 ROSS CLARK CIRCLE,DOTHAN,36302,HOUSTON,3347938701,Government - Hospital District or Authority,Pneumonia,125 patients,0
