ProviderNumber,HospitalName,Address1,City,ZipCode,CountyName,PhoneNumber,HospitalOwner,Condition,Sample,label
10044,MARION REGIONAL MEDICAL CENTER,1256 MILITARY STREET SOUTH,HAMILTON,35570,MARION,2059216200,Voluntary non-profit - Private,Heart Attack,0 patients,0
10047,GEORGIANA HOSPITAL,515 MIRANDA ST,GEORGIANA,36033,BUTLER,3343762205,Voluntary non-profit - Private,Surgical Infection Prevention,Empty,0
10036,ANDALUSIA REGIONAL HOSPITAL,849 SOUTH THREE NOTCH STREET,ANDALUSIA,36420,COVINGTON,3342228466,Proprietary,Heart Attack,0 patients,0
10025,G H LANIER MEMORIAL HOSPITAL,4800 48TH ST,VALLEY,36854,CHAMBERS,3347561400,Voluntary non-profit - Other,Heart Attack,1 patients,0
10036,ANDALUSIA REGIONAL HOSPITAL,849 SOUTH THREE NOTCH STREET,ANDALUSIA,36420,COVINGTON,3342228466,Proprietary,Heart Attack,0 patients,0
10023,BAPTIST MEDICAL CENTER SOUTH,2105 EAST SOUTH BOULEVARD,MONTGOMERY,36116,MONTGOMERY,3342882100,Voluntary non-profit - Church,Heart Attack,0 patients,0
10008,CRENSHAW COMMUNITY HOSPITAL,101 HOSPITAL CIRCLE,LUVERNE,36049,CRENSHAW,3343353374,Government - Federal,Heart Failure,26 patients,0
10008,CRENSHAW COMMUNITY HOSPITAL,101 HOSPITAL CIRCLE,LUVERNE,36049,CRENSHAW,3343353374,Government - Federal,Heart Attack,1 patients,0
10046,RIVERVIEW REGIONAL MEDICAL CENTER,600 SOUTH THIRD STREET,GADSDEN,35901,ETOWAH,2565435200,Proprietary,Heart Attack,68 patients,0
10050,ST VINCENTS BLOUNT,150 GILBREATH DRIVE,ONEONTA,35121,BLOUNT,2052743000,Voluntary non-profit - Private,Pneumonia,29 patients,0
10039,HUNTSVILLE HOSPITAL,101 SIVLEY RD,HUNTSVILLE,35801,MADISON,2562651000,Government - Hospital District or Authority,Heart Attack,135 patients,0
10039,HUNTSVILLE HOSPITAL,101 SIVLEY RD,HUNTSVILLE,35801,MADISON,2562651000,Government - Hospital District or Authority,Surgical Infection Prevention,149 patients,0
10087,UNIV OF SOUTH ALABAMA MEDICAL CENTER,2451 FILLINGIM STREET,MOBILE,36617,MOBILE,2514717110,Government - State,Heart Attack,96 patients,0
10012,DEKALB REGIONAL MEDICAL CENTER,200 MED CENTER DRIVE,FORT PAYNE,35968,DE KALB,2568453150,Voluntary non-profit - Church,Pneumonia,56 patients,0
10050,ST VINCENTS BLOUNT,150 GILBREATH DRIVE,ONEONTA,35121,BLOUNT,2052743000,Voluntary non-profit - Private,Pneumonia,103 patients,0
10005,MARSHALL MEDICAL CENTER SOUTH,2505 U S HIGHWAY 431 NORTH,BOAZ,35957,MARSHALL,2565938310,Government - Hospital District or Authority,Heart Attack,5 patients,0
10164,COOSA VALLEY MEDICAL CENTER,315 W HICKORY ST,SYLACAUGA,35150,TALLADEGA,2562495000,Voluntary non-profit - Other,Heart Attack,0 patients,0
10033,UNIVERSITY OF ALABAMA HOSPITAL,619 SOUTH 19TH STREET,BIRMINGHAM,35233,JEFFERSON,2059344011,Government - State,Heart Attack,87 patients,0
10008,CRENSHAW COMMUNITY HOSPITAL,101 HOSPITAL CIRCLE,LUVERNE,36049,CRENSHAW,3343353374,Government - Federal,Heart Failure,8 patients,0
10001,SOUTHEAST ALABAMA MEDICAL CENTER,1108 ROSS CLARK CIRCLE,DOTHAN,36302,HOUSTON,3347938701,Government - Hospital District or Authority,Surgical Infection Prevention,385 patients,0
10011,ST VINCENT'S EAST,50 MEDICAL PARK EAST DRIVE,BIRMINGHAM,35235,JEFFERSON,2058383122,Voluntary non-profit - Private,Heart Failure,316 patients,0
10023,BAPTIST MEDICAL CENTER SOUTH,2105 EAST SOUTH BOULEVARD,MONTGOMERY,36116,MONTGOMERY,3342882100,Voluntary non-profit - Church,Surgical Infection Prevention,575 patients,0
10038,STRINGFELLOW MEMORIAL HOSPITAL,301 EAST 18TH ST,ANNISTON,36201,CALHOUN,2562358900,Proprietary,Surgical Infection Prevention,98 patients,0
10018,CALLAHAN EYE FOUNDATION HOSPITAL,1720 UNIVERSITY BLVD,BIRMINGHAM,35233,JEFFERSON,2053258100,Voluntary non-profit - Private,Surgical Infection Prevention,Empty,0
10050,ST VINCENTS BLOUNT,150 GILBREATH DRIVE,ONEONTA,35121,BLOUNT,2052743000,Voluntary non-profit - Private,Heart Attack,0 patients,0
10029,EAST ALABAMA MEDICAL CENTER AND SNF,2000 PEPPERELL PARKWAY,OPELIKA,36801,LEE,3347493411,Government - Hospital District or Authority,Pneumonia,115 patients,0
10038,STRINGFELLOW MEMORIAL HOSPITAL,301 EAST 18TH ST,ANNISTON,36201,CALHOUN,2562358900,Proprietary,Surgical Infection Prevention,116 patients,0
10027,ELBA GENERAL HOSPITAL,987 DRAYTON STREET,ELBA,36323,COFFEE,3348972257,Voluntary non-profit - Other,Pneumonia,31 patients,0
10010,MARSHALL MEDICAL CENTER NORTH,8000 ALABAMA HIGHWAY 69,GUNTERSVILLE,35976,MARSHALL,2565718000,Government - Hospital District or Authority,Surgical Infection Prevention,0 patients,0
10019,HELEN KELLER MEMORIAL HOSPITAL,1300 SOUTH MONTGOMERY AVENUE,SHEFFIELD,35660,JEFFERSON,2563864556,Government - Hospital District or Authority,Heart Failure,37 patients,0
10034,COMMUNITY HOSPITAL INC,805 FRIENDSHIP ROAD,TALLASSEE,36078,ELMORE,3342836541,Voluntary non-profit - Private,Pneumonia,56 patients,0
10044,MARION REGIONAL MEDICAL CENTER,1256 MILITARY STREET SOUTH,HAMILTON,35570,MARION,2059216200,Voluntary non-profit - Private,Heart Attack,3 patients,0
10044,MARION REGIONAL MEDICAL CENTER,1256 MILITARY STREET SOUTH,HAMILTON,35570,MARION,2059216200,Voluntary non-profit - Private,Surgical Infection Prevention,0 patients,0
10005,MARSHALL MEDICAL CENTER SOUTH,2505 U S HIGHWAY 431 NORTH,BOAZ,35957,MARSHALL,2565938310,Government - Hospital District or Authority,Pneumonia,118 patients,0
10038,STRINGFELLOW MEMORIAL HOSPITAL,301 EAST 18TH ST,ANNISTON,36201,CALHOUN,2562358900,Proprietary,Pneumonia,102 patients,0
10023,BAPTIST MEDICAL CENTER SOUTH,2105 EAST SOUTH BOULEVARD,MONTGOMERY,36116,MONTGOMERY,3342882100,Voluntary non-profit - Church,Surgical Infection Prevention,89 patients,0
10009,HARTSELLE MEDICAL CENTER,201 PINE STREET NORTHWEST,HARTSELLE,35640,MORGAN,2567736511,Proprietary,Pneumonia,30 patients,0
10164,COOSA VALLEY MEDICAL CENTER,315 W HICKORY ST,SYLACAUGA,35150,TALLADEGA,2562495000,Voluntary non-profit - Other,Heart Failure,46 patients,0
10007,MIZELL MEMORIAL HOSPITAL,702 N MAIN ST,OPP,36467,COVINGTON,3344933541,Voluntary non-profit - Private,Heart Attack,0 patients,0
10050,ST VINCENTS BLOUNT,150 GILBREATH DRIVE,ONEONTA,35121,BLOUNT,2052743000,Voluntary non-profit - Private,Heart Attack,2 patients,0
10164,COOSA VALLEY MEDICAL CENTER,315 W HICKORY ST,SYLACAUGA,35150,TALLADEGA,2562495000,Voluntary non-profit - Other,Heart Attack,10 patients,0
10023,BAPTIST MEDICAL CENTER SOUTH,2105 EAST SOUTH BOULEVARD,MONTGOMERY,36116,MONTGOMERY,3342882100,Voluntary non-profit - Church,Heart Attack,27 patients,0
10010,MARSHALL MEDICAL CENTER NORTH,8000 ALABAMA HIGHWAY 69,GUNTERSVILLE,35976,MARSHALL,2565718000,Government - Hospital District or Authority,Heart Attack,2 patients,0
10049,MEDICAL CENTER ENTERPRISE,400 N EDWARDS STREET,ENTERPRISE,36330,COFFEE,3343470584,Proprietary,Pneumonia,72 patients,0
10029,EAST ALABAMA MEDICAL CENTER AND SNF,2000 PEPPERELL PARKWAY,OPELIKA,36801,LEE,3347493411,Government - Hospital District or Authority,Heart Attack,185 patients,0
10027,ELBA GENERAL HOSPITAL,987 DRAYTON STREET,ELBA,36323,COFFEE,3348972257,Voluntary non-profit - Other,Pneumonia,23 patients,0
10025,G H LANIER MEMORIAL HOSPITAL,4800 48TH ST,VALLEY,36854,CHAMBERS,3347561400,Voluntary non-profit - Other,Pneumonia,55 patients,0
10010,MARSHALL MEDICAL CENTER NORTH,8000 ALABAMA HIGHWAY 69,GUNTERSVILLE,35976,MARSHALL,2565718000,Government - Hospital District or Authority,Surgical Infection Prevention,66 patients,0
10045,FAYETTE MEDICAL CENTER,1653 TEMPLE AVENUE NORTH,FAYETTE,35555,FAYETTE,2059325966,Voluntary non-profit - Other,Heart Failure,85 patients,0
10033,UNIVERSITY OF ALABAMA HOSPITAL,619 SOUTH 19TH STREET,BIRMINGHAM,35233,JEFFERSON,2059344011,Government - State,Surgical Infection Prevention,230 patients,0
10012,DEKALB REGIONAL MEDICAL CENTER,200 MED CENTER DRIVE,FORT PAYNE,35968,DE KALB,2568453150,Voluntary non-profit - Church,Surgical Infection Prevention,179 patients,0
10046,RIVERVIEW REGIONAL MEDICAL CENTER,600 SOUTH THIRD STREET,GADSDEN,35901,ETOWAH,2565435200,Proprietary,Heart Failure,268 patients,0
20017,ALASKA REGIONAL HOSPITAL,2801 DEBARR ROAD,ANCHORAGE,99508,ANCHORAGE,9072761131,Proprietary,Surgical Infection Prevention,226 patients,0
10049,MEDICAL CENTER ENTERPRISE,400 N EDWARDS STREET,ENTERPRISE,36330,COFFEE,3343470584,Proprietary,Surgical Infection Prevention,397 patients,0
10049,MEDICAL CENTER ENTERPRISE,400 N EDWARDS STREET,ENTERPRISE,36330,COFFEE,3343470584,Proprietary,Surgical Infection Prevention,397 patients,0
10050,ST VINCENTS BLOUNT,150 GILBREATH DRIVE,ONEONTA,35121,BLOUNT,2052743000,Voluntary non-profit - Private,Heart Attack,0 patients,0
10019,HELEN KELLER MEMORIAL HOSPITAL,1300 SOUTH MONTGOMERY AVENUE,SHEFFIELD,35660,JEFFERSON,2563864556,Government - Hospital District or Authority,Pneumonia,149 patients,0
10006,ELIZA COFFEE MEMORIAL HOSPITAL,205 MARENGO STREET,FLORENCE,35631,LAUDERDALE,2567688400,Voluntary non-profit - Other,Heart Attack,103 patients,0
10046,RIVERVIEW REGIONAL MEDICAL CENTER,600 SOUTH THIRD STREET,GADSDEN,35901,ETOWAH,2565435200,Proprietary,Surgical Infection Prevention,607 patients,0
10056,ST VINCENTS HOSPITAL,810 ST VINCENTS DRIVE,BIRMINGHAM,35205,JEFFERSON,2059397000,Voluntary non-profit - Other,Heart Attack,239 patients,0
10045,FAYETTE MEDICAL CENTER,1653 TEMPLE AVENUE NORTH,FAYETTE,35555,FAYETTE,2059325966,Voluntary non-profit - Other,Heart Attack,0 patients,0
10006,ELIZA COFFEE MEMORIAL HOSPITAL,205 MARENGO STREET,FLORENCE,35631,LAUDERDALE,2567688400,Voluntary non-profit - Other,Pneumonia,65 patients,0
10040,GADSDEN REGIONAL MEDICAL CENTER,1007 GOODYEAR AVENUE,GADSDEN,35903,ETOWAH,2564944000,Proprietary,Surgical Infection Prevention,557 patients,0
10008,CRENSHAW COMMUNITY HOSPITAL,101 HOSPITAL CIRCLE,LUVERNE,36049,CRENSHAW,3343353374,Government - Federal,Surgical Infection Prevention,2 patients,0
10015,SOUTHWEST ALABAMA MEDICAL CENTER,33700 HIGHWAY 43,THOMASVILLE,36784,CLARKE,3346366221,Government - Federal,Pneumonia,24 patients,0
10108,PRATTVILLE BAPTIST HOSPITAL,124 S MEMORIAL DR,PRATTVILLE,36067,AUTAUGA,3343614267,Voluntary non-profit - Private,Surgical Infection Prevention,1 patients,0
10055,FLOWERS HOSPITAL,4370 WEST MAIN STREET,DOTHAN,36305,HOUSTON,3347935000,Proprietary,Surgical Infection Prevention,882 patients,0
10010,MARSHALL MEDICAL CENTER NORTH,8000 ALABAMA HIGHWAY 69,GUNTERSVILLE,35976,MARSHALL,2565718000,Government - Hospital District or Authority,Pneumonia,133 patients,0
10086,NORTHWEST MEDICAL CENTER,1530 U S HIGHWAY 43,WINFIELD,35594,MARION,2054877736,Proprietary,Surgical Infection Prevention,103 patients,0
10044,MARION REGIONAL MEDICAL CENTER,1256 MILITARY STREET SOUTH,HAMILTON,35570,MARION,2059216200,Voluntary non-profit - Private,Pneumonia,78 patients,0
10038,STRINGFELLOW MEMORIAL HOSPITAL,301 EAST 18TH ST,ANNISTON,36201,CALHOUN,2562358900,Proprietary,Heart Attack,67 patients,0
10108,PRATTVILLE BAPTIST HOSPITAL,124 S MEMORIAL DR,PRATTVILLE,36067,AUTAUGA,3343614267,Voluntary non-profit - Private,Heart Attack,4 patients,0
10033,UNIVERSITY OF ALABAMA HOSPITAL,619 SOUTH 19TH STREET,BIRMINGHAM,35233,JEFFERSON,2059344011,Government - State,Heart Failure,343 patients,0
10027,ELBA GENERAL HOSPITAL,987 DRAYTON STREET,ELBA,36323,COFFEE,3348972257,Voluntary non-profit - Other,Pneumonia,19 patients,0
10043,CHILTON MEDICAL CENTER,1010 LAY DAM ROAD,CLANTON,35045,CHILTON,2057552500,Voluntary non-profit - Private,Heart Failure,19 patients,0
10009,HARTSELLE MEDICAL CENTER,201 PINE STREET NORTHWEST,HARTSELLE,35640,MORGAN,2567736511,Proprietary,Heart Failure,35 patients,0
10040,GADSDEN REGIONAL MEDICAL CENTER,1007 GOODYEAR AVENUE,GADSDEN,35903,ETOWAH,2564944000,Proprietary,Surgical Infection Prevention,564 patients,0
10018,CALLAHAN EYE FOUNDATION HOSPITAL,1720 UNIVERSITY BLVD,BIRMINGHAM,35233,JEFFERSON,2053258100,Voluntary non-profit - Private,Pneumonia,Empty,0
10023,BAPTIST MEDICAL CENTER SOUTH,2105 EAST SOUTH BOULEVARD,MONTGOMERY,36116,MONTGOMERY,3342882100,Voluntary non-profit - Church,Pneumonia,71 patients,0
10043,CHILTON MEDICAL CENTER,1010 LAY DAM ROAD,CLANTON,35045,CHILTON,2057552500,Voluntary non-profit - Private,Heart Attack,1 patients,0
10035,CULLMAN REGIONAL MEDICAL CENTER,1912 ALABAMA HIGHWAY 157,CULLMAN,35058,CULLMAN,2567372000,Government - Hospital District or Authority,Pneumonia,90 patients,0
10021,DALE MEDICAL CENTER,126 HOSPITAL AVE,OZARK,36360,DALE,3347742601,Government - Hospital District or Authority,Surgical Infection Prevention,52 patients,0
10043,CHILTON MEDICAL CENTER,1010 LAY DAM ROAD,CLANTON,35045,CHILTON,2057552500,Voluntary non-profit - Private,Pneumonia,36 patients,0
10036,ANDALUSIA REGIONAL HOSPITAL,849 SOUTH THREE NOTCH STREET,ANDALUSIA,36420,COVINGTON,3342228466,Proprietary,Pneumonia,43 patients,0
10029,EAST ALABAMA MEDICAL CENTER AND SNF,2000 PEPPERELL PARKWAY,OPELIKA,36801,LEE,3347493411,Government - Hospital District or Authority,Surgical Infection Prevention,1016 patients,0
10043,CHILTON MEDICAL CENTER,1010 LAY DAM ROAD,CLANTON,35045,CHILTON,2057552500,Voluntary non-profit - Private,Pneumonia,47 patients,0
10016,SHELBY BAPTIST MEDICAL CENTER,1000 FIRST STREET NORTH,ALABASTER,35007,SHELBY,2056208100,Voluntary non-profit - Church,Surgical Infection Prevention,331 patients,0
10043,CHILTON MEDICAL CENTER,1010 LAY DAM ROAD,CLANTON,35045,CHILTON,2057552500,Voluntary non-profit - Private,Pneumonia,37 patients,0
10164,COOSA VALLEY MEDICAL CENTER,315 W HICKORY ST,SYLACAUGA,35150,TALLADEGA,2562495000,Voluntary non-profit - Other,Heart Failure,105 patients,0
10012,DEKALB REGIONAL MEDICAL CENTER,200 MED CENTER DRIVE,FORT PAYNE,35968,DE KALB,2568453150,Voluntary non-profit - Church,Surgical Infection Prevention,90 patients,0
10009,HARTSELLE MEDICAL CENTER,201 PINE STREET NORTHWEST,HARTSELLE,35640,MORGAN,2567736511,Proprietary,Pneumonia,25 patients,0
10024,JACKSON HOSPITAL & CLINIC INC,1725 PINE STREET,MONTGOMERY,36106,MONTGOMERY,3342938000,Voluntary non-profit - Private,Heart Failure,146 patients,0
10022,CHEROKEE MEDICAL CENTER,400 NORTHWOOD DR,CENTRE,35960,CHEROKEE,2569275531,Voluntary non-profit - Private,Heart Attack,0 patients,0
10001,SOUTHEAST ALABAMA MEDICAL CENTER,1108 ROSS CLARK CIRCLE,DOTHAN,36302,HOUSTON,3347938701,Government - Hospital District or Authority,Heart Attack,71 patients,0
10010,MARSHALL MEDICAL CENTER NORTH,8000 ALABAMA HIGHWAY 69,GUNTERSVILLE,35976,MARSHALL,2565718000,Government - Hospital District or Authority,Pneumonia,115 patients,0
10036,ANDALUSIA REGIONAL HOSPITAL,849 SOUTH THREE NOTCH STREET,ANDALUSIA,36420,COVINGTON,3342228466,Proprietary,Pneumonia,55 patients,0
10015,SOUTHWEST ALABAMA MEDICAL CENTER,33700 HIGHWAY 43,THOMASVILLE,36784,CLARKE,3346366221,Government - Federal,Surgical Infection Prevention,14 patients,0
10055,FLOWERS HOSPITAL,4370 WEST MAIN STREET,DOTHAN,36305,HOUSTON,3347935000,Proprietary,Surgical Infection Prevention,950 patients,0
10055,FLOWERS HOSPITAL,4370 WEST MAIN STREET,DOTHAN,36305,HOUSTON,3347935000,Proprietary,Surgical Infection Prevention,950 patients,0
10007,MIZELL MEMORIAL HOSPITAL,702 N MAIN ST,OPP,36467,COVINGTON,3344933541,Voluntary non-profit - Private,Surgical Infection Prevention,76 patients,0
10011,ST VINCENT'S EAST,50 MEDICAL PARK EAST DRIVE,BIRMINGHAM,35235,JEFFERSON,2058383122,Voluntary non-profit - Private,Surgical Infection Prevention,473 patients,0
10022,CHEROKEE MEDICAL CENTER,400 NORTHWOOD DR,CENTRE,35960,CHEROKEE,2569275531,Voluntary non-profit - Private,Surgical Infection Prevention,0 patients,0
10005,MARSHALL MEDICAL CENTER SOUTH,2505 U S HIGHWAY 431 NORTH,BOAZ,35957,MARSHALL,2565938310,Government - Hospital District or Authority,Pneumonia,120 patients,0
10056,ST VINCENTS HOSPITAL,810 ST VINCENTS DRIVE,BIRMINGHAM,35205,JEFFERSON,2059397000,Voluntary non-profit - Other,Heart Attack,242 patients,0
10015,SOUTHWEST ALABAMA MEDICAL CENTER,33700 HIGHWAY 43,THOMASVILLE,36784,CLARKE,3346366221,Government - Federal,Pneumonia,26 patients,0
10011,ST VINCENT'S EAST,50 MEDICAL PARK EAST DRIVE,BIRMINGHAM,35235,JEFFERSON,2058383122,Voluntary non-profit - Private,Surgical Infection Prevention,224 patients,0
10040,GADSDEN REGIONAL MEDICAL CENTER,1007 GOODYEAR AVENUE,GADSDEN,35903,ETOWAH,2564944000,Proprietary,Pneumonia,266 patients,0
10045,FAYETTE MEDICAL CENTER,1653 TEMPLE AVENUE NORTH,FAYETTE,35555,FAYETTE,2059325966,Voluntary non-profit - Other,Pneumonia,86 patients,0
10049,MEDICAL CENTER ENTERPRISE,400 N EDWARDS STREET,ENTERPRISE,36330,COFFEE,3343470584,Proprietary,Surgical Infection Prevention,391 patients,0
10087,UNIV OF SOUTH ALABAMA MEDICAL CENTER,2451 FILLINGIM STREET,MOBILE,36617,MOBILE,2514717110,Government - State,Heart Failure,84 patients,0
10019,HELEN KELLER MEMORIAL HOSPITAL,1300 SOUTH MONTGOMERY AVENUE,SHEFFIELD,35660,JEFFERSON,2563864556,Government - Hospital District or Authority,Surgical Infection Prevention,255 patients,0
10012,DEKALB REGIONAL MEDICAL CENTER,200 MED CENTER DRIVE,FORT PAYNE,35968,DE KALB,2568453150,Voluntary non-profit - Church,Pneumonia,88 patients,0
10047,GEORGIANA HOSPITAL,515 MIRANDA ST,GEORGIANA,36033,BUTLER,3343762205,Voluntary non-profit - Private,Heart Attack,0 patients,0
10022,CHEROKEE MEDICAL CENTER,400 NORTHWOOD DR,CENTRE,35960,CHEROKEE,2569275531,Voluntary non-profit - Private,Heart Failure,35 patients,0
10018,CALLAHAN EYE FOUNDATION HOSPITAL,1720 UNIVERSITY BLVD,BIRMINGHAM,35233,JEFFERSON,2053258100,Voluntary non-profit - Private,Heart Attack,Empty,0
10038,STRINGFELLOW MEMORIAL HOSPITAL,301 EAST 18TH ST,ANNISTON,36201,CALHOUN,2562358900,Proprietary,Pneumonia,145 patients,0
10029,EAST ALABAMA MEDICAL CENTER AND SNF,2000 PEPPERELL PARKWAY,OPELIKA,36801,LEE,3347493411,Government - Hospital District or Authority,Surgical Infection Prevention,241 patients,0
10044,MARION REGIONAL MEDICAL CENTER,1256 MILITARY STREET SOUTH,HAMILTON,35570,MARION,2059216200,Voluntary non-profit - Private,Surgical Infection Prevention,19 patients,0
10040,GADSDEN REGIONAL MEDICAL CENTER,1007 GOODYEAR AVENUE,GADSDEN,35903,ETOWAH,2564944000,Proprietary,Surgical Infection Prevention,186 patients,0
10007,MIZELL MEMORIAL HOSPITAL,702 N MAIN ST,OPP,36467,COVINGTON,3344933541,Voluntary non-profit - Private,Surgical Infection Prevention,101 patients,0
10027,ELBA GENERAL HOSPITAL,987 DRAYTON STREET,ELBA,36323,COFFEE,3348972257,Voluntary non-profit - Other,Pneumonia,23 patients,0
10056,ST VINCENTS HOSPITAL,810 ST VINCENTS DRIVE,BIRMINGHAM,35205,JEFFERSON,2059397000,Voluntary non-profit - Other,Heart Attack,260 patients,0
10164,COOSA VALLEY MEDICAL CENTER,315 W HICKORY ST,SYLACAUGA,35150,TALLADEGA,2562495000,Voluntary non-profit - Other,Heart Attack,3 patients,0
10036,ANDALUSIA REGIONAL HOSPITAL,849 SOUTH THREE NOTCH STREET,ANDALUSIA,36420,COVINGTON,3342228466,Proprietary,Pneumonia,64 patients,0
10035,CULLMAN REGIONAL MEDICAL CENTER,1912 ALABAMA HIGHWAY 157,CULLMAN,35058,CULLMAN,2567372000,Government - Hospital District or Authority,Surgical Infection Prevention,405 patients,0
10040,GADSDEN REGIONAL MEDICAL CENTER,1007 GOODYEAR AVENUE,GADSDEN,35903,ETOWAH,2564944000,Proprietary,Heart Attack,134 patients,0
10009,HARTSELLE MEDICAL CENTER,201 PINE STREET NORTHWEST,HARTSELLE,35640,MORGAN,2567736511,Proprietary,Heart Attack,2 patients,0
10027,ELBA GENERAL HOSPITAL,987 DRAYTON STREET,ELBA,36323,COFFEE,3348972257,Voluntary non-profit - Other,Heart Attack,Empty,0
10108,PRATTVILLE BAPTIST HOSPITAL,124 S MEMORIAL DR,PRATTVILLE,36067,AUTAUGA,3343614267,Voluntary non-profit - Private,Pneumonia,93 patients,0
10008,CRENSHAW COMMUNITY HOSPITAL,101 HOSPITAL CIRCLE,LUVERNE,36049,CRENSHAW,3343353374,Government - Federal,Heart Attack,1 patients,0
10006,ELIZA COFFEE MEMORIAL HOSPITAL,205 MARENGO STREET,FLORENCE,35631,LAUDERDALE,2567688400,Voluntary non-profit - Other,Pneumonia,174 patients,0
10056,ST VINCENTS HOSPITAL,810 ST VINCENTS DRIVE,BIRMINGHAM,35205,JEFFERSON,2059397000,Voluntary non-profit - Other,Heart Attack,63 patients,0
10047,GEORGIANA HOSPITAL,515 MIRANDA ST,GEORGIANA,36033,BUTLER,3343762205,Voluntary non-profit - Private,Heart Failure,8 patients,0
10025,G H LANIER MEMORIAL HOSPITAL,4800 48TH ST,VALLEY,36854,CHAMBERS,3347561400,Voluntary non-profit - Other,Heart Attack,0 patients,0
10023,BAPTIST MEDICAL CENTER SOUTH,2105 EAST SOUTH BOULEVARD,MONTGOMERY,36116,MONTGOMERY,3342882100,Voluntary non-profit - Church,Surgical Infection Prevention,125 patients,0
10015,SOUTHWEST ALABAMA MEDICAL CENTER,33700 HIGHWAY 43,THOMASVILLE,36784,CLARKE,3346366221,Government - Federal,Heart Attack,0 patients,0
10036,ANDALUSIA REGIONAL HOSPITAL,849 SOUTH THREE NOTCH STREET,ANDALUSIA,36420,COVINGTON,3342228466,Proprietary,Heart Attack,0 patients,0
10009,HARTSELLE MEDICAL CENTER,201 PINE STREET NORTHWEST,HARTSELLE,35640,MORGAN,2567736511,Proprietary,Surgical Infection Prevention,9 patients,0
10039,HUNTSVILLE HOSPITAL,101 SIVLEY RD,HUNTSVILLE,35801,MADISON,2562651000,Government - Hospital District or Authority,Heart Attack,301 patients,0
10027,ELBA GENERAL HOSPITAL,987 DRAYTON STREET,ELBA,36323,COFFEE,3348972257,Voluntary non-profit - Other,Surgical Infection Prevention,Empty,0
10047,GEORGIANA HOSPITAL,515 MIRANDA ST,GEORGIANA,36033,BUTLER,3343762205,Voluntary non-profit - Private,Heart Failure,6 patients,0
10011,ST VINCENT'S EAST,50 MEDICAL PARK EAST DRIVE,BIRMINGHAM,35235,JEFFERSON,2058383122,Voluntary non-profit - Private,Heart Failure,130 patients,0
10012,DEKALB REGIONAL MEDICAL CENTER,200 MED CENTER DRIVE,FORT PAYNE,35968,DE KALB,2568453150,Voluntary non-profit - Church,Heart Failure,15 patients,0
10043,CHILTON MEDICAL CENTER,1010 LAY DAM ROAD,CLANTON,35045,CHILTON,2057552500,Voluntary non-profit - Private,Pneumonia,44 patients,0
10038,STRINGFELLOW MEMORIAL HOSPITAL,301 EAST 18TH ST,ANNISTON,36201,CALHOUN,2562358900,Proprietary,Pneumonia,145 patients,0
10045,FAYETTE MEDICAL CENTER,1653 TEMPLE AVENUE NORTH,FAYETTE,35555,FAYETTE,2059325966,Voluntary non-profit - Other,Heart Failure,16 patients,0
10025,G H LANIER MEMORIAL HOSPITAL,4800 48TH ST,VALLEY,36854,CHAMBERS,3347561400,Voluntary non-profit - Other,Pneumonia,52 patients,0
10045,FAYETTE MEDICAL CENTER,1653 TEMPLE AVENUE NORTH,FAYETTE,35555,FAYETTE,2059325966,Voluntary non-profit - Other,Surgical Infection Prevention,0 patients,0
20017,ALASKA REGIONAL HOSPITAL,2801 DEBARR ROAD,ANCHORAGE,99508,ANCHORAGE,9072761131,Proprietary,Surgical Infection Prevention,223 patients,0
10086,NORTHWEST MEDICAL CENTER,1530 U S HIGHWAY 43,WINFIELD,35594,MARION,2054877736,Proprietary,Surgical Infection Prevention,98 patients,0
10043,CHILTON MEDICAL CENTER,1010 LAY DAM ROAD,CLANTON,35045,CHILTON,2057552500,Voluntary non-profit - Private,Surgical Infection Prevention,5 patients,0
10029,EAST ALABAMA MEDICAL CENTER AND SNF,2000 PEPPERELL PARKWAY,OPELIKA,36801,LEE,3347493411,Government - Hospital District or Authority,Pneumonia,89 patients,0
10029,EAST ALABAMA MEDICAL CENTER AND SNF,2000 PEPPERELL PARKWAY,OPELIKA,36801,LEE,3347493411,Government - Hospital District or Authority,Heart Attack,290 patients,0
10016,SHELBY BAPTIST MEDICAL CENTER,1000 FIRST STREET NORTH,ALABASTER,35007,SHELBY,2056208100,Voluntary non-profit - Church,Surgical Infection Prevention,588 patients,0
10087,UNIV OF SOUTH ALABAMA MEDICAL CENTER,2451 FILLINGIM STREET,MOBILE,36617,MOBILE,2514717110,Government - State,Heart Attack,0 patients,0
10044,MARION REGIONAL MEDICAL CENTER,1256 MILITARY STREET SOUTH,HAMILTON,35570,MARION,2059216200,Voluntary non-profit - Private,Heart Failure,46 patients,0
10033,UNIVERSITY OF ALABAMA HOSPITAL,619 SOUTH 19TH STREET,BIRMINGHAM,35233,JEFFERSON,2059344011,Government - State,Surgical Infection Prevention,324 patients,0
10044,MARION REGIONAL MEDICAL CENTER,1256 MILITARY STREET SOUTH,HAMILTON,35570,MARION,2059216200,Voluntary non-profit - Private,Pneumonia,121 patients,0
10024,JACKSON HOSPITAL & CLINIC INC,1725 PINE STREET,MONTGOMERY,36106,MONTGOMERY,3342938000,Voluntary non-profit - Private,Surgical Infection Prevention,844 patients,0
10033,UNIVERSITY OF ALABAMA HOSPITAL,619 SOUTH 19TH STREET,BIRMINGHAM,35233,JEFFERSON,2059344011,Government - State,Surgical Infection Prevention,585 patients,0
10006,ELIZA COFFEE MEMORIAL HOSPITAL,205 MARENGO STREET,FLORENCE,35631,LAUDERDALE,2567688400,Voluntary non-profit - Other,Surgical Infection Prevention,107 patients,0
10043,CHILTON MEDICAL CENTER,1010 LAY DAM ROAD,CLANTON,35045,CHILTON,2057552500,Voluntary non-profit - Private,Pneumonia,38 patients,0
10036,ANDALUSIA REGIONAL HOSPITAL,849 SOUTH THREE NOTCH STREET,ANDALUSIA,36420,COVINGTON,3342228466,Proprietary,Surgical Infection Prevention,0 patients,0
10010,MARSHALL MEDICAL CENTER NORTH,8000 ALABAMA HIGHWAY 69,GUNTERSVILLE,35976,MARSHALL,2565718000,Government - Hospital District or Authority,Pneumonia,158 patients,0
10012,DEKALB REGIONAL MEDICAL CENTER,200 MED CENTER DRIVE,FORT PAYNE,35968,DE KALB,2568453150,Voluntary non-profit - Church,Surgical Infection Prevention,179 patients,0
10033,UNIVERSITY OF ALABAMA HOSPITAL,619 SOUTH 19TH STREET,BIRMINGHAM,35233,JEFFERSON,2059344011,Government - State,Surgical Infection Prevention,350 patients,0
10027,ELBA GENERAL HOSPITAL,987 DRAYTON STREET,ELBA,36323,COFFEE,3348972257,Voluntary non-profit - Other,Surgical Infection Prevention,Empty,0
10012,DEKALB REGIONAL MEDICAL CENTER,200 MED CENTER DRIVE,FORT PAYNE,35968,DE KALB,2568453150,Voluntary non-profit - Church,Heart Attack,39 patients,0
10032,WEDOWEE HOSPITAL,209 NORTH MAIN STREET,WEDOWEE,36278,RANDOLPH,2563572111,Government - Local,Surgical Infection Prevention,Empty,0
10018,CALLAHAN EYE FOUNDATION HOSPITAL,1720 UNIVERSITY BLVD,BIRMINGHAM,35233,JEFFERSON,2053258100,Voluntary non-profit - Private,Heart Failure,Empty,0
10008,CRENSHAW COMMUNITY HOSPITAL,101 HOSPITAL CIRCLE,LUVERNE,36049,CRENSHAW,3343353374,Government - Federal,Pneumonia,16 patients,0
10086,NORTHWEST MEDICAL CENTER,1530 U S HIGHWAY 43,WINFIELD,35594,MARION,2054877736,Proprietary,Surgical Infection Prevention,0 patients,0
10022,CHEROKEE MEDICAL CENTER,400 NORTHWOOD DR,CENTRE,35960,CHEROKEE,2569275531,Voluntary non-profit - Private,Surgical Infection Prevention,2 patients,0
10055,FLOWERS HOSPITAL,4370 WEST MAIN STREET,DOTHAN,36305,HOUSTON,3347935000,Proprietary,Pneumonia,112 patients,0
10005,MARSHALL MEDICAL CENTER SOUTH,2505 U S HIGHWAY 431 NORTH,BOAZ,35957,MARSHALL,2565938310,Government - Hospital District or Authority,Pneumonia,172 patients,0
10025,G H LANIER MEMORIAL HOSPITAL,4800 48TH ST,VALLEY,36854,CHAMBERS,3347561400,Voluntary non-profit - Other,Pneumonia,50 patients,0
10043,CHILTON MEDICAL CENTER,1010 LAY DAM ROAD,CLANTON,35045,CHILTON,2057552500,Voluntary non-profit - Private,Surgical Infection Prevention,4 patients,0
10049,MEDICAL CENTER ENTERPRISE,400 N EDWARDS STREET,ENTERPRISE,36330,COFFEE,3343470584,Proprietary,Heart Failure,70 patients,0
10006,ELIZA COFFEE MEMORIAL HOSPITAL,205 MARENGO STREET,FLORENCE,35631,LAUDERDALE,2567688400,Voluntary non-profit - Other,Surgical Infection Prevention,619 patients,0
10038,STRINGFELLOW MEMORIAL HOSPITAL,301 EAST 18TH ST,ANNISTON,36201,CALHOUN,2562358900,Proprietary,Pneumonia,87 patients,0
10038,STRINGFELLOW MEMORIAL HOSPITAL,301 EAST 18TH ST,ANNISTON,36201,CALHOUN,2562358900,Proprietary,Surgical Infection Prevention,23 patients,0
10047,GEORGIANA HOSPITAL,515 MIRANDA ST,GEORGIANA,36033,BUTLER,3343762205,Voluntary non-profit - Private,Heart Attack,6 patients,0
10009,HARTSELLE MEDICAL CENTER,201 PINE STREET NORTHWEST,HARTSELLE,35640,MORGAN,2567736511,Proprietary,Surgical Infection Prevention,3 patients,0
10046,RIVERVIEW REGIONAL MEDICAL CENTER,600 SOUTH THIRD STREET,GADSDEN,35901,ETOWAH,2565435200,Proprietary,Pneumonia,178 patients,0
10033,UNIVERSITY OF ALABAMA HOSPITAL,619 SOUTH 19TH STREET,BIRMINGHAM,35233,JEFFERSON,2059344011,Government - State,Heart Attack,316 patients,0
10046,RIVERVIEW REGIONAL MEDICAL CENTER,600 SOUTH THIRD STREET,GADSDEN,35901,ETOWAH,2565435200,Proprietary,Pneumonia,196 patients,0
10038,STRINGFELLOW MEMORIAL HOSPITAL,301 EAST 18TH ST,ANNISTON,36201,CALHOUN,2562358900,Proprietary,Surgical Infection Prevention,95 patients,0
10021,DALE MEDICAL CENTER,126 HOSPITAL AVE,OZARK,36360,DALE,3347742601,Government - Hospital District or Authority,Pneumonia,59 patients,0
10055,FLOWERS HOSPITAL,4370 WEST MAIN STREET,DOTHAN,36305,HOUSTON,3347935000,Proprietary,Pneumonia,166 patients,0
10034,COMMUNITY HOSPITAL INC,805 FRIENDSHIP ROAD,TALLASSEE,36078,ELMORE,3342836541,Voluntary non-profit - Private,Surgical Infection Prevention,24 patients,0
10011,ST VINCENT'S EAST,50 MEDICAL PARK EAST DRIVE,BIRMINGHAM,35235,JEFFERSON,2058383122,Voluntary non-profit - Private,Heart Attack,295 patients,0
10164,COOSA VALLEY MEDICAL CENTER,315 W HICKORY ST,SYLACAUGA,35150,TALLADEGA,2562495000,Voluntary non-profit - Other,Heart Failure,46 patients,0
10023,BAPTIST MEDICAL CENTER SOUTH,2105 EAST SOUTH BOULEVARD,MONTGOMERY,36116,MONTGOMERY,3342882100,Voluntary non-profit - Church,Heart Attack,254 patients,0
10049,MEDICAL CENTER ENTERPRISE,400 N EDWARDS STREET,ENTERPRISE,36330,COFFEE,3343470584,Proprietary,Surgical Infection Prevention,399 patients,0
10021,DALE MEDICAL CENTER,126 HOSPITAL AVE,OZARK,36360,DALE,3347742601,Government - Hospital District or Authority,Surgical Infection Prevention,12 patients,0
10022,CHEROKEE MEDICAL CENTER,400 NORTHWOOD DR,CENTRE,35960,CHEROKEE,2569275531,Voluntary non-profit - Private,Heart Attack,0 patients,0
10018,CALLAHAN EYE FOUNDATION HOSPITAL,1720 UNIVERSITY BLVD,BIRMINGHAM,35233,JEFFERSON,2053258100,Voluntary non-profit - Private,Surgical Infection Prevention,Empty,0
10027,ELBA GENERAL HOSPITAL,987 DRAYTON STREET,ELBA,36323,COFFEE,3348972257,Voluntary non-profit - Other,Heart Failure,3 patients,0
10006,ELIZA COFFEE MEMORIAL HOSPITAL,205 MARENGO STREET,FLORENCE,35631,LAUDERDALE,2567688400,Voluntary non-profit - Other,Heart Failure,84 patients,0
10021,DALE MEDICAL CENTER,126 HOSPITAL AVE,OZARK,36360,DALE,3347742601,Government - Hospital District or Authority,Heart Attack,5 patients,0
10038,STRINGFELLOW MEMORIAL HOSPITAL,301 EAST 18TH ST,ANNISTON,36201,CALHOUN,2562358900,Proprietary,Pneumonia,110 patients,0
20017,ALASKA REGIONAL HOSPITAL,2801 DEBARR ROAD,ANCHORAGE,99508,ANCHORAGE,9072761131,Proprietary,Heart Failure,57 patients,0
10023,BAPTIST MEDICAL CENTER SOUTH,2105 EAST SOUTH BOULEVARD,MONTGOMERY,36116,MONTGOMERY,3342882100,Voluntary non-profit - Church,Pneumonia,101 patients,0
10027,ELBA GENERAL HOSPITAL,987 DRAYTON STREET,ELBA,36323,COFFEE,3348972257,Voluntary non-profit - Other,Pneumonia,30 patients,0
10029,EAST ALABAMA MEDICAL CENTER AND SNF,2000 PEPPERELL PARKWAY,OPELIKA,36801,LEE,3347493411,Government - Hospital District or Authority,Heart Failure,272 patients,0
10010,MARSHALL MEDICAL CENTER NORTH,8000 ALABAMA HIGHWAY 69,GUNTERSVILLE,35976,MARSHALL,2565718000,Government - Hospital District or Authority,Surgical Infection Prevention,56 patients,0
10164,COOSA VALLEY MEDICAL CENTER,315 W HICKORY ST,SYLACAUGA,35150,TALLADEGA,2562495000,Voluntary non-profit - Other,Heart Attack,3 patients,0
10021,DALE MEDICAL CENTER,126 HOSPITAL AVE,OZARK,36360,DALE,3347742601,Government - Hospital District or Authority,Pneumonia,39 patients,0
10086,NORTHWEST MEDICAL CENTER,1530 U S HIGHWAY 43,WINFIELD,35594,MARION,2054877736,Proprietary,Pneumonia,59 patients,0
10012,DEKALB REGIONAL MEDICAL CENTER,200 MED CENTER DRIVE,FORT PAYNE,35968,DE KALB,2568453150,Voluntary non-profit - Church,Heart Attack,41 patients,0
10007,MIZELL MEMORIAL HOSPITAL,702 N MAIN ST,OPP,36467,COVINGTON,3344933541,Voluntary non-profit - Private,Heart Failure,76 patients,0
10022,CHEROKEE MEDICAL CENTER,400 NORTHWOOD DR,CENTRE,35960,CHEROKEE,2569275531,Voluntary non-profit - Private,Heart Attack,0 patients,0
10049,MEDICAL CENTER ENTERPRISE,400 N EDWARDS STREET,ENTERPRISE,36330,COFFEE,3343470584,Proprietary,Heart Attack,1 patients,0
10087,UNIV OF SOUTH ALABAMA MEDICAL CENTER,2451 FILLINGIM STREET,MOBILE,36617,MOBILE,2514717110,Government - State,Heart Attack,86 patients,0
10016,SHELBY BAPTIST MEDICAL CENTER,1000 FIRST STREET NORTH,ALABASTER,35007,SHELBY,2056208100,Voluntary non-profit - Church,Surgical Infection Prevention,331 patients,0
10010,MARSHALL MEDICAL CENTER NORTH,8000 ALABAMA HIGHWAY 69,GUNTERSVILLE,35976,MARSHALL,2565718000,Government - Hospital District or Authority,Heart Failure,10 patients,0
10009,HARTSELLE MEDICAL CENTER,201 PINE STREET NORTHWEST,HARTSELLE,35640,MORGAN,2567736511,Proprietary,Surgical Infection Prevention,9 patients,0
10011,ST VINCENT'S EAST,50 MEDICAL PARK EAST DRIVE,BIRMINGHAM,35235,JEFFERSON,2058383122,Voluntary non-profit - Private,Heart Attack,48 patients,0
10015,SOUTHWEST ALABAMA MEDICAL CENTER,33700 HIGHWAY 43,THOMASVILLE,36784,CLARKE,3346366221,Government - Federal,Heart Failure,17 patients,0
10027,ELBA GENERAL HOSPITAL,987 DRAYTON STREET,ELBA,36323,COFFEE,3348972257,Voluntary non-profit - Other,Pneumonia,40 patients,0
10033,UNIVERSITY OF ALABAMA HOSPITAL,619 SOUTH 19TH STREET,BIRMINGHAM,35233,JEFFERSON,2059344011,Government - State,Heart Attack,316 patients,0
10001,SOUTHEAST ALABAMA MEDICAL CENTER,1108 ROSS CLARK CIRCLE,DOTHAN,36302,HOUSTON,3347938701,Government - Hospital District or Authority,Heart Attack,40 patients,0
10009,HARTSELLE MEDICAL CENTER,201 PINE STREET NORTHWEST,HARTSELLE,35640,MORGAN,2567736511,Proprietary,Heart Attack,3 patients,0
10055,FLOWERS HOSPITAL,4370 WEST MAIN STREET,DOTHAN,36305,HOUSTON,3347935000,Proprietary,Pneumonia,146 patients,0
10039,HUNTSVILLE HOSPITAL,101 SIVLEY RD,HUNTSVILLE,35801,MADISON,2562651000,Government - Hospital District or Authority,Heart Failure,51 patients,0
10008,CRENSHAW COMMUNITY HOSPITAL,101 HOSPITAL CIRCLE,LUVERNE,36049,CRENSHAW,3343353374,Government - Federal,Surgical Infection Prevention,4 patients,0
20017,ALASKA REGIONAL HOSPITAL,2801 DEBARR ROAD,ANCHORAGE,99508,ANCHORAGE,9072761131,Proprietary,Surgical Infection Prevention,146 patients,0
10010,MARSHALL MEDICAL CENTER NORTH,8000 ALABAMA HIGHWAY 69,GUNTERSVILLE,35976,MARSHALL,2565718000,Government - Hospital District or Authority,Surgical Infection Prevention,56 patients,0
10035,CULLMAN REGIONAL MEDICAL CENTER,1912 ALABAMA HIGHWAY 157,CULLMAN,35058,CULLMAN,2567372000,Government - Hospital District or Authority,Surgical Infection Prevention,298 patients,0
10047,GEORGIANA HOSPITAL,515 MIRANDA ST,GEORGIANA,36033,BUTLER,3343762205,Voluntary non-profit - Private,Pneumonia,2 patients,0
10019,HELEN KELLER MEMORIAL HOSPITAL,1300 SOUTH MONTGOMERY AVENUE,SHEFFIELD,35660,JEFFERSON,2563864556,Government - Hospital District or Authority,Heart Attack,4 patients,0
10016,SHELBY BAPTIST MEDICAL CENTER,1000 FIRST STREET NORTH,ALABASTER,35007,SHELBY,2056208100,Voluntary non-profit - Church,Pneumonia,110 patients,0
10049,MEDICAL CENTER ENTERPRISE,400 N EDWARDS STREET,ENTERPRISE,36330,COFFEE,3343470584,Proprietary,Heart Failure,15 patients,0
10024,JACKSON HOSPITAL & CLINIC INC,1725 PINE STREET,MONTGOMERY,36106,MONTGOMERY,3342938000,Voluntary non-profit - Private,Surgical Infection Prevention,827 patients,0
10010,MARSHALL MEDICAL CENTER NORTH,8000 ALABAMA HIGHWAY 69,GUNTERSVILLE,35976,MARSHALL,2565718000,Government - Hospital District or Authority,Heart Failure,55 patients,0
10008,CRENSHAW COMMUNITY HOSPITAL,101 HOSPITAL CIRCLE,LUVERNE,36049,CRENSHAW,3343353374,Government - Federal,Heart Failure,8 patients,0
10043,CHILTON MEDICAL CENTER,1010 LAY DAM ROAD,CLANTON,35045,CHILTON,2057552500,Voluntary non-profit - Private,Surgical Infection Prevention,5 patients,0
10044,MARION REGIONAL MEDICAL CENTER,1256 MILITARY STREET SOUTH,HAMILTON,35570,MARION,2059216200,Voluntary non-profit - Private,Surgical Infection Prevention,15 patients,0
10018,CALLAHAN EYE FOUNDATION HOSPITAL,1720 UNIVERSITY BLVD,BIRMINGHAM,35233,JEFFERSON,2053258100,Voluntary non-profit - Private,Surgical Infection Prevention,Empty,0
10164,COOSA VALLEY MEDICAL CENTER,315 W HICKORY ST,SYLACAUGA,35150,TALLADEGA,2562495000,Voluntary non-profit - Other,Pneumonia,95 patients,0
10027,ELBA GENERAL HOSPITAL,987 DRAYTON STREET,ELBA,36323,COFFEE,3348972257,Voluntary non-profit - Other,Pneumonia,12 patients,0
10006,ELIZA COFFEE MEMORIAL HOSPITAL,205 MARENGO STREET,FLORENCE,35631,LAUDERDALE,2567688400,Voluntary non-profit - Other,Pneumonia,137 patients,0
10049,MEDICAL CENTER ENTERPRISE,400 N EDWARDS STREET,ENTERPRISE,36330,COFFEE,3343470584,Proprietary,Surgical Infection Prevention,196 patients,0
10012,DEKALB REGIONAL MEDICAL CENTER,200 MED CENTER DRIVE,FORT PAYNE,35968,DE KALB,2568453150,Voluntary non-profit - Church,Surgical Infection Prevention,16 patients,0
10087,UNIV OF SOUTH ALABAMA MEDICAL CENTER,2451 FILLINGIM STREET,MOBILE,36617,MOBILE,2514717110,Government - State,Heart Attack,0 patients,0
10007,MIZELL MEMORIAL HOSPITAL,702 N MAIN ST,OPP,36467,COVINGTON,3344933541,Voluntary non-profit - Private,Pneumonia,64 patients,0
10008,CRENSHAW COMMUNITY HOSPITAL,101 HOSPITAL CIRCLE,LUVERNE,36049,CRENSHAW,3343353374,Government - Federal,Heart Failure,39 patients,0
10044,MARION REGIONAL MEDICAL CENTER,1256 MILITARY STREET SOUTH,HAMILTON,35570,MARION,2059216200,Voluntary non-profit - Private,Pneumonia,85 patients,0
10039,HUNTSVILLE HOSPITAL,101 SIVLEY RD,HUNTSVILLE,35801,MADISON,2562651000,Government - Hospital District or Authority,Surgical Infection Prevention,269 patients,0
10029,EAST ALABAMA MEDICAL CENTER AND SNF,2000 PEPPERELL PARKWAY,OPELIKA,36801,LEE,3347493411,Government - Hospital District or Authority,Surgical Infection Prevention,473 patients,0
10007,MIZELL MEMORIAL HOSPITAL,702 N MAIN ST,OPP,36467,COVINGTON,3344933541,Voluntary non-profit - Private,Heart Failure,14 patients,0
10049,MEDICAL CENTER ENTERPRISE,400 N EDWARDS STREET,ENTERPRISE,36330,COFFEE,3343470584,Proprietary,Heart Attack,1 patients,0
10027,ELBA GENERAL HOSPITAL,987 DRAYTON STREET,ELBA,36323,COFFEE,3348972257,Voluntary non-profit - Other,Heart Attack,Empty,0
10164,COOSA VALLEY MEDICAL CENTER,315 W HICKORY ST,SYLACAUGA,35150,TALLADEGA,2562495000,Voluntary non-profit - Other,Pneumonia,51 patients,0
10035,CULLMAN REGIONAL MEDICAL CENTER,1912 ALABAMA HIGHWAY 157,CULLMAN,35058,CULLMAN,2567372000,Government - Hospital District or Authority,Heart Failure,42 patients,0
10015,SOUTHWEST ALABAMA MEDICAL CENTER,33700 HIGHWAY 43,THOMASVILLE,36784,CLARKE,3346366221,Government - Federal,Surgical Infection Prevention,10 patients,0
10006,ELIZA COFFEE MEMORIAL HOSPITAL,205 MARENGO STREET,FLORENCE,35631,LAUDERDALE,2567688400,Voluntary non-profit - Other,Heart Failure,217 patients,0
10029,EAST ALABAMA MEDICAL CENTER AND SNF,2000 PEPPERELL PARKWAY,OPELIKA,36801,LEE,3347493411,Government - Hospital District or Authority,Heart Failure,570 patients,0
10018,CALLAHAN EYE FOUNDATION HOSPITAL,1720 UNIVERSITY BLVD,BIRMINGHAM,35233,JEFFERSON,2053258100,Voluntary non-profit - Private,Pneumonia,Empty,0
10019,HELEN KELLER MEMORIAL HOSPITAL,1300 SOUTH MONTGOMERY AVENUE,SHEFFIELD,35660,JEFFERSON,2563864556,Government - Hospital District or Authority,Surgical Infection Prevention,369 patients,0
10011,ST VINCENT'S EAST,50 MEDICAL PARK EAST DRIVE,BIRMINGHAM,35235,JEFFERSON,2058383122,Voluntary non-profit - Private,Surgical Infection Prevention,229 patients,0
10015,SOUTHWEST ALABAMA MEDICAL CENTER,33700 HIGHWAY 43,THOMASVILLE,36784,CLARKE,3346366221,Government - Federal,Heart Attack,0 patients,0
10015,SOUTHWEST ALABAMA MEDICAL CENTER,33700 HIGHWAY 43,THOMASVILLE,36784,CLARKE,3346366221,Government - Federal,Pneumonia,6 patients,0
10019,HELEN KELLER MEMORIAL HOSPITAL,1300 SOUTH MONTGOMERY AVENUE,SHEFFIELD,35660,JEFFERSON,2563864556,Government - Hospital District or Authority,Heart Attack,13 patients,0
10047,GEORGIANA HOSPITAL,515 MIRANDA ST,GEORGIANA,36033,BUTLER,3343762205,Voluntary non-profit - Private,Surgical Infection Prevention,Empty,0
10050,ST VINCENTS BLOUNT,150 GILBREATH DRIVE,ONEONTA,35121,BLOUNT,2052743000,Voluntary non-profit - Private,Pneumonia,92 patients,0
10016,SHELBY BAPTIST MEDICAL CENTER,1000 FIRST STREET NORTH,ALABASTER,35007,SHELBY,2056208100,Voluntary non-profit - Church,Surgical Infection Prevention,96 patients,0
10047,GEORGIANA HOSPITAL,515 MIRANDA ST,GEORGIANA,36033,BUTLER,3343762205,Voluntary non-profit - Private,Pneumonia,30 patients,0
10010,MARSHALL MEDICAL CENTER NORTH,8000 ALABAMA HIGHWAY 69,GUNTERSVILLE,35976,MARSHALL,2565718000,Government - Hospital District or Authority,Pneumonia,65 patients,0
10039,HUNTSVILLE HOSPITAL,101 SIVLEY RD,HUNTSVILLE,35801,MADISON,2562651000,Government - Hospital District or Authority,Heart Attack,44 patients,0
10055,FLOWERS HOSPITAL,4370 WEST MAIN STREET,DOTHAN,36305,HOUSTON,3347935000,Proprietary,Surgical Infection Prevention,497 patients,0
10036,ANDALUSIA REGIONAL HOSPITAL,849 SOUTH THREE NOTCH STREET,ANDALUSIA,36420,COVINGTON,3342228466,Proprietary,Pneumonia,43 patients,0
10034,COMMUNITY HOSPITAL INC,805 FRIENDSHIP ROAD,TALLASSEE,36078,ELMORE,3342836541,Voluntary non-profit - Private,Heart Failure,9 patients,0
10001,SOUTHEAST ALABAMA MEDICAL CENTER,1108 ROSS CLARK CIRCLE,DOTHAN,36302,HOUSTON,3347938701,Government - Hospital District or Authority,Pneumonia,147 patients,0
10044,MARION REGIONAL MEDICAL CENTER,1256 MILITARY STREET SOUTH,HAMILTON,35570,MARION,2059216200,Voluntary non-profit - Private,Heart Failure,38 patients,0
10036,ANDALUSIA REGIONAL HOSPITAL,849 SOUTH THREE NOTCH STREET,ANDALUSIA,36420,COVINGTON,3342228466,Proprietary,Pneumonia,77 patients,0
10087,UNIV OF SOUTH ALABAMA MEDICAL CENTER,2451 FILLINGIM STREET,MOBILE,36617,MOBILE,2514717110,Government - State,Heart Attack,96 patients,0
10055,FLOWERS HOSPITAL,4370 WEST MAIN STREET,DOTHAN,36305,HOUSTON,3347935000,Proprietary,Pneumonia,77 patients,0
10032,WEDOWEE HOSPITAL,209 NORTH MAIN STREET,WEDOWEE,36278,RANDOLPH,2563572111,Government - Local,Surgical Infection Prevention,Empty,0
10006,ELIZA COFFEE MEMORIAL HOSPITAL,205 MARENGO STREET,FLORENCE,35631,LAUDERDALE,2567688400,Voluntary non-profit - Other,Pneumonia,85 patients,0
10016,SHELBY BAPTIST MEDICAL CENTER,1000 FIRST STREET NORTH,ALABASTER,35007,SHELBY,2056208100,Voluntary non-profit - Church,Pneumonia,235 patients,0
10012,DEKALB REGIONAL MEDICAL CENTER,200 MED CENTER DRIVE,FORT PAYNE,35968,DE KALB,2568453150,Voluntary non-profit - Church,Heart Attack,5 patients,0
10035,CULLMAN REGIONAL MEDICAL CENTER,1912 ALABAMA HIGHWAY 157,CULLMAN,35058,CULLMAN,2567372000,Government - Hospital District or Authority,Pneumonia,90 patients,0
10010,MARSHALL MEDICAL CENTER NORTH,8000 ALABAMA HIGHWAY 69,GUNTERSVILLE,35976,MARSHALL,2565718000,Government - Hospital District or Authority,Surgical Infection Prevention,155 patients,0
10045,FAYETTE MEDICAL CENTER,1653 TEMPLE AVENUE NORTH,FAYETTE,35555,FAYETTE,2059325966,Voluntary non-profit - Other,Pneumonia,34 patients,0
20017,ALASKA REGIONAL HOSPITAL,2801 DEBARR ROAD,ANCHORAGE,99508,ANCHORAGE,9072761131,Proprietary,Pneumonia,37 patients,0
10007,MIZELL MEMORIAL HOSPITAL,702 N MAIN ST,OPP,36467,COVINGTON,3344933541,Voluntary non-profit - Private,Surgical Infection Prevention,77 patients,0
10005,MARSHALL MEDICAL CENTER SOUTH,2505 U S HIGHWAY 431 NORTH,BOAZ,35957,MARSHALL,2565938310,Government - Hospital District or Authority,Pneumonia,118 patients,0
10038,STRINGFELLOW MEMORIAL HOSPITAL,301 EAST 18TH ST,ANNISTON,36201,CALHOUN,2562358900,Proprietary,Heart Failure,142 patients,0
10001,SOUTHEAST ALABAMA MEDICAL CENTER,1108 ROSS CLARK CIRCLE,DOTHAN,36302,HOUSTON,3347938701,Government - Hospital District or Authority,Pneumonia,107 patients,0
10044,MARION REGIONAL MEDICAL CENTER,1256 MILITARY STREET SOUTH,HAMILTON,35570,MARION,2059216200,Voluntary non-profit - Private,Heart Attack,3 patients,0
20017,ALASKA REGIONAL HOSPITAL,2801 DEBARR ROAD,ANCHORAGE,99508,ANCHORAGE,9072761131,Proprietary,Surgical Infection Prevention,521 patients,0
10047,GEORGIANA HOSPITAL,515 MIRANDA ST,GEORGIANA,36033,BUTLER,3343762205,Voluntary non-profit - Private,Surgical Infection Prevention,Empty,0
10021,DALE MEDICAL CENTER,126 HOSPITAL AVE,OZARK,36360,DALE,3347742601,Government - Hospital District or Authority,Heart Attack,2 patients,0
10022,CHEROKEE MEDICAL CENTER,400 NORTHWOOD DR,CENTRE,35960,CHEROKEE,2569275531,Voluntary non-profit - Private,Heart Failure,48 patients,0
10019,HELEN KELLER MEMORIAL HOSPITAL,1300 SOUTH MONTGOMERY AVENUE,SHEFFIELD,35660,JEFFERSON,2563864556,Government - Hospital District or Authority,Surgical Infection Prevention,245 patients,0
10022,CHEROKEE MEDICAL CENTER,400 NORTHWOOD DR,CENTRE,35960,CHEROKEE,2569275531,Voluntary non-profit - Private,Surgical Infection Prevention,2 patients,0
10035,CULLMAN REGIONAL MEDICAL CENTER,1912 ALABAMA HIGHWAY 157,CULLMAN,35058,CULLMAN,2567372000,Government - Hospital District or Authority,Heart Attack,0 patients,0
10001,SOUTHEAST ALABAMA MEDICAL CENTER,1108 ROSS CLARK CIRCLE,DOTHAN,36302,HOUSTON,3347938701,Government - Hospital District or Authority,Pneumonia,160 patients,0
10164,COOSA VALLEY MEDICAL CENTER,315 W HICKORY ST,SYLACAUGA,35150,TALLADEGA,2562495000,Voluntary non-profit - Other,Pneumonia,101 patients,0
