ProviderNumber,HospitalName,Address1,City,ZipCode,CountyName,PhoneNumber
,CALLAHAN EYE FOUNDATION HOSPITAL,1720 UNIVERSITY BLVD,BIRMINGHAM,35233,JEFFERSON,2053258100
10018,,1720 UNIVERSITY BLVD,BIRMINGHAM,35233,JEFFERSON,2053258100
10018,CALLAHAN EYE FOUNDATION HOSPITAL,,BIRMINGHAM,35233,JEFFERSON,2053258100
10018,CALLAHAN EYE FOUNDATION HOSPITAL,1720 UNIVERSITY BLVD,,35233,JEFFERSON,2053258100
10018,CALLAHAN EYE FOUNDATION HOSPITAL,1720 UNIVERSITY BLVD,BIRMINGHAM,,JEFFERSON,2053258100
10018,CALLAHAN EYE FOUNDATION HOSPITAL,1720 UNIVERSITY BLVD,BIRMINGHAM,35233,,2053258100
10018,CALLAHAN EYE FOUNDATION HOSPITAL,1720 UNIVERSITY BLVD,BIRMINGHAM,35233,JEFFERSON,
,HELEN KELLER MEMORIAL HOSPITAL,1300 SOUTH MONTGOMERY AVENUE,SHEFFIELD,35660,JEFFERSON,2563864556
10019,,1300 SOUTH MONTGOMERY AVENUE,SHEFFIELD,35660,JEFFERSON,2563864556
10019,HELEN KELLER MEMORIAL HOSPITAL,,SHEFFIELD,35660,JEFFERSON,2563864556
10019,HELEN KELLER MEMORIAL HOSPITAL,1300 SOUTH MONTGOMERY AVENUE,,35660,JEFFERSON,2563864556
10019,HELEN KELLER MEMORIAL HOSPITAL,1300 SOUTH MONTGOMERY AVENUE,SHEFFIELD,,JEFFERSON,2563864556
10019,HELEN KELLER MEMORIAL HOSPITAL,1300 SOUTH MONTGOMERY AVENUE,SHEFFIELD,35660,,2563864556
10019,HELEN KELLER MEMORIAL HOSPITAL,1300 SOUTH MONTGOMERY AVENUE,SHEFFIELD,35660,JEFFERSON,
,SOUTHEAST ALABAMA MEDICAL CENTER,1108 ROSS CLARK CIRCLE,DOTHAN,36302,HOUSTON,3347938701
10001,,1108 ROSS CLARK CIRCLE,DOTHAN,36302,HOUSTON,3347938701
10001,SOUTHEAST ALABAMA MEDICAL CENTER,,DOTHAN,36302,HOUSTON,3347938701
10001,SOUTHEAST ALABAMA MEDICAL CENTER,1108 ROSS CLARK CIRCLE,,36302,HOUSTON,3347938701
10001,SOUTHEAST ALABAMA MEDICAL CENTER,1108 ROSS CLARK CIRCLE,DOTHAN,,HOUSTON,3347938701
10001,SOUTHEAST ALABAMA MEDICAL CENTER,1108 ROSS CLARK CIRCLE,DOTHAN,36302,,3347938701
10001,SOUTHEAST ALABAMA MEDICAL CENTER,1108 ROSS CLARK CIRCLE,DOTHAN,36302,HOUSTON,
,MARSHALL MEDICAL CENTER SOUTH,2505 U S HIGHWAY 431 NORTH,BOAZ,35957,MARSHALL,2565938310
10005,,2505 U S HIGHWAY 431 NORTH,BOAZ,35957,MARSHALL,2565938310
10005,MARSHALL MEDICAL CENTER SOUTH,,BOAZ,35957,MARSHALL,2565938310
10005,MARSHALL MEDICAL CENTER SOUTH,2505 U S HIGHWAY 431 NORTH,,35957,MARSHALL,2565938310
10005,MARSHALL MEDICAL CENTER SOUTH,2505 U S HIGHWAY 431 NORTH,BOAZ,,MARSHALL,2565938310
10005,MARSHALL MEDICAL CENTER SOUTH,2505 U S HIGHWAY 431 NORTH,BOAZ,35957,,2565938310
10005,MARSHALL MEDICAL CENTER SOUTH,2505 U S HIGHWAY 431 NORTH,BOAZ,35957,MARSHALL,
,ELIZA COFFEE MEMORIAL HOSPITAL,205 MARENGO STREET,FLORENCE,35631,LAUDERDALE,2567688400
10006,,205 MARENGO STREET,FLORENCE,35631,LAUDERDALE,2567688400
10006,ELIZA COFFEE MEMORIAL HOSPITAL,,FLORENCE,35631,LAUDERDALE,2567688400
10006,ELIZA COFFEE MEMORIAL HOSPITAL,205 MARENGO STREET,,35631,LAUDERDALE,2567688400
10006,ELIZA COFFEE MEMORIAL HOSPITAL,205 MARENGO STREET,FLORENCE,,LAUDERDALE,2567688400
10006,ELIZA COFFEE MEMORIAL HOSPITAL,205 MARENGO STREET,FLORENCE,35631,,2567688400
10006,ELIZA COFFEE MEMORIAL HOSPITAL,205 MARENGO STREET,FLORENCE,35631,LAUDERDALE,
,MIZELL MEMORIAL HOSPITAL,702 N MAIN ST,OPP,36467,COVINGTON,3344933541
10007,,702 N MAIN ST,OPP,36467,COVINGTON,3344933541
10007,MIZELL MEMORIAL HOSPITAL,,OPP,36467,COVINGTON,3344933541
10007,MIZELL MEMORIAL HOSPITAL,702 N MAIN ST,,36467,COVINGTON,3344933541
10007,MIZELL MEMORIAL HOSPITAL,702 N MAIN ST,OPP,,COVINGTON,3344933541
10007,MIZELL MEMORIAL HOSPITAL,702 N MAIN ST,OPP,36467,,3344933541
10007,MIZELL MEMORIAL HOSPITAL,702 N MAIN ST,OPP,36467,COVINGTON,
,CRENSHAW COMMUNITY HOSPITAL,101 HOSPITAL CIRCLE,LUVERNE,36049,CRENSHAW,3343353374
10008,,101 HOSPITAL CIRCLE,LUVERNE,36049,CRENSHAW,3343353374
10008,CRENSHAW COMMUNITY HOSPITAL,,LUVERNE,36049,CRENSHAW,3343353374
10008,CRENSHAW COMMUNITY HOSPITAL,101 HOSPITAL CIRCLE,,36049,CRENSHAW,3343353374
10008,CRENSHAW COMMUNITY HOSPITAL,101 HOSPITAL CIRCLE,LUVERNE,,CRENSHAW,3343353374
10008,CRENSHAW COMMUNITY HOSPITAL,101 HOSPITAL CIRCLE,LUVERNE,36049,,3343353374
10008,CRENSHAW COMMUNITY HOSPITAL,101 HOSPITAL CIRCLE,LUVERNE,36049,CRENSHAW,
,HARTSELLE MEDICAL CENTER,201 PINE STREET NORTHWEST,HARTSELLE,35640,MORGAN,2567736511
10009,,201 PINE STREET NORTHWEST,HARTSELLE,35640,MORGAN,2567736511
10009,HARTSELLE MEDICAL CENTER,,HARTSELLE,35640,MORGAN,2567736511
10009,HARTSELLE MEDICAL CENTER,201 PINE STREET NORTHWEST,,35640,MORGAN,2567736511
10009,HARTSELLE MEDICAL CENTER,201 PINE STREET NORTHWEST,HARTSELLE,,MORGAN,2567736511
10009,HARTSELLE MEDICAL CENTER,201 PINE STREET NORTHWEST,HARTSELLE,35640,,2567736511
10009,HARTSELLE MEDICAL CENTER,201 PINE STREET NORTHWEST,HARTSELLE,35640,MORGAN,
,MARSHALL MEDICAL CENTER NORTH,8000 ALABAMA HIGHWAY 69,GUNTERSVILLE,35976,MARSHALL,2565718000
10010,,8000 ALABAMA HIGHWAY 69,GUNTERSVILLE,35976,MARSHALL,2565718000
10010,MARSHALL MEDICAL CENTER NORTH,,GUNTERSVILLE,35976,MARSHALL,2565718000
10010,MARSHALL MEDICAL CENTER NORTH,8000 ALABAMA HIGHWAY 69,,35976,MARSHALL,2565718000
10010,MARSHALL MEDICAL CENTER NORTH,8000 ALABAMA HIGHWAY 69,GUNTERSVILLE,,MARSHALL,2565718000
10010,MARSHALL MEDICAL CENTER NORTH,8000 ALABAMA HIGHWAY 69,GUNTERSVILLE,35976,,2565718000
10010,MARSHALL MEDICAL CENTER NORTH,8000 ALABAMA HIGHWAY 69,GUNTERSVILLE,35976,MARSHALL,
,ST VINCENT'S EAST,50 MEDICAL PARK EAST DRIVE,BIRMINGHAM,35235,JEFFERSON,2058383122
10011,,50 MEDICAL PARK EAST DRIVE,BIRMINGHAM,35235,JEFFERSON,2058383122
10011,ST VINCENT'S EAST,,BIRMINGHAM,35235,JEFFERSON,2058383122
10011,ST VINCENT'S EAST,50 MEDICAL PARK EAST DRIVE,,35235,JEFFERSON,2058383122
10011,ST VINCENT'S EAST,50 MEDICAL PARK EAST DRIVE,BIRMINGHAM,,JEFFERSON,2058383122
10011,ST VINCENT'S EAST,50 MEDICAL PARK EAST DRIVE,BIRMINGHAM,35235,,2058383122
10011,ST VINCENT'S EAST,50 MEDICAL PARK EAST DRIVE,BIRMINGHAM,35235,JEFFERSON,
,DEKALB REGIONAL MEDICAL CENTER,200 MED CENTER DRIVE,FORT PAYNE,35968,DE KALB,2568453150
10012,,200 MED CENTER DRIVE,FORT PAYNE,35968,DE KALB,2568453150
10012,DEKALB REGIONAL MEDICAL CENTER,,FORT PAYNE,35968,DE KALB,2568453150
10012,DEKALB REGIONAL MEDICAL CENTER,200 MED CENTER DRIVE,,35968,DE KALB,2568453150
10012,DEKALB REGIONAL MEDICAL CENTER,200 MED CENTER DRIVE,FORT PAYNE,,DE KALB,2568453150
10012,DEKALB REGIONAL MEDICAL CENTER,200 MED CENTER DRIVE,FORT PAYNE,35968,,2568453150
10012,DEKALB REGIONAL MEDICAL CENTER,200 MED CENTER DRIVE,FORT PAYNE,35968,DE KALB,
,SOUTHWEST ALABAMA MEDICAL CENTER,33700 HIGHWAY 43,THOMASVILLE,36784,CLARKE,3346366221
10015,,33700 HIGHWAY 43,THOMASVILLE,36784,CLARKE,3346366221
10015,SOUTHWEST ALABAMA MEDICAL CENTER,,THOMASVILLE,36784,CLARKE,3346366221
10015,SOUTHWEST ALABAMA MEDICAL CENTER,33700 HIGHWAY 43,,36784,CLARKE,3346366221
10015,SOUTHWEST ALABAMA MEDICAL CENTER,33700 HIGHWAY 43,THOMASVILLE,,CLARKE,3346366221
10015,SOUTHWEST ALABAMA MEDICAL CENTER,33700 HIGHWAY 43,THOMASVILLE,36784,,3346366221
10015,SOUTHWEST ALABAMA MEDICAL CENTER,33700 HIGHWAY 43,THOMASVILLE,36784,CLARKE,
,SHELBY BAPTIST MEDICAL CENTER,1000 FIRST STREET NORTH,ALABASTER,35007,SHELBY,2056208100
10016,,1000 FIRST STREET NORTH,ALABASTER,35007,SHELBY,2056208100
10016,SHELBY BAPTIST MEDICAL CENTER,,ALABASTER,35007,SHELBY,2056208100
10016,SHELBY BAPTIST MEDICAL CENTER,1000 FIRST STREET NORTH,,35007,SHELBY,2056208100
10016,SHELBY BAPTIST MEDICAL CENTER,1000 FIRST STREET NORTH,ALABASTER,,SHELBY,2056208100
10016,SHELBY BAPTIST MEDICAL CENTER,1000 FIRST STREET NORTH,ALABASTER,35007,,2056208100
10016,SHELBY BAPTIST MEDICAL CENTER,1000 FIRST STREET NORTH,ALABASTER,35007,SHELBY,
,STRINGFELLOW MEMORIAL HOSPITAL,301 EAST 18TH ST,ANNISTON,36201,CALHOUN,2562358900
10038,,301 EAST 18TH ST,ANNISTON,36201,CALHOUN,2562358900
10038,STRINGFELLOW MEMORIAL HOSPITAL,,ANNISTON,36201,CALHOUN,2562358900
10038,STRINGFELLOW MEMORIAL HOSPITAL,301 EAST 18TH ST,,36201,CALHOUN,2562358900
10038,STRINGFELLOW MEMORIAL HOSPITAL,301 EAST 18TH ST,ANNISTON,,CALHOUN,2562358900
10038,STRINGFELLOW MEMORIAL HOSPITAL,301 EAST 18TH ST,ANNISTON,36201,,2562358900
10038,STRINGFELLOW MEMORIAL HOSPITAL,301 EAST 18TH ST,ANNISTON,36201,CALHOUN,
,FLOWERS HOSPITAL,4370 WEST MAIN STREET,DOTHAN,36305,HOUSTON,3347935000
10055,,4370 WEST MAIN STREET,DOTHAN,36305,HOUSTON,3347935000
10055,FLOWERS HOSPITAL,,DOTHAN,36305,HOUSTON,3347935000
10055,FLOWERS HOSPITAL,4370 WEST MAIN STREET,,36305,HOUSTON,3347935000
10055,FLOWERS HOSPITAL,4370 WEST MAIN STREET,DOTHAN,,HOUSTON,3347935000
10055,FLOWERS HOSPITAL,4370 WEST MAIN STREET,DOTHAN,36305,,3347935000
10055,FLOWERS HOSPITAL,4370 WEST MAIN STREET,DOTHAN,36305,HOUSTON,
,ST VINCENTS HOSPITAL,810 ST VINCENTS DRIVE,BIRMINGHAM,35205,JEFFERSON,2059397000
10056,,810 ST VINCENTS DRIVE,BIRMINGHAM,35205,JEFFERSON,2059397000
10056,ST VINCENTS HOSPITAL,,BIRMINGHAM,35205,JEFFERSON,2059397000
10056,ST VINCENTS HOSPITAL,810 ST VINCENTS DRIVE,,35205,JEFFERSON,2059397000
10056,ST VINCENTS HOSPITAL,810 ST VINCENTS DRIVE,BIRMINGHAM,,JEFFERSON,2059397000
10056,ST VINCENTS HOSPITAL,810 ST VINCENTS DRIVE,BIRMINGHAM,35205,,2059397000
10056,ST VINCENTS HOSPITAL,810 ST VINCENTS DRIVE,BIRMINGHAM,35205,JEFFERSON,
,DECATUR GENERAL HOSPITAL,1201 7TH STREET SE,DECATUR,35609,MORGAN,2563412000
10085,,1201 7TH STREET SE,DECATUR,35609,MORGAN,2563412000
10085,DECATUR GENERAL HOSPITAL,,DECATUR,35609,MORGAN,2563412000
10085,DECATUR GENERAL HOSPITAL,1201 7TH STREET SE,,35609,MORGAN,2563412000
10085,DECATUR GENERAL HOSPITAL,1201 7TH STREET SE,DECATUR,,MORGAN,2563412000
10085,DECATUR GENERAL HOSPITAL,1201 7TH STREET SE,DECATUR,35609,,2563412000
10085,DECATUR GENERAL HOSPITAL,1201 7TH STREET SE,DECATUR,35609,MORGAN,
,NORTHWEST MEDICAL CENTER,1530 U S HIGHWAY 43,WINFIELD,35594,MARION,2054877736
10086,,1530 U S HIGHWAY 43,WINFIELD,35594,MARION,2054877736
10086,NORTHWEST MEDICAL CENTER,,WINFIELD,35594,MARION,2054877736
10086,NORTHWEST MEDICAL CENTER,1530 U S HIGHWAY 43,,35594,MARION,2054877736
10086,NORTHWEST MEDICAL CENTER,1530 U S HIGHWAY 43,WINFIELD,,MARION,2054877736
10086,NORTHWEST MEDICAL CENTER,1530 U S HIGHWAY 43,WINFIELD,35594,,2054877736
10086,NORTHWEST MEDICAL CENTER,1530 U S HIGHWAY 43,WINFIELD,35594,MARION,
,UNIV OF SOUTH ALABAMA MEDICAL CENTER,2451 FILLINGIM STREET,MOBILE,36617,MOBILE,2514717110
10087,,2451 FILLINGIM STREET,MOBILE,36617,MOBILE,2514717110
10087,UNIV OF SOUTH ALABAMA MEDICAL CENTER,,MOBILE,36617,MOBILE,2514717110
10087,UNIV OF SOUTH ALABAMA MEDICAL CENTER,2451 FILLINGIM STREET,,36617,MOBILE,2514717110
10087,UNIV OF SOUTH ALABAMA MEDICAL CENTER,2451 FILLINGIM STREET,MOBILE,,MOBILE,2514717110
10087,UNIV OF SOUTH ALABAMA MEDICAL CENTER,2451 FILLINGIM STREET,MOBILE,36617,,2514717110
10087,UNIV OF SOUTH ALABAMA MEDICAL CENTER,2451 FILLINGIM STREET,MOBILE,36617,MOBILE,
,PRATTVILLE BAPTIST HOSPITAL,124 S MEMORIAL DR,PRATTVILLE,36067,AUTAUGA,3343614267
10108,,124 S MEMORIAL DR,PRATTVILLE,36067,AUTAUGA,3343614267
10108,PRATTVILLE BAPTIST HOSPITAL,,PRATTVILLE,36067,AUTAUGA,3343614267
10108,PRATTVILLE BAPTIST HOSPITAL,124 S MEMORIAL DR,,36067,AUTAUGA,3343614267
10108,PRATTVILLE BAPTIST HOSPITAL,124 S MEMORIAL DR,PRATTVILLE,,AUTAUGA,3343614267
10108,PRATTVILLE BAPTIST HOSPITAL,124 S MEMORIAL DR,PRATTVILLE,36067,,3343614267
10108,PRATTVILLE BAPTIST HOSPITAL,124 S MEMORIAL DR,PRATTVILLE,36067,AUTAUGA,
,RUSSELLVILLE HOSPITAL,15155 HIGHWAY 43,RUSSELLVILLE,35653,FRANKLIN,2563321611
10158,,15155 HIGHWAY 43,RUSSELLVILLE,35653,FRANKLIN,2563321611
10158,RUSSELLVILLE HOSPITAL,,RUSSELLVILLE,35653,FRANKLIN,2563321611
10158,RUSSELLVILLE HOSPITAL,15155 HIGHWAY 43,,35653,FRANKLIN,2563321611
10158,RUSSELLVILLE HOSPITAL,15155 HIGHWAY 43,RUSSELLVILLE,,FRANKLIN,2563321611
10158,RUSSELLVILLE HOSPITAL,15155 HIGHWAY 43,RUSSELLVILLE,35653,,2563321611
10158,RUSSELLVILLE HOSPITAL,15155 HIGHWAY 43,RUSSELLVILLE,35653,FRANKLIN,
,COOSA VALLEY MEDICAL CENTER,315 W HICKORY ST,SYLACAUGA,35150,TALLADEGA,2562495000
10164,,315 W HICKORY ST,SYLACAUGA,35150,TALLADEGA,2562495000
10164,COOSA VALLEY MEDICAL CENTER,,SYLACAUGA,35150,TALLADEGA,2562495000
10164,COOSA VALLEY MEDICAL CENTER,315 W HICKORY ST,,35150,TALLADEGA,2562495000
10164,COOSA VALLEY MEDICAL CENTER,315 W HICKORY ST,SYLACAUGA,,TALLADEGA,2562495000
10164,COOSA VALLEY MEDICAL CENTER,315 W HICKORY ST,SYLACAUGA,35150,,2562495000
10164,COOSA VALLEY MEDICAL CENTER,315 W HICKORY ST,SYLACAUGA,35150,TALLADEGA,
,ALASKA REGIONAL HOSPITAL,2801 DEBARR ROAD,ANCHORAGE,99508,ANCHORAGE,9072761131
20017,,2801 DEBARR ROAD,ANCHORAGE,99508,ANCHORAGE,9072761131
20017,ALASKA REGIONAL HOSPITAL,,ANCHORAGE,99508,ANCHORAGE,9072761131
20017,ALASKA REGIONAL HOSPITAL,2801 DEBARR ROAD,,99508,ANCHORAGE,9072761131
20017,ALASKA REGIONAL HOSPITAL,2801 DEBARR ROAD,ANCHORAGE,,ANCHORAGE,9072761131
20017,ALASKA REGIONAL HOSPITAL,2801 DEBARR ROAD,ANCHORAGE,99508,,9072761131
20017,ALASKA REGIONAL HOSPITAL,2801 DEBARR ROAD,ANCHORAGE,99508,ANCHORAGE,
,YUKON KUSKOKWIM DELTA REG HOSPITAL,PO BOX 287,BETHEL,99559,BETHEL,9075436300
20018,,PO BOX 287,BETHEL,99559,BETHEL,9075436300
20018,YUKON KUSKOKWIM DELTA REG HOSPITAL,,BETHEL,99559,BETHEL,9075436300
20018,YUKON KUSKOKWIM DELTA REG HOSPITAL,PO BOX 287,,99559,BETHEL,9075436300
20018,YUKON KUSKOKWIM DELTA REG HOSPITAL,PO BOX 287,BETHEL,,BETHEL,9075436300
20018,YUKON KUSKOKWIM DELTA REG HOSPITAL,PO BOX 287,BETHEL,99559,,9075436300
20018,YUKON KUSKOKWIM DELTA REG HOSPITAL,PO BOX 287,BETHEL,99559,BETHEL,
,DALE MEDICAL CENTER,126 HOSPITAL AVE,OZARK,36360,DALE,3347742601
10021,,126 HOSPITAL AVE,OZARK,36360,DALE,3347742601
10021,DALE MEDICAL CENTER,,OZARK,36360,DALE,3347742601
10021,DALE MEDICAL CENTER,126 HOSPITAL AVE,,36360,DALE,3347742601
10021,DALE MEDICAL CENTER,126 HOSPITAL AVE,OZARK,,DALE,3347742601
10021,DALE MEDICAL CENTER,126 HOSPITAL AVE,OZARK,36360,,3347742601
10021,DALE MEDICAL CENTER,126 HOSPITAL AVE,OZARK,36360,DALE,
,CHEROKEE MEDICAL CENTER,400 NORTHWOOD DR,CENTRE,35960,CHEROKEE,2569275531
10022,,400 NORTHWOOD DR,CENTRE,35960,CHEROKEE,2569275531
10022,CHEROKEE MEDICAL CENTER,,CENTRE,35960,CHEROKEE,2569275531
10022,CHEROKEE MEDICAL CENTER,400 NORTHWOOD DR,,35960,CHEROKEE,2569275531
10022,CHEROKEE MEDICAL CENTER,400 NORTHWOOD DR,CENTRE,,CHEROKEE,2569275531
10022,CHEROKEE MEDICAL CENTER,400 NORTHWOOD DR,CENTRE,35960,,2569275531
10022,CHEROKEE MEDICAL CENTER,400 NORTHWOOD DR,CENTRE,35960,CHEROKEE,
,BAPTIST MEDICAL CENTER SOUTH,2105 EAST SOUTH BOULEVARD,MONTGOMERY,36116,MONTGOMERY,3342882100
10023,,2105 EAST SOUTH BOULEVARD,MONTGOMERY,36116,MONTGOMERY,3342882100
10023,BAPTIST MEDICAL CENTER SOUTH,,MONTGOMERY,36116,MONTGOMERY,3342882100
10023,BAPTIST MEDICAL CENTER SOUTH,2105 EAST SOUTH BOULEVARD,,36116,MONTGOMERY,3342882100
10023,BAPTIST MEDICAL CENTER SOUTH,2105 EAST SOUTH BOULEVARD,MONTGOMERY,,MONTGOMERY,3342882100
10023,BAPTIST MEDICAL CENTER SOUTH,2105 EAST SOUTH BOULEVARD,MONTGOMERY,36116,,3342882100
10023,BAPTIST MEDICAL CENTER SOUTH,2105 EAST SOUTH BOULEVARD,MONTGOMERY,36116,MONTGOMERY,
,JACKSON HOSPITAL & CLINIC INC,1725 PINE STREET,MONTGOMERY,36106,MONTGOMERY,3342938000
10024,,1725 PINE STREET,MONTGOMERY,36106,MONTGOMERY,3342938000
10024,JACKSON HOSPITAL & CLINIC INC,,MONTGOMERY,36106,MONTGOMERY,3342938000
10024,JACKSON HOSPITAL & CLINIC INC,1725 PINE STREET,,36106,MONTGOMERY,3342938000
10024,JACKSON HOSPITAL & CLINIC INC,1725 PINE STREET,MONTGOMERY,,MONTGOMERY,3342938000
10024,JACKSON HOSPITAL & CLINIC INC,1725 PINE STREET,MONTGOMERY,36106,,3342938000
10024,JACKSON HOSPITAL & CLINIC INC,1725 PINE STREET,MONTGOMERY,36106,MONTGOMERY,
,G H LANIER MEMORIAL HOSPITAL,4800 48TH ST,VALLEY,36854,CHAMBERS,3347561400
10025,,4800 48TH ST,VALLEY,36854,CHAMBERS,3347561400
10025,G H LANIER MEMORIAL HOSPITAL,,VALLEY,36854,CHAMBERS,3347561400
10025,G H LANIER MEMORIAL HOSPITAL,4800 48TH ST,,36854,CHAMBERS,3347561400
10025,G H LANIER MEMORIAL HOSPITAL,4800 48TH ST,VALLEY,,CHAMBERS,3347561400
10025,G H LANIER MEMORIAL HOSPITAL,4800 48TH ST,VALLEY,36854,,3347561400
10025,G H LANIER MEMORIAL HOSPITAL,4800 48TH ST,VALLEY,36854,CHAMBERS,
,ELBA GENERAL HOSPITAL,987 DRAYTON STREET,ELBA,36323,COFFEE,3348972257
10027,,987 DRAYTON STREET,ELBA,36323,COFFEE,3348972257
10027,ELBA GENERAL HOSPITAL,,ELBA,36323,COFFEE,3348972257
10027,ELBA GENERAL HOSPITAL,987 DRAYTON STREET,,36323,COFFEE,3348972257
10027,ELBA GENERAL HOSPITAL,987 DRAYTON STREET,ELBA,,COFFEE,3348972257
10027,ELBA GENERAL HOSPITAL,987 DRAYTON STREET,ELBA,36323,,3348972257
10027,ELBA GENERAL HOSPITAL,987 DRAYTON STREET,ELBA,36323,COFFEE,
,EAST ALABAMA MEDICAL CENTER AND SNF,2000 PEPPERELL PARKWAY,OPELIKA,36801,LEE,3347493411
10029,,2000 PEPPERELL PARKWAY,OPELIKA,36801,LEE,3347493411
10029,EAST ALABAMA MEDICAL CENTER AND SNF,,OPELIKA,36801,LEE,3347493411
10029,EAST ALABAMA MEDICAL CENTER AND SNF,2000 PEPPERELL PARKWAY,,36801,LEE,3347493411
10029,EAST ALABAMA MEDICAL CENTER AND SNF,2000 PEPPERELL PARKWAY,OPELIKA,,LEE,3347493411
10029,EAST ALABAMA MEDICAL CENTER AND SNF,2000 PEPPERELL PARKWAY,OPELIKA,36801,,3347493411
10029,EAST ALABAMA MEDICAL CENTER AND SNF,2000 PEPPERELL PARKWAY,OPELIKA,36801,LEE,
,WEDOWEE HOSPITAL,209 NORTH MAIN STREET,WEDOWEE,36278,RANDOLPH,2563572111
10032,,209 NORTH MAIN STREET,WEDOWEE,36278,RANDOLPH,2563572111
10032,WEDOWEE HOSPITAL,,WEDOWEE,36278,RANDOLPH,2563572111
10032,WEDOWEE HOSPITAL,209 NORTH MAIN STREET,,36278,RANDOLPH,2563572111
10032,WEDOWEE HOSPITAL,209 NORTH MAIN STREET,WEDOWEE,,RANDOLPH,2563572111
10032,WEDOWEE HOSPITAL,209 NORTH MAIN STREET,WEDOWEE,36278,,2563572111
10032,WEDOWEE HOSPITAL,209 NORTH MAIN STREET,WEDOWEE,36278,RANDOLPH,
,UNIVERSITY OF ALABAMA HOSPITAL,619 SOUTH 19TH STREET,BIRMINGHAM,35233,JEFFERSON,2059344011
10033,,619 SOUTH 19TH STREET,BIRMINGHAM,35233,JEFFERSON,2059344011
10033,UNIVERSITY OF ALABAMA HOSPITAL,,BIRMINGHAM,35233,JEFFERSON,2059344011
10033,UNIVERSITY OF ALABAMA HOSPITAL,619 SOUTH 19TH STREET,,35233,JEFFERSON,2059344011
10033,UNIVERSITY OF ALABAMA HOSPITAL,619 SOUTH 19TH STREET,BIRMINGHAM,,JEFFERSON,2059344011
10033,UNIVERSITY OF ALABAMA HOSPITAL,619 SOUTH 19TH STREET,BIRMINGHAM,35233,,2059344011
10033,UNIVERSITY OF ALABAMA HOSPITAL,619 SOUTH 19TH STREET,BIRMINGHAM,35233,JEFFERSON,
,COMMUNITY HOSPITAL INC,805 FRIENDSHIP ROAD,TALLASSEE,36078,ELMORE,3342836541
10034,,805 FRIENDSHIP ROAD,TALLASSEE,36078,ELMORE,3342836541
10034,COMMUNITY HOSPITAL INC,,TALLASSEE,36078,ELMORE,3342836541
10034,COMMUNITY HOSPITAL INC,805 FRIENDSHIP ROAD,,36078,ELMORE,3342836541
10034,COMMUNITY HOSPITAL INC,805 FRIENDSHIP ROAD,TALLASSEE,,ELMORE,3342836541
10034,COMMUNITY HOSPITAL INC,805 FRIENDSHIP ROAD,TALLASSEE,36078,,3342836541
10034,COMMUNITY HOSPITAL INC,805 FRIENDSHIP ROAD,TALLASSEE,36078,ELMORE,
,CULLMAN REGIONAL MEDICAL CENTER,1912 ALABAMA HIGHWAY 157,CULLMAN,35058,CULLMAN,2567372000
10035,,1912 ALABAMA HIGHWAY 157,CULLMAN,35058,CULLMAN,2567372000
10035,CULLMAN REGIONAL MEDICAL CENTER,,CULLMAN,35058,CULLMAN,2567372000
10035,CULLMAN REGIONAL MEDICAL CENTER,1912 ALABAMA HIGHWAY 157,,35058,CULLMAN,2567372000
10035,CULLMAN REGIONAL MEDICAL CENTER,1912 ALABAMA HIGHWAY 157,CULLMAN,,CULLMAN,2567372000
10035,CULLMAN REGIONAL MEDICAL CENTER,1912 ALABAMA HIGHWAY 157,CULLMAN,35058,,2567372000
10035,CULLMAN REGIONAL MEDICAL CENTER,1912 ALABAMA HIGHWAY 157,CULLMAN,35058,CULLMAN,
,ANDALUSIA REGIONAL HOSPITAL,849 SOUTH THREE NOTCH STREET,ANDALUSIA,36420,COVINGTON,3342228466
10036,,849 SOUTH THREE NOTCH STREET,ANDALUSIA,36420,COVINGTON,3342228466
10036,ANDALUSIA REGIONAL HOSPITAL,,ANDALUSIA,36420,COVINGTON,3342228466
10036,ANDALUSIA REGIONAL HOSPITAL,849 SOUTH THREE NOTCH STREET,,36420,COVINGTON,3342228466
10036,ANDALUSIA REGIONAL HOSPITAL,849 SOUTH THREE NOTCH STREET,ANDALUSIA,,COVINGTON,3342228466
10036,ANDALUSIA REGIONAL HOSPITAL,849 SOUTH THREE NOTCH STREET,ANDALUSIA,36420,,3342228466
10036,ANDALUSIA REGIONAL HOSPITAL,849 SOUTH THREE NOTCH STREET,ANDALUSIA,36420,COVINGTON,
,HUNTSVILLE HOSPITAL,101 SIVLEY RD,HUNTSVILLE,35801,MADISON,2562651000
10039,,101 SIVLEY RD,HUNTSVILLE,35801,MADISON,2562651000
10039,HUNTSVILLE HOSPITAL,,HUNTSVILLE,35801,MADISON,2562651000
10039,HUNTSVILLE HOSPITAL,101 SIVLEY RD,,35801,MADISON,2562651000
10039,HUNTSVILLE HOSPITAL,101 SIVLEY RD,HUNTSVILLE,,MADISON,2562651000
10039,HUNTSVILLE HOSPITAL,101 SIVLEY RD,HUNTSVILLE,35801,,2562651000
10039,HUNTSVILLE HOSPITAL,101 SIVLEY RD,HUNTSVILLE,35801,MADISON,
,GADSDEN REGIONAL MEDICAL CENTER,1007 GOODYEAR AVENUE,GADSDEN,35903,ETOWAH,2564944000
10040,,1007 GOODYEAR AVENUE,GADSDEN,35903,ETOWAH,2564944000
10040,GADSDEN REGIONAL MEDICAL CENTER,,GADSDEN,35903,ETOWAH,2564944000
10040,GADSDEN REGIONAL MEDICAL CENTER,1007 GOODYEAR AVENUE,,35903,ETOWAH,2564944000
10040,GADSDEN REGIONAL MEDICAL CENTER,1007 GOODYEAR AVENUE,GADSDEN,,ETOWAH,2564944000
10040,GADSDEN REGIONAL MEDICAL CENTER,1007 GOODYEAR AVENUE,GADSDEN,35903,,2564944000
10040,GADSDEN REGIONAL MEDICAL CENTER,1007 GOODYEAR AVENUE,GADSDEN,35903,ETOWAH,
,CHILTON MEDICAL CENTER,1010 LAY DAM ROAD,CLANTON,35045,CHILTON,2057552500
10043,,1010 LAY DAM ROAD,CLANTON,35045,CHILTON,2057552500
10043,CHILTON MEDICAL CENTER,,CLANTON,35045,CHILTON,2057552500
10043,CHILTON MEDICAL CENTER,1010 LAY DAM ROAD,,35045,CHILTON,2057552500
10043,CHILTON MEDICAL CENTER,1010 LAY DAM ROAD,CLANTON,,CHILTON,2057552500
10043,CHILTON MEDICAL CENTER,1010 LAY DAM ROAD,CLANTON,35045,,2057552500
10043,CHILTON MEDICAL CENTER,1010 LAY DAM ROAD,CLANTON,35045,CHILTON,
,MARION REGIONAL MEDICAL CENTER,1256 MILITARY STREET SOUTH,HAMILTON,35570,MARION,2059216200
10044,,1256 MILITARY STREET SOUTH,HAMILTON,35570,MARION,2059216200
10044,MARION REGIONAL MEDICAL CENTER,,HAMILTON,35570,MARION,2059216200
10044,MARION REGIONAL MEDICAL CENTER,1256 MILITARY STREET SOUTH,,35570,MARION,2059216200
10044,MARION REGIONAL MEDICAL CENTER,1256 MILITARY STREET SOUTH,HAMILTON,,MARION,2059216200
10044,MARION REGIONAL MEDICAL CENTER,1256 MILITARY STREET SOUTH,HAMILTON,35570,,2059216200
10044,MARION REGIONAL MEDICAL CENTER,1256 MILITARY STREET SOUTH,HAMILTON,35570,MARION,
,FAYETTE MEDICAL CENTER,1653 TEMPLE AVENUE NORTH,FAYETTE,35555,FAYETTE,2059325966
10045,,1653 TEMPLE AVENUE NORTH,FAYETTE,35555,FAYETTE,2059325966
10045,FAYETTE MEDICAL CENTER,,FAYETTE,35555,FAYETTE,2059325966
10045,FAYETTE MEDICAL CENTER,1653 TEMPLE AVENUE NORTH,,35555,FAYETTE,2059325966
10045,FAYETTE MEDICAL CENTER,1653 TEMPLE AVENUE NORTH,FAYETTE,,FAYETTE,2059325966
10045,FAYETTE MEDICAL CENTER,1653 TEMPLE AVENUE NORTH,FAYETTE,35555,,2059325966
10045,FAYETTE MEDICAL CENTER,1653 TEMPLE AVENUE NORTH,FAYETTE,35555,FAYETTE,
,RIVERVIEW REGIONAL MEDICAL CENTER,600 SOUTH THIRD STREET,GADSDEN,35901,ETOWAH,2565435200
10046,,600 SOUTH THIRD STREET,GADSDEN,35901,ETOWAH,2565435200
10046,RIVERVIEW REGIONAL MEDICAL CENTER,,GADSDEN,35901,ETOWAH,2565435200
10046,RIVERVIEW REGIONAL MEDICAL CENTER,600 SOUTH THIRD STREET,,35901,ETOWAH,2565435200
10046,RIVERVIEW REGIONAL MEDICAL CENTER,600 SOUTH THIRD STREET,GADSDEN,,ETOWAH,2565435200
10046,RIVERVIEW REGIONAL MEDICAL CENTER,600 SOUTH THIRD STREET,GADSDEN,35901,,2565435200
10046,RIVERVIEW REGIONAL MEDICAL CENTER,600 SOUTH THIRD STREET,GADSDEN,35901,ETOWAH,
,GEORGIANA HOSPITAL,515 MIRANDA ST,GEORGIANA,36033,BUTLER,3343762205
10047,,515 MIRANDA ST,GEORGIANA,36033,BUTLER,3343762205
10047,GEORGIANA HOSPITAL,,GEORGIANA,36033,BUTLER,3343762205
10047,GEORGIANA HOSPITAL,515 MIRANDA ST,,36033,BUTLER,3343762205
10047,GEORGIANA HOSPITAL,515 MIRANDA ST,GEORGIANA,,BUTLER,3343762205
10047,GEORGIANA HOSPITAL,515 MIRANDA ST,GEORGIANA,36033,,3343762205
10047,GEORGIANA HOSPITAL,515 MIRANDA ST,GEORGIANA,36033,BUTLER,
,MEDICAL CENTER ENTERPRISE,400 N EDWARDS STREET,ENTERPRISE,36330,COFFEE,3343470584
10049,,400 N EDWARDS STREET,ENTERPRISE,36330,COFFEE,3343470584
10049,MEDICAL CENTER ENTERPRISE,,ENTERPRISE,36330,COFFEE,3343470584
10049,MEDICAL CENTER ENTERPRISE,400 N EDWARDS STREET,,36330,COFFEE,3343470584
10049,MEDICAL CENTER ENTERPRISE,400 N EDWARDS STREET,ENTERPRISE,,COFFEE,3343470584
10049,MEDICAL CENTER ENTERPRISE,400 N EDWARDS STREET,ENTERPRISE,36330,,3343470584
10049,MEDICAL CENTER ENTERPRISE,400 N EDWARDS STREET,ENTERPRISE,36330,COFFEE,
,ST VINCENTS BLOUNT,150 GILBREATH DRIVE,ONEONTA,35121,BLOUNT,2052743000
10050,,150 GILBREATH DRIVE,ONEONTA,35121,BLOUNT,2052743000
10050,ST VINCENTS BLOUNT,,ONEONTA,35121,BLOUNT,2052743000
10050,ST VINCENTS BLOUNT,150 GILBREATH DRIVE,,35121,BLOUNT,2052743000
10050,ST VINCENTS BLOUNT,150 GILBREATH DRIVE,ONEONTA,,BLOUNT,2052743000
10050,ST VINCENTS BLOUNT,150 GILBREATH DRIVE,ONEONTA,35121,,2052743000
10050,ST VINCENTS BLOUNT,150 GILBREATH DRIVE,ONEONTA,35121,BLOUNT,
