ProviderNumber,HospitalName,Address1,City,ZipCode,CountyName,PhoneNumber
10022,WEDOWEE HOSPITAL,400 NORTHWOOD DR,CENTRE,35960,CHEROKEE,2569275531
20017,ALASKA REGIONAL HOSPITAL,2801 DEBARR ROAD,ANCHORAGE,99508,ANCHORAGE,9072761131
10108,MEDICAL CENTER ENTERPRISE,124 S MEMORIAL DR,PRATTVILLE,36067,AUTAUGA,3343614267
10034,FAYETTE MEDICAL CENTER,805 FRIENDSHIP ROAD,TALLASSEE,36078,ELMORE,3342836541
10007,MIZELL MEMORIAL HOSPITAL,702 N MAIN ST,OPP,36467,COVINGTON,3344933541
10036,ANDALUSIA REGIONAL HOSPITAL,849 SOUTH THREE NOTCH STREET,ANDALUSIA,36420,COVINGTON,3342228466
10050,ST VINCENTS BLOUNT,150 GILBREATH DRIVE,ONEONTA,35121,BLOUNT,2052743000
10024,JACKSON HOSPITAL & CLINIC INC,1725 PINE STREET,MONTGOMERY,36106,MONTGOMERY,3342938000
10164,COOSA VALLEY MEDICAL CENTER,315 W HICKORY ST,SYLACAUGA,35150,TALLADEGA,2562495000
10021,DALE MEDICAL CENTER,205 MARENGO STREET,OZARK,36360,DALE,3347742601
10022,CHEROKEE MEDICAL CENTER,400 NORTHWOOD DR,CENTRE,35960,CHEROKEE,2569275531
10010,MARSHALL MEDICAL CENTER NORTH,8000 ALABAMA HIGHWAY 69,GUNTERSVILLE,35976,MARSHALL,2565718000
10038,STRINGFELLOW MEMORIAL HOSPITAL,301 EAST 18TH ST,ANNISTON,36201,CALHOUN,2562358900
10044,MARION REGIONAL MEDICAL CENTER,1256 MILITARY STREET SOUTH,HAMILTON,35570,MARION,2059216200
10022,CHEROKEE MEDICAL CENTER,400 NORTHWOOD DR,CENTRE,35960,MARION,2569275531
10019,HELEN KELLER MEMORIAL HOSPITAL,1300 SOUTH MONTGOMERY AVENUE,SHEFFIELD,35660,JEFFERSON,2563864556
10021,DALE MEDICAL CENTER,126 HOSPITAL AVE,OZARK,36360,DALE,3347742601
10164,COOSA VALLEY MEDICAL CENTER,315 W HICKORY ST,SYLACAUGC,35150,TALLADEGA,2562495000
10018,CALLAHAN EYE FOUNDATION HOSPITAL,1720 UNIVERSITY BLVD,BIRMINGHAM,35233,JEFFERSON,2053258100
10056,MIZELL MEMORIAL HOSPITAL,810 ST VINCENTS DRIVE,BIRMINGHAM,35205,JEFFERSON,2059397000
10012,DEKALB REGIONAL MEDICAL CENTER,200 MED CENTER DRIVE,FORT PAYNE,35968,DE KALB,2568453150
10044,MARION REGIONAL MEDICAL CENTER,1256 MILITARY STREET SOUTH,HAMILTON,35570,MARION,2059216200
10012,DEKALB REGIONAL MEDICAL CENTER,200 MEE CENTER DRIVE,FORT PAYNE,35968,DE KALB,2568453150
10008,CRENSHAW COMMUNITY HOSPITAL,702 N MAIN ST,LUVERNE,36049,CRENSHAW,3343353374
10045,FAYETTE MEDICAL CENTER,1653 TEMPLE AVENUE NORTH,FAYETTE,35555,FAYETTE,2059325966
10050,ST VINCENTS BLOUNT,150 GILBREATH DRIVE,ONEONTA,35121,ETOWAH,2052743000
10011,ST VINCENT'S EAST,50 MEDICAL PARK EAST DRIVE,BIRMINGHAM,35235,JEFFERSON,2058383122
10015,SOUTHWEST ALABAMA MEDICAL CENTER,33700 HIGHWAY 43,THOMASVILLE,36784,CLARKE,3346366221
10108,PRATTVILLE BAPTIST HOSPITAL,124 S MEMORIAL DR,PRATTVILLE,36067,AUTAUGA,3343614267
10011,ST VINCENT'S EAST,50 MEDICAL PARK EAST DRIVE,BIRMINGHAM,35235,JEFFERSON,2058383122
10009,HARTSELLE MEDICAL CENTER,201 PINE STREET NORTHWEST,HARTSELLE,35640,MORGAN,2567736511
10029,EAST ALABAMA MEDICAL CENTER AND SNF,2000 PEPPERELL PARKWAY,OPELIKA,36801,FRANKLIN,3347493411
10023,BAPTIST MEDICAL CENTER SOUTH,1007 GOODYEAR AVENUE,MONTGOMERY,36116,MONTGOMERY,3342882100
10085,DECATUR GENERAL HOSPITAL,1201 7TH STREET SE,DECATUR,35609,MONTGOMERY,2563412000
10038,MEDICAL CENTER ENTERPRISE,400 N EDWARDS STREET,,36330,COFFEE,3343470584
10043,CHILTON MEDICAL CENTER,1010 LAY DAM ROAD,CLANTON,35045,CHILTON,2569275531
10011,ST VINCENT'S EAST,50 MEDICAL PARK EAST DRIVE,VALLEY,35235,JEFFERSON,2058383122
10033,GADSDEN REGIONAL MEDICAL CENTER,,GADSDEN,0,ETOWAH,2564944000
10008,CRENSHAW COMMUNITY HOSPITAL,101 HOSPITAL CIRCLE,ANCHORAGE,36049,CRENSHAW,3343353374
10034,COMMUNITY HOSPITAL INC,805 FRIENDSHIP ROAD,TALLASSEE,36078,ELMORE,3342836541
10050,ST VINCENTS BLOUNT,150 GILBREATH DRIVE,ONEONTA,35121,BLOUNT,2052743000
10022,CHEROKEE MEDICAL CENTER,400 NORTHWOOD DR,CENTRE,35960,CHSROKEE,2569275531
10012,STRINGFELLOW MEMORIAL HOSPITAL,200 MED CENTER DRIVE,FORT PAYNE,35968,DE KALB,2568453150
10038,CHEROKEE MEDICAL CENTER,301 EAST 18TH ST,ANNISTON,36201,CALHOUN,2562358900
10050,ST VINCENTS BLOUNT,150 GILBREATH DRIVE,ONEONTA,35121,BLOUNT,2052743000
10021,STRINGFELLOW MEMORIAL HOSPITAL,301 EAST 18TH ST,ANNISTON,36201,CALHOUN,2562358900
10023,BAPTIST MEDICAL CENTER SOUTH,400 NORTHWOOD DR,MONTGOMERY,36116,MONTGOMERY,3342882100
10045,HARTSELLE MEDICAL CENTER,201 PINE STREET NORTHWEST,HARTSELLE,35640,MORGAN,2567736511
10108,PRATTVILLE BAPTIST HOSPITAL,1000 FIRST STREET NORTH,PRATTVILLE,36067,AUTAUGA,3343614267
10011,ST VINCENT'S EAST,50 MEDICAL PARK EAST DRIVE,BIRMINGHAM,35235,JEFFERSON,2058383122
10043,CHILTON MEDICAL CENTER,1010 LAY DAM ROAD,CLANTON,35045,CHILTON,2057552500
10001,SOUTHEAST ALABAMA MEDICAL CENTER,1108 ROSS CLARK CIRCLE,DOTHAN,36302,JEFFERSON,3347938701
10033,UNIVERSITY OF ALABAMA HOSPITAL,619 SOUTH 19TH STREET,BIRMINGHAM,35233,JEFFERSON,2059344011
10015,SOUTHWEST ALABAMA MEDICAL CENTER,33700 HIGHWAY 43,THOMASVILLE,36784,CLARKE,3346366221
10035,CULLMAN REGIONAL MEDICAL CENTER,1912 ALABAMA HIGHWAY 157,CULLMAN,35058,CULLMAN,2567372000
10008,CRENSHAW COMMUNITY HOSPITAL,101 HOSPITAL CIRCLE,ONEONTA,36049,CRENSHAW,3343353374
10019,HELEN KELLER MEMORIAL HOSPITAL,1300 SOUTH MONTGOMERY AVENUE,SHEFFIELD,35660,JEFFERSON,2563864556
10038,STRINGFELLOW MEMORIAL HOSPITAL,301 EAST 18TH ST,ANNISTON,36201,CALHOUN,2562358900
20017,ALASKA REGIONAL HOSPITAL,2801 DEBARR ROAD,ANCHORAGE,99508,ANCHORAGE,9072761131
10009,HARTSELLE MEDICAL CENTER,201 PINE STREET NORTHWEST,HARTSELLE,35640,MORGAN,2567736511
10012,DEKALB REGIONAL MEDICAL CENTER,200 MED CENTER DRIVE,FORT PAYNE,35968,DE KALB,2568453150
10024,JACKSON HOSPITAL & CLINIC INC,1725 PINE STREET,MONTGOMERY,36106,MONTGOMERY,3342938000
10010,MARSHALL MEDICAL CENTER NORTH,315 W HICKORY ST,GUNTERSVILLE,35976,MARSHALL,2565718000
10021,DALE MEDICAL CENTER,126 HOSPITAL AVE,OZARK,36360,DALE,3347742601
10015,SOUTHWEST ALABAMA MEDICAL CENTER,33700 HIGHWAY 43,THOMASVILLE,36784,CLARKE,3346366221
10035,CULLMAN REGIONAL MEDICAL CENTER,1912 ALABAMA HIGHWAY 157,CULLMAN,35058,CULLMAN,2567372000
10022,CHEROKEE MEDICAL CENTER,400 NORTHWOOD DR,CENTRE,35960,CHEROKEE,2569275531
10040,GADSDEN REGIONAL MEDICAL CENTER,1007 GOODYEAR AVENUE,GADSDEN,35903,ETOWAH,2564944000
10021,DALE MEDICAL CENTER,126 HOSPITAL AVE,OZARK,36360,DALE,3347742601
10024,JACKSON HOSPILAL & CLINIC INC,1725 PINE STREET,MONTGOMERY,36106,MONTGOMERY,3342938000
10009,HARTSELLE MEDICAL CENTER,201 PINE STREET NORTHWEST,HARTSELLE,35960,MORGAN,2567736511
10009,HARTSELLE MEDICAL CENTER,201 PINE STREET NORTHWEST,HARTSELLE,35640,MORGAN,2563572111
10012,DEKALB REGIONAL MEDICAL CENTER,200 MED CENTER DRIVE,FORT PAYNE,35968,DE KALB,2568453150
10015,SOUTHWEST ALABAMA MEDICAL CENTER,33700 HIGHWAY 43,THOMASVILLE,36784,CLARKE,3346366221
10001,SOUTHEAST ALABAMA MEDICAL CENTER,1108 ROSS CLARK CIRCLE,DOTHAN,36302,HOUSTON,3347938701
10055,MARSHALL MEDICAL CENTER SOUTH,4370 WEST MAIN STREET,DOTHAN,36305,HOUSTON,3347935000
10006,ELIZA COFFEE MEMORIAL HOSPITAL,205 MARENGO STREET,FLORENCE,35631,LAUDERDALE,2567688400
10016,SHELBY BAPTIST MEDICAL CENTER,1000 FIRST STREET NORTH,ALABASTER,36078,SHELBY,2056208100
10011,ST VINCENT'S EAST,50 MEDICAL PARK EAST DRIVE,BIRMINGHAM,35594,JEFFERSON,2058383122
10164,COOSA VALLEY MEDICAL CENTER,315 W HICKORY ST,SHEFFIELD,35150,TALLADEGA,2562495000
10032,WEDOWEE HOSPITAL,209 NORTH MAIN STREET,WEDOWEE,36278,RANDOLPH,2563572111
10050,ST VINCENTS BLOUNT,150 GILBREATH DRIVE,ONEONTA,35121,BLOUNT,2052743000
10045,FAYETTE MEDICAL CENTER,1653 TEMPLE AVENUE NORTH,FAYETTE,35555,FAYETTE,2059325966
10049,MEDICAL CENTER ENTERPRISE,400 N EDWARDS STREET,ENTERPRISE,36330,COFFEE,2567688400
10038,STRINGFELLOW MEMORIAL HOSPITAL,301 EAST 18TH ST,BIRMINGHAM,36201,CALHOUN,2562358900
10045,FAYETTE MEDICAL CENTER,1653 TEMPLE AVENUE NORTH,FAYETTE,35555,FAYETTE,2059325966
10036,ELBA GENERAL HOSPITAL,987 DRAYTON STREET,ELBA,36323,COFFEE,3348972257
10015,SOUTHWEST ALABAMA MEDICAL CENTER,33700 HIGHWAY 43,THOMASVILLE,36784,CLARKE,3346366221
10023,BAPTIST MEDICAL CENTER SOUTH,2105 EAST SOUTH BOULEVARD,MONTGOMERY,36049,MONTGOMERY,3342882100
10025,G H LANIER MEMORIAL HOSPITAL,4800 48TH ST,VALLEY,36854,CHAMBERS,3347561400
10045,FAYETTE MEDICAL CENTER,1653 TEMPLE AVENUE NORTH,FAYETTE,35555,FAYETTE,2565718000
10016,SHELBY BAPTIST MEDICAL CENTER,1000 FIRST STREET NORTH,ALABASTER,35007,SHELBY,2056208100
10050,ST VINCENTS BLOUNT,150 GILBREATH DRIVE,ONEONTA,35121,CHEROKEE,2052743000
10021,DALE MEDICAL CENTER,126 HOSPITAL AVE,OZARK,36360,DALE,3347742601
10024,JACKSON HOSPITAL & CLINIC INC,1725 PINE STREET,MONTGOMERY,36106,MONTGOMERY,3342938000
10049,MEDICAL CENTER ENTERPRISE,400 N EDWARDS STREET,ENTERPRISE,36854,COFFEE,3343470584
10047,PRATTVILLE BAPTIST HOSPITAL,515 MIRANDA ST,GEORGIANA,36033,BUTLER,3343762205
10024,JACKSON HOSPITAL & CLINIC INC,1725 PINE STREET,MONTGOMERY,36106,MONTGOMERY,3342938000
10034,GEORGIANA HOSPITAL,805 FRIENDSHIP ROAD,TALLASSEE,36078,ELMORE,3342836541
10043,CHILTON MEDICAL CENTER,1010 LAY DAM ROAD,CLANTON,35045,CHILTON,2057552500
10086,NORTHWEST MEDICAL CENTER,1530 U S HIGHWAY 43,WINFIELD,35594,MARION,2054877736
10024,JACKSON HOSPITAL & CLINIC INC,1725 PINE STREET,MONTGOMERY,36106,MONTGOMERY,3342938000
10008,CALLAHAN EYE FOUNDATION HOSPITAL,101 HOSPITAL CIRCLE,LUVERNE,36049,CRENSHAW,3343353374
10015,SOUTHWEST ALABAMA MEDICAL CENTER,33700 HIGHWAY 43,THOMAWVILLE,36784,CLARKE,3346366221
10038,STRINGFELLOW MEMORIAL HOSPITAL,301 EAST 18TH ST,ANNISTON,36201,CALHOUN,2562358900
10055,FLOWERS HOSPITAL,4370 WEST MAIN STREET,DOTHAN,36305,HOUSTON,3347935000
10049,MEDICAL CENTER ENTERPRISE,400 N EDWARDS STREET,FLORENCE,36330,COFFEE,3343470584
10010,MARSHALL MEDICAL CENTER NORTH,8000 ALABAMA HIGHWAY 69,GUNTERSVILLE,35976,MARSHALL,2565718000
10046,RIVERVIEW REGIONAL MEDICAL CENTER,600 SOUTH THIRD STREET,HARTSELLE,35901,ETOWAH,2565435200
10086,NORTHWEST MEDICAL CENTER,1530 U S HIGHWAY 43,WINFIELD,35594,MARION,2054877736
10038,STRINGFELLOW MEMORIAL HOSPITAL,301 EAST 18TH ST,ANNISTON,36201,CALHOUN,2562358900
10012,DEKALB REGIONAL MEDICAL CENTER,200 MED CENTER DRIVE,FORT PAYNE,35968,DE KALB,2568453150
10016,SHELBY BAPTIST MEDICAL CENTER,1000 FIRST STREET NORTH,ALABASTER,35007,SHELBY,2056208100
10050,ST VINCENTS BLOUNT,150 GILBREATH DRIVE,ONEONTA,36201,BLOUNT,2052743000
10009,HARTSELLE MEDICAL CENTER,201 PINE STREET NORTHWEST,HARTSELLE,35640,MORGAN,2567736511
10034,COMMUNITY HOSPITAL INC,805 FRIENDSHIP ROAD,TALLASSEE,36078,ELMORE,3342836541
20017,ALASKA REGIONAL HOSPITAL,2801 DEBARR ROAD,OPELIKA,99508,ANCHORAGE,9072761131
10086,NORTHWEST MEDICAL CENTER,1530 U S HIGHWAY 43,ALABASTER,35594,MARION,2054877736
10015,SOUTHWEST ALABAMA MEDICAL CENTER,33700 HIGHWAY 43,THOMASVILLE,36784,CLARKE,3346366221
10001,SOUTHEAST ALABAMA MEDICAL CENTER,1108 ROSS CLARK CIRCLE,FORT PAYNE,36302,HOUSTON,3347938701
10027,ELBA GENERAL HOSPITAL,987 DRAYTON STREET,ELBA,36323,COFFEE,3348972257
10008,CRENSHAW COMMUNITY HOSPITAL,205 MARENGO STREET,LUVERNE,36049,CRENSHAW,3343353374
10022,CHEROKEE MEDICAL CENTER,400 NORTHWOOD DR,CENTRE,35960,CHEROKEE,2569275531
10044,MARION REGIONAL MEDICAL CENTER,1256 MILITARY STREET SOUTH,HAMILTON,35570,MARION,2059216200
10045,FAYETTE MEDICAL CENTER,1653 TEMPLE OVENUE NORTH,FAYETTE,35555,FAYETTE,2059325966
10087,UNIV OF SOUTH ALABAMA MEDICAL CENTER,2451 FILLINGIM STREET,MOBILE,36617,JEFFERSON,2514717110
10015,SOUTHWEST ALABAMA MEDICAL CENTER,33700 HIGHWAY 43,ELBA,36784,CLARKE,3346366221
10007,MIZELL MEMORIAL HOSPITAL,702 N MAIN ST,OPP,36467,COVINGTON,3344933541
10046,RIVERVIEW REGIONAL MEDICAL CENTER,200 MED CENTER DRIVE,GADSDEN,35901,ETOWAH,2565435200
10018,CALLAHAN EYE FOUNDATION HOSPITAL,1720 UNIVERSITY BLVD,BIRMINGHAM,35233,JEFFERSON,2053258100
10012,DEKALB REGIONAL MEDICAL CENTER,200 MED CENTER DRIVE,FORT PAYNE,35968,DE KALB,2568453150
10029,EAST ALABAMA MEDICAL CENTER AND SNF,2000 PEPPERELL PARKWAY,OPELIKA,36801,LEE,3347493411
10033,UNIVERSITY OF ALABAMA HOSPITAL,619 SOUTH 19TH STREET,BIRMINGHAM,35233,JEFFERSON,2059344011
10039,HUNTSVILLE HOSPITAL,101 SIVLEY RD,HUNTSVILLE,35801,MADISON,2562651000
10006,PRATTVILLE BAPTIST HOSPITAL,205 MARENGO STREET,FLORENCE,35631,LAUDERDALE,2567688400
10039,HUNTSVILLE HOSPITAL,101 SIVLEY RD,HUNTSVILLE,35801,MADISON,2562651000
10023,BAPTIST MEDICAL CENTER SOUTH,2105 EAST SOUTH BOULEVARD,MONTGOMERY,36116,MONTGOMERY,3342882100
10035,CULLMAN REGIONAL MEDICAL CENTER,1912 ALABAMA HIGHWAY 157,CULLMAN,35058,CULLMAN,2567372000
10024,JACKSON HOSPITAL & CLINIC INC,1725 PINE STREET,MONTGOMERY,36106,MONTGOMERY,3342938000
10034,COMMUNITY HOSPITAL INC,805 FRIENDSHIP ROAD,TALLASSEE,36078,ELMORE,3342836541
10018,CALLAHAN EYE FOUNDATION HOSPITAL,1720 UNIVERSITY BLVD,BIRMINGHAM,35233,JEFFERSON,2053258100
10046,RIVERVIEW REGIONAL MEDICAL CENTER,600 SOUTH THIRD STREET,GADSDEN,35901,ETOWAH,2565435200
10055,FLOWERS HOSPITAL,4370 WEST MAIN STREET,DOTHAN,36305,HOUSTON,3347935000
10055,HUNTSVILLE HOSPITAL,4370 WEST MAIN STREET,DOTHAN,36305,HOUSTON,3347935000
10007,MIZELL MEMORIAL HOSPITAL,702 N MAIN ST,OPP,36467,COVINGTON,3344933541
10044,MARION REGIONAL MEDICAL CENTER,1256 MILITARY STREET SOUTH,HAMILTON,35570,MARION,2059216200
10009,HARTSELLE MEDICAL CENTER,201 PINE STREET NORTHWEST,HARTSELLE,35640,MORGAN,2567736511
10043,CHILTON MEDICAL CENTER,1010 LAY DAM ROAD,CLANTON,35045,CHILTON,2057552500
10086,NORTHWEST MEDICAL CENTER,1530 U S HIGHWAY 43,WINFIELD,35594,MARION,2054877736
10027,ELBA GENERAL HOSPITAL,987 DRAYTON STREET,ELBA,36323,COFFEE,3348972257
10043,CHILTON MEDICAL CENTER,1010 LAY DAM ROAD,CENTRE,35045,CHILTON,2057552500
10039,HUNTSVILLE HOSPITAL,101 SIVLEY RD,HUNTSVILLE,35801,MADISON,2562651000
10035,CULLMAN REGIONAL MEDICAL CENTER,1912 ALABAMA HIGHWAY 157,CULLMAN,35058,CULLMAN,2567372000
10008,CRENSHAW COMMUNITY HOSPITAL,101 HOSPITAL CIRCLE,LUVERNE,36049,CRENSHAW,3343353374
10047,GEORGIANA HOSPITAL,515 MIRANDA ST,GEORGIANA,36033,BUTLER,3343762205
10010,CRENSHAW COMMUNITY HOSPITAL,8000 ALABAMA HIGHWAY 69,GUNTERSVILLE,35976,MARSHALL,2565718000
10038,STRINGFELLOW MEMORIAL HOSPITAL,301 EAST 18TH ST,ANNISTON,36201,CALHOUN,2562358900
10027,ELBA GENERAL HOSPITAL,987 DRAYTON STREET,ELBA,36323,COFFEE,3348972257
10016,SHELBY BAPTIST MEDICAL CENTER,1000 FIRST STREOT NORTH,ALABASTER,35007,SHELBY,2056208100
10008,ANDALUSIA REGIONAL HOSPITAL,101 HOSPITAL CIRCLE,LUVERNE,36049,CRENSHAW,3343353374
10055,FLOWERS HOSPITAL,4370 WEST MAIN STREET,DOTHAN,36305,HOUSTON,3347935000
10039,HUNTSVILLE HOSPITAL,101 SIVLEY RD,HUNTSVILLE,35801,MADISON,2562651000
10012,DEKALB REGIONAL MEDICAL CENTER,200 MED CENTER DRIVE,FORT PAYNE,35968,DE KALB,2568453150
10035,CULLMAN REGIONAL MEDICAL CENTER,1912 ALABAMA HIGHWAY 157,CULLMAN,35058,CULLMAN,2567372000
10035,CULLMAN REGIONAL MEDICAL CENTER,1912 ALABAMA HIGHWAY 157,CULLMAN,35058,CULLMAN,2567372000
10001,SOUTHEAST ALABAMA MEDICAL CENTER,1108 ROSS CLARK CIRCLE,DOTHAN,36302,HOUSTON,3347938701
10012,CRENSHAW COMMUNITY HOSPITAL,200 MED CENTER DRIVE,FORT PAYNE,35968,DE KALB,2568453150
10036,MARION REGIONAL MEDICAL CENTER,849 SOUTH THREE NOTCH STREET,ANDALUSIA,36420,COVINGTON,3342228466
10019,HELEN KELLER MEMORIAL HOSPITAL,1370 SOUTH MONTGOMERY AVENUE,SHEFFIELD,35660,JEFFERSON,2563864556
10044,MARION REGIONAL MEDICAL CENTER,1256 MILITARY STREET SOUTH,HAMILTON,35570,MARION,2059216200
10018,CALLAHAN EYE FOUNDATION HOSPITAL,101 SIVLEY RD,BIRMINGHAM,35233,JEFFERSON,2053258100
10012,ST VINCENT'S EAST,200 MED CENTER DRIVE,FORT PAYNE,35968,DE KALB,2568453150
10033,UNIVERSITY OF ALABAMA HOSPITAL,619 SOUTH 19TH STREET,BIRMINGHAM,35233,JEFFERSON,2059344011
10029,EAST ALABAMA MEDICAL CENTER AND SNF,2000 PEPPERELL PARKWAY,OPELIKA,36801,LEE,3347493411
10007,MIZELL MEMORIAL HOSPITAL,702 N MAIN ST,ALABASTER,36467,COVINGTON,3344933541
10033,UNIVERSITY OF ALABAMA HOSPITAL,619 SOUTH 19TH STREET,BIRMINGHAM,35233,JEFFERSON,2059344011
10029,EAST ALABAMA MEDICAL CENTER AND SNF,2000 PEPPERELL PARKWAY,OPELIKA,36801,LEE,3347493411
10012,DEKALB REGIONAL MEDICAL CENTER,200 MED CENTER DRIVE,FORT PAYNE,35968,DE KALB,2568453150
10008,CRENSHAW COMMUNITY HOSPITAL,702 N MAIN ST,LUVERNE,36049,CRENSHAW,3343353374
10016,SHELBY BAPTIST MEDICAL CENTER,1000 FIRST STREET NORTH,ALABASTER,35007,SHELBY,2056208100
10035,CULLMAN REGIONAL MEDICAL CENTER,33700 HIGHWAY 43,CULLMAN,35058,CULLMAN,2567372000
10049,MEDICAL CENTER ENTERPRISE,400 N EDWARDS STREET,ENTERPRISE,36330,COFFEE,3343470584
10055,FLOWERS HOSPITAL,4370 WEST MAIN STREET,DOTHAN,36305,HOUSTON,3347935000
10005,MARSHALL MEDICAL CENTER SOUTH,2505 U S HIGHWAY 431 NORTH,THOMASVILLE,35957,MARSHALL,2565938310
10047,GEORGIANA HOSPITAL,515 MIRANDA ST,GEORGIANA,36033,BUTLER,3343762205
20017,ALASKA REGIONAL HOSPITAL,124 S MEMORIAL DR,ANCHORAGE,99508,ANCHORAGE,9072761131
10050,ST VINCENTS BLOUNT,150 GILBREATH DRIVE,ONEONTA,35121,BLOUNT,2052743000
10019,HELEN KELLER MEMORIAL HOSPITAL,1300 SOUTH MONTGOMERY AVENUE,SHEFFIELD,35660,JEFFERSON,2563864556
10022,CHEROKEE MEDICAL CENTER,400 NORTHWOOD DR,CENTRE,35960,CHEROKEE,2569275531
10001,SOUTHEAST ALABAMA MEDICAL CENTER,1108 ROSS CLARK CIRCLE,DOTHAN,36302,HOUSTON,3347938701
10032,WEDOWEE HOSPITAL,209 NORTH MAIN STREET,WEDOWEE,36278,RANDOLPH,2562358900
10044,MARION REGIONAL MEDICAL CENTER,1256 MILITARY STREET SOUTH,HAMILTON,35570,MARION,2059216200
10024,JACKSON HOSPITAL & CLINIC INC,1725 PINE STREET,MONTGOMERY,36106,MONTGOMERY,2563864556
10029,EAST ALABAMA MEDICAL CENTER AND SNF,2505 U S HIGHWAY 431 NORTH,OPELIKA,36801,LEE,3347493411
10034,COMMUNITY HOSPITAL INC,805 FRIENDSHIP ROAD,FORT PAYNE,36078,ELMORE,3342836541
10005,MARSHALL MEDICAL CENTER SOUTH,2505 U S HIGHWAY 431 NORTH,BOAZ,35957,MARSHALL,2565938310
10007,MIZELL MEMORIAL HOSPITAL,702 N MAIN ST,OPP,36467,COVINGTON,3344933541
10032,WEDOWEE HOSPITAL,209 NORTH MAIN STREET,WEDOWEE,36278,RANDOLPH,2563572111
10027,ELBA GENERAL HOSPITAL,987 DRAYTON STREET,ELBA,36323,COFFEE,3348972257
10019,HELEN KELLER MEMORIAL HOSPITAL,1300 SOUTH MONTGOMERY AVENUE,SHEFFIELD,35660,JEFFERSON,2563864556
10019,HELEN KELLER MEMORIAL HOSPITAL,1300 SOUTH MONTGOMERY AVENEE,SHEFFIELD,35660,JEFFERSON,2563864556
10047,GEORGIANA HOSPITAL,515 MIRANDA ST,GEORGIANA,36033,BUTLER,3343762205
10012,DEKALB REGIONAL MEDICAL CENTER,200 MED CENTER DRIVE,FORT PAYNE,35968,DE KALB,2568453150
10086,NORTHWEST MEDICAL CENTER,1530 U S HIGHWAY 43,WINFIELD,35594,MARION,2054877736
10009,EAST ALABAMA MEDICAL CENTER AND SNF,201 PINE STREET NORTHWEST,HARTSELLE,35640,MORGAN,2567736511
10164,COOSA VALLEY MEDICAL CENTER,315 W HICKORY ST,SYLACAUGA,35150,TALLADEGA,2562495000
10047,HARTSELLE MEDICAL CENTER,515 MIRANDA ST,GEORGIANA,36033,BUTLER,3343762205
10007,MIZELL MEMORIAL HOSPITAL,702 N MAIN ST,OPP,36078,COVINGTON,3344933541
10001,SOUTHEAST ALABAMA MEDICAL CENTER,1108 ROSS CLARK CIRCLE,DOTHAN,36302,HOUSTON,3347938701
10012,DEKALB REGIONAL MEDICAL CENTER,200 MED CENTER DRIVE,FORT PAYNE,35968,DE KALB,2568453150
10050,ST VINCENTS BLOUNT,150 GILBREATH DRIVE,ONEONTA,35121,BLOUNT,2052743000
10001,SOUTHEAST ALABAMA MEDICAL CENTER,1108 ROSS CLARK CIRCLE,DOTHAN,36302,HOUSTON,3347938701
10009,HARTSELLE MEDICAL CENTER,201 PINE STREET NORTHWEST,HARTSELLE,35640,MORGAN,2567736511
10010,MARSHALL MEDICAL CENTER NORTH,8000 ALABAMA HIGHWAY 69,GUNTERSVILLE,99508,MARSHALL,2565718000
10007,MIZELL MEMORIAL HOSPITAL,702 N MAIN ST,OPP,36116,COVINGTON,3344933541
10012,DEKALB REGIONAL MEDICAL CENTER,200 MED CENTER DRIVE,FORT PAYNE,35968,DE KALB,2568453150
10008,CRENSHAW COMMUNITY HOSPITAL,101 HOSPITAL CIRCLE,LUVERNE,36049,CRENSHAW,3343353374
10015,SOUTHWEST ALABAMA MEDICAL CENTER,33700 HIGHWAY 43,THOMASVILLE,36784,CLARKE,3346366221
10022,CHEROKEE MEDICAL CENTER,400 NORTHWOOD DR,GADSDEN,35960,CHEROKEE,2569275531
10007,MIZELL MEMORIAL HOSPITAL,702 N MAIN ST,SYLACAUGA,36467,COVINGTON,3344933541
10029,EAST ALABAMA MEDICAL CENTER AND SNF,2000 PEPPERELL PARKWAY,OPELIKA,36801,LEE,3347493411
10019,HELEN KELLER MEMORIAL HOSPITAL,1300 SOUTH MONTGOMERY AVENUE,SHEFFIELD,35660,JEFFERSON,2563864556
10036,ANDALUSIA REGIONAL HOSPITAL,849 SOUTH THREE NOTCH STREET,ANDALUSIA,36420,COVINGTON,3342228466
10040,GADSDEN REGIONAL MEDICAL CENTER,1007 GOODYEAR AVENUE,GADSDEN,35903,ETOWAH,2564944000
10050,ST VINCENTS BLOUNT,150 GILBREATH DRIVE,SHEFFIELD,35121,BLOUNT,2052743000
10005,MARSHALL MEDICAL CENTER SOUTH,2505 U S HIGHWAY 431 NORTH,BOAZ,35957,MARSHALL,2565938310
10045,FAYETTE MEDICAL CENTER,1653 TEMPLE AVENUE NORTH,FAYETTE,35555,FAYETTE,9075436300
10025,G H LANIER MEMORIAL HOSPITAL,4800 48TH ST,VALLEY,36854,CHAMBERS,3347561400
10016,SHELBY BAPTIST MEDICAL CENTER,1000 FIRST STREET NORTH,CENTRE,35007,SHELBY,2056208100
10001,SOUTHEAST ALABAMA MEDICAL CENTER,600 SOUTH THIRD STREET,DOTHAN,36302,HOUSTON,3347938701
10007,MIZELL MEMORIAL HOSPITAL,702 N MAIN ST,OPP,36467,COVINGTON,3344933541
10009,HARTSELLE MEDICAL CENTER,201 PINE STREET NORTHWEST,HARTSELLE,36106,MORGAN,2567736511
10108,PRATTVILLE BAPTIST HOSPITAL,124 S MEMORIAL DR,PRATTVILLE,36067,AUTAUGA,3343614267
10040,GADSDEN REGIONAL MEDICAL CENTER,1007 GOODYEAR AVENUE,GADSDEN,35903,ETOWAH,2564944000
10036,ANDALUSIA REGIONAL HOSPITAL,849 SOUTH THREE NOTCH STREET,ANDALUSIA,36420,COVINGTON,3342228466
10010,MARSHALL MEDIWAL CENTER NORTH,8000 ALABAMA HIGHWAY 69,GUNTERSVILLE,35976,MARSHALL,2565718000
10023,BAPTIST MEDICAL CENTER SOUTH,2105 EAST SOUTH BOULEVARD,MONTGOMERY,36116,MONTGOMERY,3342882100
10044,MARION REGIONAL MEDICAL CENTER,1256 MILITARY STREET SOUTH,HAMILTON,36116,MARION,2059216200
10016,SHELBY BAPTIST MEDICAL CENTER,1000 FIRST STREET NORTH,ALABASTER,35007,SHELBY,2056208100
10027,ELBA GENERAL HOSPITAL,987 DRAYTON STREET,ELBA,36323,COFFEE,3348972257
10164,COOSA VALLEY MEDICAL CENTER,515 MIRANDA ST,SYLACAUGA,35150,TALLADEGA,2562495000
10007,MIZELL MEMORIAL HOSPITAL,702 N MAIN ST,OPP,36467,COVINGTON,3344933541
10008,CRENSHAW COMMUNITY HOSPITAL,101 HOSPITAL CIRCLE,LUVERNE,36049,CRENSHAW,3343353374
10036,ANDALUSIA REGIONAL HOSPITAL,849 SOUTH THREE NOTCH STREET,ANDALUSIA,36420,COVINGTON,3342228466
10011,ST VINCENT'S EAST,101 SIVLEY RD,BIRMINGHAM,35235,JEFFERSON,2058383122
10039,HUNTSVILLE HOSPITAL,101 SIVLEY RD,HUNTSVILLE,36467,MADISON,2562651000
10033,UNIVERSITY OF ALABAMA HOSPITAL,619 SOUTH 19TH STREET,BIRMINGHAM,35233,JEFFERSON,2059344011
10011,DALE MEDICAL CENTER,126 HOSPITAL AVE,OZARK,36360,DALE,3347742601
10001,SOUTHEAST ALABAMA MEDICAL CENTER,1108 ROSS CLARK CIRCLE,DOTHAN,36302,HOUSTON,3347938701
10025,G H LANIER MEMORIAL HOSPITAL,4800 48TH ST,VALLEY,36854,ELMORE,3347561400
10045,COMMUNITY HOSPITAL INC,1653 TEMPLE AVENUE NORTH,FAYETTE,35555,FAYETTE,2059325966
20017,ALASKA REGIONAL HOSPITAL,2801 DEBARR ROAD,ANCHORAGE,99508,ANCHORAGT,9072761131
10012,DEKALB REGIONAL MEDICAL CENTER,200 MED CENTER DRIVE,FORT PAYNE,35968,DE KALB,2568453150
10029,EAST ALABAMA MEDICAL CENTER AND SNF,2000 PEPPERELL PARKWAY,OPELIKA,36801,LEE,3347493411
10016,SHELBY BAPTIST MEDICAL CENTER,1000 FIRST STREET NORTH,ALABASTER,35007,SHELBY,2056208100
10040,GADSDEN REGIONAL MEDICAL CENTER,1007 GOODYEAR AVENUE,GADSDEN,35903,ETOWAH,3347938701
10045,FAYETTE MEDICAL CENTER,1653 TEMPLE AVENUE NORTH,FAYETTE,35555,FAYETTE,2059325966
10047,GEORGIANA HOSPITAL,515 MIRANDA ST,GEORGIANA,36033,BUTLER,3343762205
10015,SOUTHWEST ALABAMA MEDICAL CENTER,33700 HIGHWAY 43,THOMASVILLE,36784,CLARKE,3346366221
10034,COMMUNITY HOSPITAL INC,805 FRIENDSHIP ROAD,TALLASSEE,36078,ELMORE,3342836541
10036,ANDALUSIA REGIONAL HOSPITAL,849 SOUTH THREE NOTCH STREET,GADSDEN,36420,COVINGTON,3342228466
10015,SOUTHWEST ALABAMA MEDICAL CENTER,33700 HIGHWAY 43,THOMASVILLE,36784,CLARKE,3343762205
10019,HELEN KELLER MEMORIAL HOSPITAL,126 HOSPITAL AVE,SHEFFIELD,35660,JEFFERSON,2563864556
10024,JACKSON HOSPITAL & CLINIC INC,1725 PINE STREET,MONTGOMERY,36106,MONTGOMERY,3342938000
10008,CRENSHAW COMMUNITY HOSPITAL,101 HOSPITAL CIRCLE,ENTERPRISE,36049,CRENSHAW,3343353374
10036,ANDALUSIA REGIONAL HOSPITAL,849 SOUTH THREE NOTCH STREET,ANDALUSIA,35235,COVINGTON,3342228466
10019,HELEN KELLER MEMORIAL HOSPITAL,1300 SOUTH MONTGOMERY AVENUE,SHEFFIELD,35660,JEFFERSON,2563864556
10016,SHELBY BAPTIST MEDICAL CENTER,1000 FIRST STREET NORTH,ALABASTER,35007,SHELBY,2056208100
20017,ALASKA REGIONAL HOSPITAL,2801 DEBARR ROAD,ANCHORAGE,99508,ANCHORAGE,9072761131
10047,GEORGIANA HOSPITAL,515 MIRANDA ST,GEORGIANA,36033,BUTLER,3343762205
10008,CRENSHAW COMMUNITY HOSPITAL,101 HOSPITAL CIRCLE,LUVERNE,36049,CRENSHAW,3343353374
10022,CHEROKEE MEDICAL CENTER,400 NORTHWOOD DR,LUVERNE,35960,CHEROKEE,2569275531
10046,RIVERVIEW REGIONAL MEDICAL CENTER,600 SOUTH THIRD STREET,GADSDEN,35901,ETOWAH,2565435200
10055,FLOWERS HOSPITAL,4370 WEST MAIN STREET,DOTHAN,36305,HOUSTON,3347935000
10008,CRENSHAW COMMUNITY HOSPITAL,101 HOSPITAL CIRCLE,LUVERNE,36049,CRENSHAW,3343353374
10021,DALE MEDICAL CENTER,126 HOSPITAL AVE,OZARK,36360,COFFEE,3347742601
10055,FLOWERS HOSPITAL,4370 WEST MAIN STREET,DOTHAN,36305,HOUSTON,3347935000
10027,ELBA GENERAL HOSPITAL,987 DRAYTON STREET,ELBA,36323,COFFEE,3348972257
10050,MEDICAL CENTER ENTERPRISE,150 GILBREATH DRIVE,ONEONTA,35121,BLOUNT,2052743000
10015,SOUTHWEST ALABAMA MEDICAL CENTER,33700 HIGHWAY 43,THOMASVILLE,36784,CLARKE,3346366221
10006,ELIZA COFFEE MEMORIAL HOSPITAL,205 MARENGO STREET,FLORENCE,35631,LAUDERDALE,2059344011
10018,CALLAHAN EYE FOUNDATION HOSPITAL,1720 UNIVERSITY BLVD,BIRMINGHAM,35233,JEFFERSON,2053258100
10019,HELEN KELLER MEMORIAL HOSPITAL,1300 SOUTH MONTGOMERY AVENUE,BIRMINGHAM,35660,JEFFERSON,2563864556
10039,HUNTSVILLE HOSPITAL,101 SIVLEY RD,HUNTSVILLE,35801,MADISON,2563864556
10010,MARSHALL MEDICAL CENTER NORTH,8000 ALABAMA HIGHWAY 69,GUNTERSVILLE,35976,MARSHALL,2565718000
10011,COOSA VALLEY MEDICAL CENTER,315 W HICKORY ST,SYLACAUGA,35150,TALLADEGA,2562495000
10007,MIZELL MEMORIAL HOSPITAL,702 N MAIN ST,OPP,36467,COVINGTON,3344933541
10040,GADSDEN REGIONAL MEDICAL CENTER,1007 GOODYEAR AVENUE,GADSDEN,35903,ETOWAH,2564944000
10010,MARSHALL MEDICAL CENTER NORTH,8000 ALABAMA HIGHWAY 69,GUNTERSVILLE,35976,MARSHALL,2057552500
10011,ST VINCENT'S EAST,50 MEDICAL PARK EAST DRIVE,BIRMINGHAM,35235,JEFFERSON,2058383122
10045,FAYETTE MEDICAL CENTER,1653 TEMPLE AVENUE NORTH,FAYETTE,35555,FAYETTE,2059325966
10011,ST VINCENT'S EAST,50 MEDICAL PARK EAST DRIVE,BIRMINGHAM,35235,JEFFERSON,2058383122
10086,NORTHWEST MEDICAL CENTER,1530 U S HIGHWAY 43,WINFIELD,35594,MARION,2054877736
10023,G H LANIER MEMORIAL HOSPITAL,2105 EAST SOUTH BOULEVARD,MONTGOMERY,36116,MONTGOMERY,3342882100
10050,ST VINCENTS BLOUNT,101 HOSPITAL CIRCLE,ONEONTA,35121,BLOUNT,2052743000
10045,FAYETTE MEDICAL CENTER,1653 TEMPLE AVENUE NORTH,FAYETTE,35555,FAYETTE,2059325966
10015,SOUTHWEST ALABAMA MEDICAL CENTER,33700 HIGHWAY 43,FORT PAYNE,36784,CLARKE,3346366221
10045,FAYETTE MEDICAL CENTER,1653 TEMPLE AVENUE NORTH,FAYETTE,35555,FAYETTE,2053258100
10086,NORTHWEST MEDICAL CENTER,1530 U S HIGHWAY 43,WINFIELD,35594,MARION,2054877736
10087,UNIV OF SOUTH ALABAMA MEDICAL CENTER,2451 FILLINGIM STREET,MOBILE,36617,MOBILE,2514717110
10007,MIZELL MEMORIAL HOSPITAL,702 N MAIN ST,OPP,36467,COVINGTON,3344933541
10164,COOSA VALLEY MEDICAL CENTER,315 W HICKORY ST,SYLACAUGA,35150,TALLADEGA,2562495000
10033,FNIVERSITY OF ALABAMA HOSPITAL,619 SOUTH 19TH STREET,BIRMINGHAM,35233,JEFFERSON,2059344011
10010,MARSHALL MEDICAL CENTER NORTH,8000 ALABAMA HIGHWAY 69,BIRMINGHAM,35976,MARSHALL,2565718000
10043,CHILTON MEDICAL CENTER,1010 LAY DAM ROAD,CLANTON,35045,CHILTON,2057552500
10022,CHEROKEE MEDICAL CENTER,124 S MEMORIAL DR,CENTRE,35960,CHEROKEE,2569275531
0,ST VINCENTS HOSPITAL,810 ST VINCENTS DRIVE,BIRMINGHAM,35205,,2059397000
10021,DALE MEDICAL CENTER,126 HOSPITAL AVE,OZARK,36360,DALE,3347742601
10164,COOSA VALLEY MEDICAL CENTER,315 W HICKORY ST,SYLACAUGA,35150,TALLADEGA,2562495000
10108,PRATTVILLE BAPTIST HOSPITAL,124 S MEMORIAL DR,PRATTVILLE,36067,AUTAUGA,3343614267
10001,SOUTHEAST ALABAMA MEDICAL CENTER,1108 ROSS CLARK CIRCLE,DOTHAN,36302,HOUSTON,3347938701
10001,SOUTHEAST ALABAMA MEDICAL CENTER,1108 ROSS CLARK CIRCLE,DOTHAN,36302,HOUSTON,3347938701
10086,NORTHWEST MEDICAL CENTER,1530 U S HIGHWAY 43,WINFIELD,35594,MARION,2054877736
10032,WEDOWEE HOSPITAL,209 NORTH MAIN STREET,WEDOWEE,36278,RANDOLPH,2563572111
10043,CHILTON MEDICAL CENTER,1010 LAY DAM ROAD,CLANTON,35045,CHILTON,2057552500
10050,ST VINCENTS BLOUNT,150 GILBREATH DRIVE,ONEONTA,35121,BLOUNT,2052743000
10001,SOUTHEAST ALABAMA MEDICAL CENTER,1108 ROSS CLARK CIRCLE,DOTHAN,36302,JEFFERSON,3347938701
10009,HARTSELLE MEDICAL CENTER,201 PINE STREET NORTHWEST,HARTSELLE,35640,MORGAN,2059325966
10039,HUNTSVILLE HOSPITAL,101 SIVLEY RD,HUNTSVILLE,35801,MADISON,2562651000
10055,FLOWERS HOSPITAL,4370 WEST MAIN STREET,DOTHAN,36305,HOUSTON,3347935000
10005,MARSHALL MEDICAL CENTER SOUTH,2505 U S HIGHWAY 431 NORTH,BOAZ,35957,MARSHALL,2565938310
10032,WEDOWEE HOSPITAL,209 NORTH MAIN STREET,WEDOWEE,36278,RANDOLPH,2563572111
10016,SHELBY BAPTIST MEDICAL QENTER,1000 FIRST STREET NORTH,ALABASTER,35007,SHELBY,2056208100
10001,SOUTHEAST ALABAMA MEDICAL CENTER,1108 ROSS CLARK CIRCLE,DOTHAN,36302,HOUSTON,3347938701
10049,MEDICAL CENTER ENTERPRISE,400 N EDWARDS STREET,ENTERPRISE,36330,COFFEE,3343470584
10012,DEKALB REGIONAL MEDICAL CENTER,200 MED CENTER DRIVE,FORT PAYNE,35968,DE KALB,2568453150
10007,MIZELL MEMORIAL HOSPITAL,702 N MAIN ST,OPP,36467,COVINGTON,3344933541
10009,HARTSELLE MEDICAL CENTER,201 PINE STREET NORTHWEST,THOMASVILLE,35640,MORGAN,2567736511
10010,MARSHALL MEDICAL CENTER NORTH,8000 ALABAMA HIGHWAY 69,GUNTERSVILLE,35976,MARSHALL,2565718000
10049,MEDICAL CENTER ENTERPRISE,400 N EDWARDS ZTREET,ENTERPRISE,36330,COFFEE,3343470584
10011,ST VINCENT'S EAST,50 MEDICAL PARK EAST DRIVE,BIRMINGHAM,35235,JEFFERSON,2058383122
10008,CRENSHAW COMMUNITY HOSPITAL,101 HOSPITAL CIRCLE,LUVERNE,36049,CRENSHAW,3343353374
10108,PRATTVILLE BAPTIST HOSPITAL,124 S MEMORIAL DR,PRATTVILLE,36067,AUTAUGA,3343614267
10034,COMMUNITY HOSPITAL INC,805 FRIENDSHIP ROAD,TALLASSEE,36078,ELMORE,3342836541
10043,CHILTON MEDICAL CENTER,1010 LAY DAM ROAD,CLANTON,35045,CHILTON,2057552500
10027,ELBA GENERAL HOSPITAL,400 N EDWARDS STREET,ELBA,36323,COFFEE,3348972257
10018,CALLAHAN EYE FOUNDATION HOSPITAL,1720 UNIVERSITY BLVD,BIRMINGHAM,35058,JEFFERSON,2053258100
10033,UNIVERSITY OF ALABAMA HOSPITAL,619 SOUTH 19TH STREET,BIRMINGHAM,35233,JEFFERSON,2059344011
10039,HUNTSVILLE HOSPITAL,101 SIVLEY RD,HUNTSVILLE,35801,MADISON,2562651000
10055,FLOWERS HOSPITAL,4370 WEST MAIN STREET,DOTHAN,36305,HOUSTON,3347935000
10007,MIZELL MEMORIAL HOSPITAL,315 W HICKORY ST,OPP,36467,COVINGTON,3344933541
10038,STRINGFELLOW MEMORIAL HOSPITAL,301 EAST 18TH ST,ANNISTON,36201,CALHOUN,3343614267
10035,CULLMAN REGIONAL MEDICAL CENTER,1912 ALABAMA HIGHWAY 157,CULLMAN,35058,CULLMAN,2567372000
10108,PRATTVILLE BAPTIST HOSPITAL,124 S MEMORIAL DR,PRATTVILLE,36033,AUTAUGA,3343614267
10032,WEDOWEE HOSPITAL,209 NORTH MAIN STREET,WEDOWEE,36278,RANDOLPH,2567736511
10033,UNIVERSITY OF ALABAMA HOSPITAL,619 SOUTH 19TH STREET,BIRMINGHAM,35233,JEFFERSON,2059344011
10039,HUNTSVILLE HOSPITAL,101 SIVLEY RD,HUNTSVILLE,35801,MADISON,2562651000
10029,EAST ALABAMA MEDICAL CENTER AND SNF,2000 PEPPERELL PARKWAY,OPELIKA,36801,LEE,3347493411
10044,GADSDEN REGIONAL MEDICAL CENTER,1007 GOODYEAR AVENUE,GADSDEN,35903,ETOWAH,2564944000
10010,PRATTVILLE BAPTIST HOSPITAL,124 S MEMORIAL DR,PRATTVILLE,36067,AUTAUGA,3343614267
10038,STRINGFELLOW MEMORIAL HOSPITAL,301 EAST 18TH ST,ANNISTON,36201,CULLMAN,2562358900
10045,FAYETTE MEDICAL CENTER,1653 TEMPLE AVENUE NORTH,FAYETTE,35555,FAYETTE,3346366221
10011,ST VINCENT'S EAST,600 SOUTH THIRD STREET,BIRMINGHAM,35235,JEFFERSON,2058383122
10029,EAST ALABAMA MEDICAL CENTER AND SNF,2000 PEPPERELL PARKWAY,OPELIKA,36801,ANCHORAGE,3347493411
10019,HELEN KELLER MEMORIAL HOSPITAL,1300 SOUTH MONTGOMERY AVENUE,SHEFFIELD,35660,JEFFERSON,2563864556
10033,UNIVERSITY OF ALABAMA HOSPITAL,619 SOUTH 19TH STREET,BIRMINGHAM,35233,JEFFERSON,2059344011
10029,ST VINCENT'S EAST,50 MEDICAL PARK EAST DRIVE,BIRMINGHAM,35235,JEFFERSON,2058383122
10038,STRINGFELLOW MEMORIAL HOSPITAL,301 EAST 18TH ST,ANNISTON,36201,CALHOUN,2562358900
10046,RIVERVIEW REGIONAL MEDICAL CENTER,600 SOUTH THIRD STREET,GADSDEN,35901,ETOWAH,2565435200
10039,HUNTSVILLE HOSPITAL,101 SIVLEY RD,ANDALUSIA,35801,MADISON,2562651000
10007,MIZELL MEMORIAL HOSPITAL,702 N MAIN ST,OPP,36467,COVINGTON,3344933541
10010,MARSHALL MEDICAL CENTER NORTH,8000 ALABAMA HIGHWAY 69,GUNTERSVILLE,35976,MARSHALL,2565718000
10016,SHELBY BAPTIST MEDICAL CENTER,1000 FIRST STREET NORTH,ALABASTER,35007,SHELBY,2056208100
10022,CHEROKEE MEDICAL CENTER,400 NORTHWOOD DR,CENTRE,35960,CHEROKEE,2569275531
10043,CHILTON MEDICAL CENTER,702 N MAIN ST,CLANTON,35045,CHILTON,2057552500
10006,ELIZA COFFEE MEMORIAL HOSPITAL,205 MARENGO STREET,FLORENCE,36302,LAUDERDALE,2567688400
10087,UNIV OF SOUTH ALABAMA MEDICAL CENTER,2451 FILLINGIM STREET,MOBILE,36617,MOBILE,2514717110
10050,ST VINCENTS BLOUNT,150 GILBREATH DRIVE,ONEONTA,35121,BLOUNT,2052743000
10016,SHELBY BAPTIST MEDICAL CENTER,1000 FIRST STREET NORTH,ALABASTER,35007,SHELBY,2056208100
10005,MARSHALL MEDICAL CENTER SOUTH,2505 U S HIGHWAY 431 NORTH,BOAZ,35957,MARSHALL,2565938310
10015,SOUTHWEST ALABAMA MEDICAL CENTER,33700 HIGHWAY 43,THOMASVILLE,36784,CLARKE,3346366221
10021,DALE MEDICAL CENTER,126 HOSPITAL AIE,OZARK,36360,DALE,3347742601
10009,HARTSELLE MEDICAL CENTER,201 PINE STREET NORTHWEST,HARTSELLE,35640,MORGAN,2567736511
20017,ALASKA REGIONAL HOSPITAL,2801 DEBARR ROAD,ANCHORAGE,99508,ANCHORAGE,9072761131
20017,ALASKA REGIONAL HOSPITAL,2801 DEBARR ROAD,ANCHORAGE,99508,MADISON,9072761131
10049,MEDICAL CENTER ENTERPRISE,400 N EDWARDS STREET,ENTERPRISE,36330,COFFEE,3343470584
10047,GEORGIANA HOSPITAL,515 MIRANDA ST,GEORGIANA,36033,BUTLER,3343762205
10039,HUNTSVILLE HOSPITAL,101 SIVLEY RD,HUNTSVILLE,35233,MADISON,2562651000
10035,CULLMAN REGIONAL MEDICAL CENTER,1912 ALABAMA HIGHWAY 157,CULLMAN,35058,CULLMAN,2567372000
10025,G H LANIER MEMORIAL HOSPITAL,4800 48TH ST,VALLEY,36854,CHAMBERS,3347561400
10049,MEDICAL CENTER ENTERPRISE,400 N EDWARDS STREET,ENTERPRISE,36330,COFFEE,3343470584
10007,MIZELL MEMORIAL HOSPITAL,702 N MAIN ST,OPP,36467,COVINGTON,3344933541
10024,JACKSON HOSPITAL & CLINIC INC,1725 PINE STREET,MONTGOMERY,36106,LEE,3342938000
10035,CULLMAN REGIONAL MEDICAL CENTER,1912 ALABAMA HIGHWAY 157,CULLMAN,35058,CULLMAN,2567372000
10006,ELIZA COFFEE MEMORIAL HOSPITAL,205 MARENGO STREET,FLORENCE,35631,LAUDERDALE,2567688400
10019,HELEN KELLER MEMORIAL HOSPITAL,1300 SOUTH MONTGOMERY AVENUE,SHEFFIELD,35660,JEFFERSON,2563864556
10034,COMMUNITY HOSPITAL INC,805 FRIENDSHIP ROAD,TALLASSEE,36078,ELMORE,3342836541
10032,WEDOWEE HOSPITAL,209 NORTH MAIN STREET,WEDOWEE,36278,RANDOLPH,2563572111
10021,DALE MEDICAL CENTER,126 HOSPITAL AVE,OZARK,36360,DALE,3347742601
10029,EAST ALABAMA MEDICAL CENTER AND SNF,2000 PEPPERELL PARKWAY,OPELIKA,36801,LEE,3347493411
10018,CALLAHAN EYE FOUNDATION HOSPITAL,1720 UNIVERSITY BLVD,BIRMINGHAM,35233,TALLADEGA,2053258100
10043,CHILTON MEDICAL CENTER,1010 LAY DAM ROAD,CLANTON,35045,CHILTON,2057552500
10034,COMMUNITY HOSPITAL INC,805 FRIENDSHIP ROAD,TALLASSEE,36078,HOUSTON,3342836541
10024,JACKSON HOSPITAL & CLINIC INC,1725 PINE STREET,MONTGOMERY,36106,MONTGOMERY,3342938000
20017,ALASKA REGIONAL HOSPITAL,2801 DEBARR ROAD,ANCHORAGE,99508,ANCHORAGE,9072761131
10023,ELIZA COFFEE MEMORIAL HOSPITAL,205 MARENGO STREET,,0,LAUDERDALE,2567688400
10038,STRINGFELLOW MEMORIAL HOSPITAL,301 EAST 18TH ST,ANNISTON,36201,CALHOUN,2562358900
10032,WEDOWEE HOSPITAL,209 NORTH MAIN STREET,WEDOWEE,35150,RANDOLPH,2563572111
10032,WEDOWEE HOSPITAL,209 NORTH MAIN STREET,WEDOWEE,35801,RANDOLPH,2563572111
10164,COOSA VALLEY MEDICAL CENTER,150 GILBREATH DRIVE,SYLACAUGA,35150,TALLADEGA,2562495000
10010,ELIZA COFFEE MEMORIAL HOSPITAL,8000 ALABAMA HIGHWAY 69,GUNTERSVILLE,35976,MARSHALL,2565718000
10040,GADSDEN REGIONAL MEDICAL CENTER,1007 GOODYEAR AVENUE,GADSDEN,35903,ETOWAH,2564944000
10025,G H LANIER MEMORIAL HOSPITAL,4800 48TH ST,ELBA,36854,CHAMBERS,3347561400
10108,PRATTVILLE BAPTIST HOSPITAL,124 S MEMORIAL DR,PRATTVILLE,36067,AUTAUGA,3343614267
10034,COMMUNITY HOSPITAL INC,4800 48TH ST,TALLASSEE,36078,ELMORE,3342836541
10025,UNIVERSITY OF ALABAMA HOSPITAL,619 SOUTH 19TH STREET,BIRMINGHAM,35233,JEFFERSON,2059344011
10007,MIZELL MEMORIAL HOSPITAL,702 N MAIN ST,OPP,36467,COVINGTON,3344933541
10027,ELBA GENERAL HOSPITAL,987 DRAYTON STREET,ELBA,36323,COFFEE,3348972257
20017,ALASKA REGIONAL HOSPITAL,2801 DEBARR ROAD,ANCHORAGE,99508,ANCHORAGE,9072761131
10036,COMMUNITY HOSPITAL INC,849 SOUTH THREE NOTCH STREET,ANDALUSIA,36420,COVINGTON,3342228466
10012,DEKALB REGIONAL MEDICAL CENTER,205 MARENGO STREET,FORT PAYNE,35968,DE KALB,2568453150
10038,STRINGFELLOW MEMORIAL HOSPITAL,301 EAST 18TH ST,ANNISTON,36201,CALHOUN,2562358900
10038,STRINGFELLOW MEMORIAL HOSPITAL,301 EAST 18TH ST,ANNISTON,36201,CALHOUN,2562358900
10001,SOUTHEAST ALABAMA MEDICAL CENTER,1108 ROSS CLARK CIRCLE,DOTHAN,36302,HOUSTON,3347938701
10006,ELIZA COFFEE MEMORIAL HOSPITAL,205 MARENGO STREET,FLORENCE,35631,LAUDERDALE,2567688400
10032,WEDOWEE HOSPITAL,209 NORTH MAIN STREET,WEDOWEE,36278,RANDOLPH,2563572111
10015,SOUTHWEST ALABAMA MEDICAL CENTER,33700 HIGHWAY 43,THOMASVILLE,36784,ELMORE,3346366221
10016,SHELBY BAPTIST MEDICAL CENTER,1000 FIRST STREET NORTH,ALABASTER,35007,SHELBY,2056208100
10108,PRATTVILLE BAPTIST HOSPITAL,124 S MEMORIAL DR,PRATTVILLE,36067,AUTAUGA,3347561400
10010,MARSHALL MEDICAL CENTER NORTH,8000 ALABAMA HIGHWAY 69,GUNTERSVILLE,35901,MARSHALL,2565718000
10036,ANDALUSIA REGIONAL HOSPITAL,849 SOUTH THREE NOTCH STREET,ANDALUSIA,36420,COVINGTON,3342228466
10046,RIVERVIEW REGIONAL MEDICAL CENTER,600 SOUTH THIRD STREET,GADSDEN,35901,ETOWAH,2565435200
10021,DALE MEDICAL CENTER,126 HOSPITAL AVE,OZARK,36360,MARION,3347742601
10010,MARSHALL MEDICAL CENTER NORTH,8000 ALABAMA HIGHWAY 69,GUNTERSVILLE,35976,MARSHALL,2565718000
10038,STRINGFELLOW MEMORIAL HOSPITAL,301 EAST 18TH ST,ANNISTON,36201,CALHOUN,2562358900
10033,UNIVERSITY OF ALABAMA HOSPITAL,619 SOUTH 19TH STREET,OPP,35233,JEFFERSON,2059344011
10108,PRATTVILLE BAPTIST HOSPITAL,124 S MEMORIAL DR,PRATTVILLE,36067,AUTAUGA,3343614267
10022,CHEROKEE MEDICAL CENTER,400 NORTHWOOD DR,CENTRE,35960,CHEROKEE,2569275531
10086,NORTHWEST MEDICAL CENTER,1530 U S HIGHWAY 43,WINFIELD,35594,MARION,2054877736
10035,CULLMAN REGIONAL MEDICAL CENTER,1912 ALABAMA HIGHWAY 157,CULLMAN,35058,CULLMAN,2567372000
10043,CHILTON MEDICAL CENTER,1010 LAY DAM ROAD,CLANTON,35045,CHILTON,2057552500
10011,ST VINCENT'S EAST,50 MEDICAL PARK EAST DRIVE,BIRMINGHAM,35555,JEFFERSON,2058383122
10016,SHELBY BAPTIST MEDICAL CENTER,1000 FIRST STREET NORTH,ALABASTER,35121,SHELBY,2056208100
10006,ELIZA COFFEE MEMORIAL HOSPITAL,205 MARENGO STREET,FLORENCE,35901,LAUDERDALE,2567688400
10018,CALLAHAN EYE FOUNDATION HOSPITAL,1720 UNIVERSITY BLVD,BIRMINGHAM,35233,JEFFERSON,2053258100
10032,WEDOWEE HOSPITAL,209 NORTH MAIN STREET,WEDOWEE,36278,RANDOLPH,2563572111
10006,ELIZA COFFEE MEMORIAL HOSPITAL,205 MARENGO STREET,FLORENCE,35631,LAUDERDALE,2567688400
10021,DALE MEDICAL CENTER,126 HOSPITAL AVE,OZARK,36360,DALE,3347742601
10032,WEDOWEE HOSPITAL,209 NORTH MAIN STREET,WEDOWEE,36278,RANDOLPH,2563572111
10164,COOSA VALLEY MEDICAL CENTER,315 W HICKORY ST,SYLACAUGA,35150,TALLADEGA,2562495000
10040,GADSDEN REGIONAL MEDICAL CENTER,1007 GOODYEAR AVENUE,GADSDEN,35903,ETOWAH,2564944000
10108,PRATTVILLE BAPTIST HOSPITAL,124 S MEMORIAL DR,PRATTVILLE,36067,AUTAUGA,3343614267
10047,GEORGIANA HOSPITAL,515 MIRANDA ST,GEORGIANA,36033,BUTLER,3343762205
10018,CALLAHAN EYE FOUNDATION HOSPITAL,1720 UNIVERSITY BLVD,BIRMINGHAM,35233,TEFFERSON,2053258100
10044,MARION REGIONAL MEDICAL CENTER,1256 MILITARY STREET SOUTH,HAMILTON,35570,MORGAN,2059216200
10009,HARTSELLE MEDICAL CENTER,201 PINE STREET NORTHWEST,HARTSELLE,35640,MORGAN,2567736511
10024,JACKSON HOSPITAL & CLINIC INC,1725 PINE STREET,MONTGOMERY,36106,MONTGOMERY,3342938000
10001,SOUTHEAST ALABAMA MEDICAL CENTER,1108 ROSS CLARK CIRCLE,GEORGIANA,36302,HOUSTON,3347938701
10029,EAST ALABAMA MEDICAL CENTER AND SNF,2000 PEPPERELL PARKWAY,OPELIKA,36801,LEE,3347493411
10022,CHEROKEE MEDICAL CENTER,400 NORTHWOOD DR,CENTRE,35960,CHEROKES,2569275531
10040,GADSDEN REGIONAL MEDICAL CENTER,1007 GOODYEAR AVENUE,GADSDEN,35903,ETOWAH,2564944000
0,CRENSHAW COMMUNITY HOSPITAL,101 HOSPITAL CIRCLE,LUVERNE,36049,CRENSHAW,0
10039,HUNTSVILLE HOSPITAL,101 SIVLEY RD,HUNTSVILLE,35801,OADISON,2562651000
10086,NORTHWEST MEDICAL CENTER,1530 U S HIGHWAY 43,WINFIELD,35594,BETHEL,2054877736
10024,JACKSON HOSPITAL & CLINIC INC,1725 PINE STREET,MONTGOMERY,36106,MONTGOMERY,3342938000
10038,STRINGFELLOW MEMORIAL HOSPITAL,301 EAST 18TH ST,ANNISTON,36201,CALHOUN,2562358900
10008,CRENSHAW COMMUNITY HOSPITAL,101 HOSPITAL CIRCLE,LUVERNE,36049,CRENSHAW,3343353374
10056,ST VINCENTS HOSPITAL,810 ST VINCENTS DRIVE,BIRMINGHAM,35205,JEFFERSON,2059397000
10008,CRENSHAW COMMUNITY HOSPITAL,101 HOSPITAL CIRCLE,LUVERNE,36049,CRENSHAW,3343353374
10024,JACKSON HOSPITAL & CLINIC INC,1725 PINE STREET,MONTGOMERY,36106,MONTGOMERY,3342938000
10108,CRENSHAW COMMUNITY HOSPITAL,101 HOSPITAL CIRCLE,LUVERNE,36049,CRENSHAW,3343353374
10043,CHILTON MEDICAL CENTER,1010 LAY DAM ROAD,CLANTON,35045,CHILTON,2057552500
10005,MARSHALL MEDICAL CENTER SOUTH,2505 U S HIGHWAY 431 NORTH,BOAZ,35957,MARSHALL,2565938310
10049,MEDICAL CENTER ENTERPRISE,400 N EDWARDS STREET,ENTERPRISE,36330,COFFEE,2562358900
10022,CHEROKEE MEDICAL CENTER,400 NORTHWOOD DR,CENTRE,35960,CHEROKEE,2569275531
10049,MEDICAL CENTER ENTERPRISE,400 N EDWARDS STREET,ENTERPRISE,35570,COFFEE,3343470584
10044,MARION REGIONAL MEDICAL CENTER,1256 MILITARY STREET SOUTH,ELBA,35570,MARION,2059216200
10045,FAYETTE MEDICAL CENTER,1653 TEMPLE AVENUE NORTH,HAMILTON,35555,FAYETTE,2059325966
10007,MIZELL MEMORIAL HOSPITAL,702 N MAIN ST,OPP,36467,COVINGTON,3344933541
10005,MARSHALL MEDICAL CENTER SOUTH,2505 U S HIGHWAY 431 NORTH,BOAZ,35957,MARSHALL,2569275531
20017,ALASKA REGIONAL HOSPITAL,2801 DEBARR ROAD,ANCHORAGE,36278,ANCHORAGE,9072761131
10016,SHELBY BAPTIST MEDICAL CENTER,1000 FIRST STREET NORTH,ALABASTER,35007,SHELBY,2056208100
10039,HUNTSVILLE HOSPITAL,101 SIVLEY RD,HUNTSVILLE,35801,MADISON,2562651000
10044,MARION REGIONAL MEDICAL CENTER,1256 MILITARY STREET SOUTH,HAMILTON,35570,MARION,3342228466
10021,DALE MEDICAL CENTER,126 HOSPITAL AVE,OZARK,36360,DALE,3347742601
10010,MARSHALL MEDICAL CENTER NORTH,8000 ALABAMA HIGHWAY 69,GUNTERSVILLE,35976,MARSHALL,2565718000
10012,DEKALB REGIONAL MEDICAL CENTER,200 MED CENTER DRIVE,FORT PAYNE,35968,DE KALB,2568453150
10018,CULLMAN REGIONAL MEDICAL CENTER,1720 UNIVERSITY BLVD,BIRMINGHAM,35233,JEFFERSON,2053258100
10045,FAYETTE MEDICAL CENTER,1653 TEMPLE AVENUE NORTH,FAYETTE,35801,FAYETTE,2059325966
10087,UNIV OF SOUTH ALABAMA MEDICAL CENTER,2451 FILLINGIM STREET,MOBILE,36617,MOBILE,2514717110
10108,PRATTVILLE BAPTIST HOSPITAL,124 S MEMORIAL DR,PRATTVILLE,36067,AUTAUGA,3343614267
10040,GADSDEN REGIONAL MEDICAL CENTER,1007 GOODYEAR AVENUE,GADSDEN,35903,ETOWAH,2564944000
10039,EAST ALABAMA MEDICAL CENTER AND SNF,2000 PEPPERELL PARKWAY,OPELIKA,36801,LEE,0
10015,SOUTHWEST ALABAMA MEDICAL CENTER,33700 HIGHWAY 43,THOMASVILLE,36784,CLARKE,3346366221
10034,COMMUNITY HOSPITAL INC,805 FRIENDSHIP ROAD,TALLASSEE,36854,ELMORE,3342836541
10033,UNIVERSITY OF ALABAMA HOSPITAL,619 SOUTH 19TH STREET,BIRMINGHAM,35233,JEFFERSON,2059344011
10086,NORTHWEST MEDICAL CENTER,1530 U S HIGHWAY 43,LUVERNE,35594,MARION,2054877736
10025,MARSHALL MEDICAL CENTER NORTH,8000 ALABAMA HIGHWAY 69,GUNTERSVILLE,35976,MARSHALL,2565718000
10108,PRATTVILLE BAPTIST HOSPITAL,124 S MEMORIAL DR,PRATTVILLE,36067,AUTAUGA,3343614267
10018,CALLAHAN EYE FOUNDATION HOSPITAL,1720 UNIVERSITY BLVD,BIRMINGHAM,35233,JEFFERSON,2053258100
10001,SOUTHEAST ALABAMA MEDICAL CENTER,1108 ROSS CLARK CIRCLE,DOTHAN,36302,HOUSTON,3347938701
10043,CHILTON MEDICAL CENTER,1060 LAY DAM ROAD,CLANTON,35045,CHILTON,2057552500
10086,NORTHWEST MEDICAL CENTER,1530 U S HIGHWAY 43,WINFIELD,35594,MARION,2054877736
10040,GADSDEN REGIONAL MEDICAL CENTER,1007 GOODYEAR AVENUE,GADSDEN,35903,ETOWAH,2564944000
10018,BAPTIST MEDICAL CENTER SOUTH,1720 UNIVERSITY BLVD,BIRMINGHAM,35233,JEFFERSON,2053258100
10049,UNIVERSITY OF ALABAMA HOSPITAL,400 N EDWARDS STREET,ENTERPRISE,36330,COFFEE,3343470584
20017,ALASKA REGIONAL HOSPITAL,2801 DEBARR ROAD,ANCHORAGE,99508,ANCHORAGE,9072761131
10039,HUNTSVILLE HOSPITAL,101 SIVLEY RD,HUNTSVILLE,35801,DALE,2562651000
10021,DALE MEDICAL CENTER,126 HOSPITAL AVE,OZARK,36360,DALE,3347742601
10021,DALE MEDICAL CENTER,126 HOSPITAL AVE,OZARK,36360,DALE,3347742601
10010,MARSHALL MEDICAL CENTER NORTH,8000 ALABAMA HIGHWAY 69,GUNTERSVILLE,35976,MARSHALL,2565718000
10038,STRINGFELLOW MEMORIAL HOSPITAL,301 EAST 18TH ST,ANNISTON,36201,CALHOUN,2562358900
10087,UNIV OF SOUTH ALABAMA MEDICAL CENTER,2451 FILLINGIM STREET,MOBILE,36617,MOBILE,2514717110
10036,ANDALUSIA REGIONAL HOSPITAL,849 SOUTH THREE NOTCH STREET,ANDASUSIA,36420,COVINGTON,3342228466
10040,GADSDEN REGIONAL MEDICAL CENTER,1007 GOODYEAR AVENUE,GADSDEN,35903,JEFFERSON,2564944000
10050,ST VINCENTS BLOUNT,150 GILBREATH DRIVE,ONEONTA,35121,BLOUNT,2052743000
10001,SOUTHEAST ALABAMA MEDICAL CENTER,1108 ROSS CLARK CIRCLE,DOTHAN,36302,HOUSTON,3347938701
10018,CALLAHAN EYE FOUNDATION HOSPITAL,1720 UNIVERSITY BLVD,DOTHAN,35233,JEFFERSON,2053258100
10024,JACKSON HOSPITAL & CLINIC INC,1725 PINE STREET,MONNGOMERY,36106,MONTGOMERY,3342938000
10001,SOUTHEAST ALABAMA MEDICAL CENTER,1108 ROSS CLARK CIRCLE,DOTHAN,35903,HOUSTON,3347938701
10008,CRENSHAW COMMUNITY HOSPITAL,101 HOSPITAL CIRCLE,LUVERNE,36049,CRENSHAW,3343353374
10015,SOUTHWEST ALABAMA MEDICAL CENTER,33700 HIGHWAY 43,THOMASVILLE,36784,CLARKE,2569275531
10047,GEORGIANA HOSPITAL,2801 DEBARR ROAD,GEORGIANA,36033,BUTLER,3343762205
10036,ANDALUSIA REGIONAL HOSPITAL,400 NORTHWOOD DR,ANDALUSIA,36420,COVINGTON,3342228466
10050,ST VINCENTS BLOUNT,150 GILBREJTH DRIVE,ONEONTA,35121,BLOUNT,2052743000
10043,CHILTON MEDICAL CENTER,1010 LAY DAM ROAD,CLANTON,35045,CHILTON,2057552500
10001,SOUTHEAST ALABAMA MEDICAL CENTER,1108 ROSS CLARK CIRCLE,DOTHAN,36302,HOUSTON,3347938701
10009,HARTSELLE MEDICAL CENTER,201 PINE STREET NORTHWEST,HARTSELLE,35640,HOUSTON,2567736511
10046,RIVERVIEW REGIONAL MEDICAL CENTER,600 SOUTH THIRD STREET,GADSDEN,35901,ETOWAH,2565435200
10032,WEDOWEE HOSPITAL,209 NORTH MAIN STREET,WEDOWEE,36278,RANDOLPH,2563572111
10045,FAYETTE MEDICAL CENTER,1653 TEMPLE AVENUE NORTH,FAYETTE,35555,FAYETTE,2059325966
10006,ELIZA COFFEE MEMORIAL HOSPITAL,205 MARENGO STREET,FLORENCE,35631,LAUDERDALE,2567688400
10007,MIZELL MEMORIAL HOSPITAL,702 N MAIN ST,OPP,36467,COVINGTON,3344933541
10012,DEKALB REGIONAL MEDICAL CENTER,200 MED CENTER DRIVE,FORT PAYNE,35968,DE KALB,2569275531
10016,SHELBY BAPTIST MEDICAL CENTER,1000 FIRST STREET NORTH,ALABASTER,35007,SHELBY,2056208100
10108,FAYETTE MEDICAL CENTER,1653 TEMPLE AVENUE NORTH,FAYETTE,35555,,2059325966
10011,ST VINCENT'S EAST,50 MEDICAL PARK EAST DRIVE,BIRMINGHAM,35235,JEFFERSON,2058383122
10044,MARION REGIONAL MEDICAL CENTER,1256 MILITARY STREET SOUTH,HAMILTON,35570,MADISON,2059216200
10007,CALLAHAN EYE FOUNDATION HOSPITAL,702 N MAIN ST,OPP,36467,COVINGTON,3344933541
10034,COMMUNITY HOSPITAL INC,805 FRIENDSHIP ROAD,TALLASSEE,36078,ELMORE,3342836541
10034,COMGUNITY HOSPITAL INC,805 FRIENDSHIP ROAD,TALLASSEE,36078,ELMORE,3342836541
10038,STRINGFELLOW MEMORIAL HOSPITAL,301 EAST 18TH ST,ANNISTON,36201,CALHOUN,2562358900
10046,BAPTIST MEDICAL CENTER SOUTH,600 SOUTH THIRD STREET,GADSDEN,35901,ETOWAH,2565435200
10038,STRINGFELLOW MEMORIAL HOSPITAL,301 EAST 18TH ST,ANNISTON,36201,CALHOUN,2562358900
10047,GEORGIANA HOSPITAL,515 MIRANDA ST,GEORGIANA,36033,BUTLER,3343762205
10025,G H LANIER MEMORIAL HOSPITAL,4800 48TH ST,VALLEY,35801,CHAMBERS,3347561400
10027,ELBA GENERAL HOSPITAL,987 DRAYTON STREET,ELBA,36323,COFFEE,2059325966
10049,COMMUNITY HOSPITAL INC,400 N EDWARDS STREET,ENTERPRISE,36330,COFFEE,3343470584
10040,GADSDEN REGIONAL MEDICAL CENTER,1007 GOODYEAR AVENUE,GZDSDEN,35903,ETOWAH,2564944000
10044,MARION REGIONAL MEDICAL CENTER,1256 MILITARY STREET SOUTH,HAMILTON,35570,MARION,2059216200
10005,MARSHALL MEDICAL CENTER SOUTH,2505 U S HIGHWAY 431 NORTH,BOAZ,35957,MARSHALL,2565938310
10043,CHILTON MEDICAL CENTER,1010 LAY DAM ROAD,CLANTON,35045,CHILTON,2057552500
20018,YUKON KUSKOKWIM DELTA REG HOSPITAL,PO BOX 287,BETHEL,99559,DALE,9075436300
10046,RIVERVIEW REGIONAL MEDICAL CENTER,600 SOUTH THIRD STREET,GADSDEN,35901,ETOWAH,2565435200
10032,WEDOWEE HOSPITAL,209 NORTH MAIN STREET,WEDOWEE,36278,RANDOLPH,2563572111
10023,BAPTIST MEDICAL CENTER SOUTH,2105 EAST SOUTH BOULEVARD,MONTGOMERY,36116,MONTGOMERY,3342882100
10043,CHILTON MEDICAL CENTER,1010 LAY DAM ROAD,CLANTON,35045,CHILTON,2057552500
10024,SOUTHWEST ALABAMA MEDICAL CENTER,1725 PINE STREET,MONTGOMERY,36106,MONTGOMERY,3342938000
10006,ELIZA COFFEE MEMORIAL HOSPITAL,205 MARENGO STREET,FLORENCE,35631,LAUDERDALE,2567688400
10108,PRATTVILLE BAPTIST HOSPITAL,124 S MEMORIAL DR,PRATTVILLE,36067,AUTAUGA,3343614267
10032,WEDOWEE HOSPITAL,209 NORTH MAIN STREET,WEDOWEE,36278,RANDOLPH,2563572111
10018,CALLAHAN EYE FOUNDATION HOSPITAL,1720 UNIVERSITY BLVD,BIRMINGHAM,35233,JEFFERSON,2053258100
10001,SOUTHEAST ALABAMA MEDICAL CENTER,515 MIRANDA ST,DOTHAN,36302,HOUSTON,3347938701
10008,CRENSHAW COMMUNITY HOSPITAL,101 HOSPITAL CIRCLE,LUVERNE,36049,CRENSHAW,3343353374
10046,RIVERVIEW REGIONAL MEDICAL CENTER,600 SOUTH THIRD STREET,GADSDEN,35901,ETOWAH,2565435200
10005,MARSHALL MEDICAL CENTER SOUTH,2505 U S HIGHWAY 431 NORTH,BOAZ,35957,MARSHALL,2565938310
10046,RIVERVIEW REGIONAL MEDICAL CENTER,600 SOUTH THIRD STREET,GADSDEN,35901,ETOWAH,2565435200
10039,HUNTSVILLE HOSPITAL,101 SIVLEY RD,HUNTSVILLE,35801,MADISON,2562651000
10027,ELBA GENERAL HOSPITAL,987 DRAYTON STREET,ELBA,36323,COFFEE,3348972257
10043,ST VINCENT'S EAST,50 MEDICAL PARK EAST DRIVE,BIRMINGHAM,35235,JEFFERSON,2058383122
10007,MIZELL MEMORIAL HOSPITAL,702 N MAIN ST,OPP,36467,CLARKE,3344933541
10038,STRINGFELLOW MEMORIAL HOSPITAL,301 EAST 18TH ST,ANNISTON,36201,CALHOUN,2562358900
10086,FAYETTE MEDICAL CENTER,1653 TEMPLE AVENUE NORTH,FAYETTE,35555,FAYETTE,2059325966
10027,ELBA GENERAL HOSPITAL,987 DRAYTON STREET,ELBA,36323,COFFEE,3348972257
10029,DALE MEDICAL CENTER,2000 PEPPERELL PARKWAY,OPELIKA,36801,LEE,3347493411
10043,,2105 EAST SOUTH BOULEVARD,MONTGOMERY,36116,MONTGOMERY,3342882100
10027,ELBA GENERAL HOSPITAL,987 DRAYTON STREET,ELBA,36323,COFFEE,3348972257
10019,HELEN KELLER MEMORIAL HOSPITAL,1300 SOUTH MONTGOMERY AVENUE,SHEFFIELD,35660,JEFFERSON,2563864556
10023,BAPTIST MEDICAL CENTER SOUTH,2105 EAST SOUTH BOULEVARD,MONTGOMERY,36116,MONTGOMERY,3342882100
10045,FAYETTE MEDICAL CENTER,1653 TEMPLE AVENUE NORTH,FAYETTE,35555,FAYETTE,2059325966
10018,CALLAHAN EYE FOUNDATION HOSPITAL,1720 UNIVERSITY BLVD,BIRMINGHAM,35233,JEFFERSON,2565938310
10010,MARSHALL MEDICAL CENTER NORTH,8000 ALABAMA HIGHWAY 69,GUNTERSVILLE,35976,MARSHALL,2565718000
10033,HARTSELLE MEDICAL CENTER,619 SOUTH 19TH STREET,BIRMINGHAM,35233,JEFFERSON,2059344011
10015,SOUTHWEST ALABAMA MEDICAL CENTER,33700 HIGHWAY 43,THOMASVILLE,36784,CLARKE,3346366221
10012,DEKALB REGIONAL MEDICAL CENTER,200 MED CENTER DRIVE,FORT PAYNE,35968,DE KALB,2568453150
10005,MARSHALL MEDICAL CENTER SOUTH,2505 U S HIGHWAY 431 NORTH,BOAZ,35957,MARSHALL,2565938310
10044,MARION REGIONAL MEDICAL CENTER,1256 MILITARY STREET SOUTH,HAMILTON,35570,MARION,2059216200
10038,CULLMAN REGIONAL MEDICAL CENTER,1912 ALABAMA HIGHWAY 157,CULLMAN,35058,CULLMAN,2567372000
10086,NORTHWEST MEDICAL CENIER,1530 U S HIGHWAY 43,WINFIELD,35594,MARION,2054877736
10016,SHELBY BAPTIST MEDICAL CENTER,1000 FIRST STREET NORTH,ALABASTER,35007,SHELBY,2056208100
10036,ANDALUSIA REGIONAL HOSPITAL,849 SOUTH THREE NOTCH STREET,ANDALUSIA,36420,COVINGTON,9072761131
10049,MEDICAL CENTER ENTERPRISE,400 N EDWARDS STREET,ENTERPRISE,36330,COFFEE,3343470584
10049,MEDICAL CENTER ENTERPRISE,400 N EDWARDS STREET,ENTERPRISE,36330,COFFEE,3343470584
10032,WEDOWEE HOSPITAL,209 NORTH MAIN STREET,WEDOWEE,36278,RANDOLPH,2563572111
10086,NORTHWEST MEDICAL CENTER,805 FRIENDSHIP ROAD,WINFIELD,35594,MARION,2054877736
10018,CALLAHAN EYE FOUNDATION HOSPITAL,1720 UNIVERSITY BLVD,BIRMINGHAM,35233,JEFFERSON,2053258100
10086,NORTHWEST MEDICAL CENTER,849 SOUTH THREE NOTCH STREET,WINFIELD,35594,MARION,2054877736
10035,CULLMAN REGIONAL MEDICAL CENTER,1912 ALABAMA HIGHWAY 157,THOMASVILLE,35058,CULLMAN,2567372000
10006,ELIZA COFFEE MEMORIAL HOSPITAL,205 MARENGO STREET,FLORENCE,35631,LAUDERDALE,2567688400
10001,SOUTHEAST ALABAMA MEDICAL CENTER,1108 ROSS CLARK CIRCLE,DOTHAN,36302,HOUSTON,3347938701
10045,FAYETTE MEDICAL CENTER,1653 TEMPLE AVENUE NORTH,LUVERNE,35555,FAYETTE,2059325966
10018,CALLAHAN EYE FOUNDATION HOSPITAL,1720 UNIVERSITY BLVD,BIRMINGHAM,35233,JEFFERSON,2053258100
10036,ANDALUSIA REGIONAL HOSPITAL,849 SOUTH THREE NOTCH STREET,ANDALUSIA,36420,COVINGTON,3342228466
10008,FLOWERS HOSPITAL,4370 WEST MAIN STREET,DOTHAN,36305,HOUSTON,3347935000
10025,G H LANIER MEMORIAL HOSPITAL,2105 EAST SOUTH BOULEVARD,VALLEY,36854,CHAMBERS,3347561400
10007,GEORGIANA HOSPITAL,702 N MAIN ST,OPP,36467,COVINGTON,3344933541
10049,MEDICAL CENTER ENTERPRISE,400 N EDWARDS STREET,ENTERPRISE,36330,COFFEE,3343470584
10086,NORTHWEST MEDICAL CENTER,1530 U S HIGHWAY 43,WINFIELD,35594,MARION,2565435200
10108,PRATTVILLE BAPTIST HOSPITAL,124 S MEMORIAL DR,PRATTVILLE,36067,AUTAUGA,3343614267
10018,CALLAHAN EYE FOUNDATION HOSPITAL,1720 UNIVERSITY BLVD,BIRMINGHAM,35233,JEFFERSON,2053258100
10164,COOSA VALLEY MEDICAL CENTER,315 W HICKORY ST,SYLACAUGA,35150,TALLADEGA,2562495000
10047,GEORGIANA HOSPITAL,515 MIRANDA ST,GEORGIANA,36033,BUTLER,3343762205
10015,SOUTHWEST ALABAMA MEDICAT CENTER,33700 HIGHWAY 43,THOMASVILLE,36784,CLARKE,3346366221
10034,COMMUNITY HOSPITAL INC,805 FRIENDSHIP ROAD,TALLASSEE,36078,ELMORE,3342836541
10033,UNIVERSITY OF ALABAMA HOSPITAL,619 SOUTH 19TH STREET,BIRMINGHAM,35233,JEFFERSON,2059344011
10035,CULLMAN REGIONAL MEDICAL CENTER,1912 ALABAMA HIGHWAY 157,CULLMAN,35058,BLOUNT,2567372000
10024,JACKSON HOSPITAL & CLINIC INC,1725 PINE STREET,MONTGOMERY,36106,MONTGOMERY,3342938000
10036,ANDALUSIA REGIONAL HOSPITAL,849 SOUTH THREE NOTCH STREET,ANDALUSIA,36420,COVINGTON,3342228466
20017,ALASKA REGIONAL HOSPITAL,2801 DEBARR ROAD,ANCHORAGE,99508,CHILTON,9072761131
10033,UNIVERSITY OF ALABAMA HOSPITAL,619 SOUTH 19RH STREET,BIRMINGHAM,35233,JEFFERSON,2059344011
10005,MARSHALL MEDICAL CENTER SOUTH,2505 U S HIGHWAY 431 NORTH,BOAZ,35957,MARSHALL,2565938310
10047,GEORGIANA HOSPITAL,515 MIRANDA ST,GEORGIANA,36033,BUTLER,3343762205
10022,G H LANIER MEMORIAL HOSPITAL,400 NORTHWOOD DR,CENTRE,35960,CHEROKEE,2569275531
10024,JACKSON HOSPITAL & CLINIC INC,1725 PINE STREET,MONTGOMERY,36106,MONTGOMERY,3342938000
10022,COMMUNITY HOSPITAL INC,400 NORTHWOOD DR,CENTRE,35960,CHEROKEE,2569275531
10047,GEORGIANA HOSPITAL,515 MIRANDA ST,GEORGIANA,36033,BUTLER,3343762205
10008,DEKALB REGIONAL MEDICAL CENTER,200 MED CENTER DRIVE,FORT PAYNE,35968,DE KALB,2568453150
10046,RIVERVIEW REGIONAL MEDICAL CENTER,600 SOUTH THIRD STREET,GADSDEN,36033,ETOWAH,2565435200
10024,JACKSON HOSPITAL & CLINIC INC,1725 PINE STREET,MONTGOMERY,36106,MONTGOMERY,3342938000
10007,MIZELL MEMORIAL HOSPITAL,702 N MAIN ST,DOTHAN,36467,COVINGTON,3344933541
10018,CALLAHAN EYE FOUNDATION HOSPITAL,1720 UNIVERSITY BLVD,BIRMINGHAM,35233,JEFFERSON,2053258100
10049,MEDICAL CENTER ENTERPRISE,400 N EDWARDS STREET,ENTERPRISE,36330,COFFEE,3343470584
10039,HUNTSVILLE HOSPITAL,101 SIVLEY RD,HUNTSVILLE,35801,MADISON,3347935000
10036,ANDALUSIA REGIONAL HOSPITAL,849 SOUTH THREE NOTCH STREET,ANDALUSIA,36420,COVINGTON,3342228466
10039,HUNTSVILLE HOSPITAL,101 SIVLEY RD,HUNTSVILLE,35801,MADISON,2562651000
10015,SOUTHWEST ALABAMA MEDICAL CENTER,33700 HIGHWAY 43,THOMASVILLE,36784,CLARKE,3346366221
10010,MARSHALL MEDICAL CENTER NORTH,8000 ALABAMA HIGHWAY 69,GUNTERSVILLE,35976,MARSHALL,2565718000
10021,DALE MEDICAL CENTER,126 HOSPITAL AVE,OZVRK,36360,DALE,3347742601
10050,ST VINCENTS BLOUNT,150 GILBREATH DRIVE,ONEONTA,35121,BLOUNT,2052743000
10033,UNIVERSITY OF ALABAMA HOSPITAL,619 SOUTH 19TH STREET,BIRMINGHAM,36330,JEFFERSON,2059344011
10025,G H LANIER MEMORIAL HOSPITAL,4800 48TH ST,VALLEY,36854,CHAMBERS,3347561400
10033,UNIVERSITY OF ALABAMA HOSPITAL,619 SOUTH 19TH STREET,BIRMINGHAM,35233,JEFFERSON,2059344011
10086,NORTHWEST MEDICAL CENTER,1530 U S HIGHWAY 43,WINFIELD,35594,MARION,2054877736
10045,FAYETTE MEDICAL CENTER,1653 TEMPLE AVENUE NORTH,FAYETTE,35555,FAYETTE,2059325966
10036,ANDALUSIA REGIONAL HOSPITAL,849 SOUTH THREE NOTCH STREET,ANDALUSIA,36420,COVINGTON,3342228466
10018,CALLAHAN EYE FOUNDATION HOSPITAL,1720 UNIVERSITY BLVD,BIRMINGHAM,35233,JEFFERSON,2053258100
10015,SOUTHWEST ALABAMA MEDICAL CENTER,33700 HIGHWAY 43,THOMASVILLE,36784,CLARKE,3346366221
10001,SOUTHEAST ALABAMA MEDICAL CENTER,1108 ROSS CLARK CIRCLE,DOTHAN,36302,HOUSTON,3347938701
10012,DEKALB REGIONAL MEDICAL CENTER,200 MED CENTER DRIVE,LUVERNE,35968,DE KALB,2568453150
10050,ST VINCENTS BLOUNT,805 FRIENDSHIP ROAD,ONEONTA,35121,BLOUNT,2052743000
10039,FLOWERS HOSPITAL,101 SIVLEY RD,HUNTSVILLE,35801,MADISON,2562651000
10021,DALE MEDICAL CENTER,126 HOSPITAL AVE,OZARK,36360,JEFFERSON,3347742601
10032,WEDOWEE HOSPITAL,1010 LAY DAM ROAD,WEDOWEE,36278,RANDOLPH,2563572111
10038,STRINGFELLOW MEMORIAL HOSPITAL,301 EAST 18TH ST,ANNISTON,36201,CALHOUN,2562358900
10009,HARTSELLE MEDICAL CENTER,201 PINE STREET NORTHWEST,HARTSELLE,35640,MORGAN,2567736511
10033,UNIVERSITY OF ALABAMA HOSPITAL,619 SOUTH 19TH STREET,LUVERNE,35233,JEFFERSON,2059344011
10047,GEORGIANA HOSPITAL,515 MIRANDA ST,GEORGIANA,36033,BUTLER,3343762205
10016,SHELBY BAPTIST MEDICAL CENTER,849 SOUTH THREE NOTCH STREET,ALABASTER,35007,SHELBY,2056208100
10040,GADSDEN REGIONAL MEDICAL CENTER,1007 GOODYEAR AVENUE,GADSDEN,35233,ETOWAH,2564944000
10039,HUNTSVILLE HOSPITAL,101 SIVLEY RD,HUNTSVILLE,35968,MADISON,2562651000
10006,ELIZA COFFEE MEMORIAL HOSPITAL,205 MARENGO STREET,FLORENCE,35631,LAUDERDALE,2567688400
10022,CHEROKEE MEDICAL CENTER,400 NORTHWOOD DR,CENTRE,35960,CHEROKEE,2569275531
10006,ELIZA COFFEE MEMORIAL HOSPITAL,205 MARENGO STREET,FLORENCE,35631,LAUDERDALE,2567688400
10046,RIVERVIEW REGIONAL MEDICAL CENTER,600 SOUTH THIRD STREET,GADSDEN,35901,ETOWAH,3347938701
10010,MARSHALL MEDICAL CENTER NORTH,8000 ALABAMA HIGHWAY 69,GUNTERSVILLE,35976,MARSHALL,2565718000
10018,CALLAHAN EYE FOUNDATION HOSPITAL,1720 UNIVERSITY BLVD,VIRMINGHAM,35233,JEFFERSON,2053258100
10024,JACKSON HOSPITAL & CLINIC INC,2801 DEBARR ROAD,MONTGOMERY,36106,MONTGOMERY,3342938000
10005,MARSHALL MEDICAL CENTER NORTH,8000 ALABAMA HIGHWAY 69,GUNTERSVILLE,35976,MARSHALL,2565718000
10029,EAST ALABAMA MEDICAL CENTER AND SNF,2000 PEPPERELL PARKWAY,OPELIKA,36801,LEE,3347493411
10158,RUSSELLVILLE HOSPITAL,15155 HIGHWAY 43,RUSSELLVILLE,35653,MORGAN,2563321611
10040,GADSDEN REGIONAL MEDICAL CENTER,1007 GOODYEAR AVENUE,GADSDEN,35903,ETOWAH,2564944000
10001,SOUTHEAST ALABAMA MEDICAL CENTER,1108 ROSS CLARK CIRCLE,DOTHAN,36302,HOUSTON,3347938701
10044,MARION REGIONAL MEDICAL CENTER,1256 MILITARY STREET SOUTH,HAMILTON,35570,MARION,2059216200
10027,ELBA GENERAL HOSPITAL,987 DRAYTON STREET,ELBA,36323,COFFEE,3348972257
10032,WEDOWEE HOSPITAL,209 NORTH MAIN STREET,WEDOWEE,36278,RANDOLPH,2563572111
10036,ANDALUSIA REGIONAL HOSPITAL,849 SOUTH THREE NOTCH STREET,ANDALUSIA,36420,COVINGTON,3342228466
10032,WEDOWEE HOSPITAL,209 NORTH MAIN STREET,WEDOWEE,36278,RANDOLPH,2563572111
10087,UNIV OF SOUTH ALABAMA MEDICAL CENTER,2451 FILLINGIM STREET,TALLASSEE,36617,MOBILE,2514717110
10024,JACKSON HOSPITAL & CLINIC INC,1725 PINE STREET,MONTGOMERY,36106,MONTGOMERY,3342938000
10027,ELBA GENERAL HOSPITAL,4800 48TH ST,ELBA,36323,COFFEE,3348972257
10010,MARSHALL MEDICAL CENTER NORTH,8000 ALABAMA HIGHWAY 69,GUNTERSVILLE,35976,MARSHALL,2565718000
10021,DALE MEDICAL CENTER,126 HOSPITAL AVE,OZARK,36360,DALE,3347742601
10040,GADSDEN REGIONAL MEDICAL CENTER,1007 GOODYEAR AVENUE,GADSDEN,35903,ETOWAH,2564944000
10039,HUNTSVILLE HOSPITAL,101 SIVLEY RD,HUNTSVILLE,35058,MADISON,2562651000
10164,COOSA VALLEY MEDICAL CENTER,315 W HICKORY ST,SYLACAUGA,35150,TALLADEGA,2562495000
10025,G H LANIER MEMORIAL HOSPITAL,4800 48TH ST,VALLEY,36854,CHAMBERS,3348972257
10009,HARTSELLE MEDICAL CENTER,201 PINE STREET NORTHWEST,HARTSELLE,35640,MORGAN,2567736511
10021,MARSHALL MEDICAL CENTER NORTH,126 HOSPITAL AVE,OZARK,36360,DALE,3347742601
10010,MARSHALL MEDICAL CENTER NORTH,8000 ALABAMA HIGHWAY 69,GUNTERSVILLE,35976,MARSLALL,2565718000
10035,COMMUNITY HOSPITAL INC,805 FRIENDSHIP ROAD,TALLASSEE,0,ELMORE,3342836541
10087,UNIV OF SOUTH ALABAMA MEDICAL CENTER,2451 FILLINGIM STREET,MOBILE,36617,MOBILE,2514717110
10044,MARION REGIONAL MEDICAL CENTER,1256 MILITARY STREET SOUTH,HAMILTON,35570,MARION,2059216200
10029,EAST ALABAMA MEDICAL CENTER AND SNF,2000 PEPPERELL PARKWAY,OPELIKA,36801,LEE,3347493411
10086,NORTHWEST MEDICAL CENTER,1530 U S HIGHWAY 43,WINFIELD,35594,MARION,2054877736
10001,SOUTHEAST ALABAMA MEDICAL CENTER,1108 ROSS CLARK CIRCLE,DOTHAN,36302,HOUSTON,3347938701
10035,CULLMAN REGIONAL MEDICAL CENTER,1912 ALABAMA HIGHWAY 157,CULLMAN,35058,CULLMAN,2567372000
10006,,50 MEDICAL PARK EAST DRIVE,BIRMINGHAM,35235,JEFFERSON,2058383122
20017,ALASKA REGIONAL HOSPITAL,2801 DEBARR ROAD,ANCHORAGE,99508,ANCHORAGE,9072761131
10025,G H LANIER MEMORIAL HOSPITAL,4800 48TH ST,VALLEY,36854,CHAMBERS,3347561400
10086,NORTHWEST MEDICAL CENTER,1530 U S HIGHWAY 43,WINFIELD,35594,CLARKE,2054877736
10009,G H LANIER MEMORIAL HOSPITAL,4800 48TH ST,VALLEY,0,CHAMBERS,3347561400
10025,G H LANIER MEMORIAL HOSPITAL,4800 48TH ST,VALLEY,36854,CHAMBERS,3347561400
10007,MIZELL MEMORIAL HOSPITAL,702 N MAIN ST,OPP,36467,COVINGTON,3344933541
10008,CRENSHAW COMMUNITY HOSPITAL,101 HOSPITAL CIRCLE,GADSDEN,36049,CRENSHAW,3343353374
10010,MARSHALL QEDICAL CENTER NORTH,8000 ALABAMA HIGHWAY 69,GUNTERSVILLE,35976,MARSHALL,2565718000
10039,HUNTSVILLE HOSPITAL,101 SIVLEY RD,HUNTSVILLE,35801,MADISON,2562651000
10046,RIVERVIEW REGIONAL MEDICAL CENTER,600 SOUTH THIRD STREET,GADSDEN,35901,ETOWAH,2056208100
10044,MARION REGIONAL MEDICAL CENTER,1256 MILITARY STREET SOUTH,HAMILTON,35570,MARION,2059216200
10006,ELIZA COFFEE MEMORIAL HOSPITAL,205 MARENGO STREET,FLORENCE,35631,LAUDERDALE,2563572111
10025,DALE MEDICAL CENTER,4800 48TH ST,VALLEY,36854,CHAMBERS,3347561400
10010,MARSHALL MEDICAL CENTER NORTH,8000 ALABAMA HIGHWAY 69,GUNTERSVILLE,35976,MARSHALL,2565718000
10046,RIVERVIEW REGIONAL MEDICAL CENTER,600 SOUTH THIRD STREET,GADSDEN,35901,ETOWAH,2565435200
10005,MARSHALL MEDICAL CENTER SOUTH,2505 U S HIGHWAY 431 NORTH,BOAZ,35957,MARSHALL,3342228466
10086,NORTHWEST MEDICAL CENTER,1530 U S HIGHWAY 43,WINFIELD,35594,MARION,2054877736
10005,NORTHWEST MEDICAL CENTER,1530 U S HIGHWAY 43,WINFIELD,35594,MARION,2054877736
10029,CULLMAN REGIONAL MEDICAL CENTER,1912 ALABAMA HIGHWAY 157,CULLMAN,35058,CULLMAN,0
10086,NORTHWEST MEDICAL CENTER,1530 U S HIGHWAY 43,WINFIELD,35594,MARION,2054877736
10055,FLOWERS HOSPITAL,4370 WEST MAIN STREET,DOTHAN,36305,HOUSTON,3347935000
10055,HARTSELLE MEDICAL CENTER,4370 WEST MAIN STREET,DOTHAN,36305,HOUSTON,3347935000
10006,ELIZA COFFEE MEMORIAL HOSPITAL,205 MARENGO STREET,FLORENCE,35631,LAUDERDALE,2567688400
10047,GEORGIANA HOSPITAL,515 MIRANDA ST,GEORGIANA,36033,BUTLER,3343762205
10045,MARSHALL MEDICAL CENTER NORTH,8000 ALABAMA HIGHWAY 69,GUNTERSVILLE,35976,MARSHALL,2565718000
10055,FLOWERS HOSPITAL,4370 WEST MAIN STREET,DOTHAN,36305,HOUSTON,3347935000
10164,COOSA VALLEY MEDICAL CENTER,315 W HICKORY ST,SYLACAUGA,35150,TALLADEGA,2562495000
10016,SHELBY BAPTKST MEDICAL CENTER,1000 FIRST STREET NORTH,ALABASTER,35007,SHELBY,2056208100
10039,HUNTSVILLE HOSPITAL,101 SIVLEY RD,HUNTSVILLE,35801,MADISON,2562651000
10027,ELBA GENERAL HOSPITAL,987 DRAYTON STREET,ELBA,36323,COFFEE,3348972257
10029,EAST ALABAMA MEDICAL CENTER AND SNF,2000 PEPPERELL PARKWAY,OPELIKA,36801,LEE,3347493411
10015,SOUTHWEST ALABAMA MEDICAL CENTER,33700 HIGHWAY 43,THOMASVILLE,36784,CLARKE,3346366221
10032,WEDOWEE HOSPITAL,209 NORTH MAIN STREET,WEDOWEE,36278,RANDOLPH,2563572111
20017,ALASKA REGIONAL HOSPITAL,2801 DEBARR ROAD,ANCHORAGE,99508,ANCHORAGE,9072761131
10027,ELBA GENERAL HOSPITAL,987 DRAYTON STREET,ELBA,36201,COFFEE,3348972257
10035,CULLMAN REGIONAL MEDICAL CENTER,1912 ALABAMA HIGHWAY 157,CULLMAN,35058,CULLMAN,2567372000
10043,CHILTON MEDICAL CENTER,1010 LAY DAM ROAD,CLANTON,35045,CHILTON,2057552500
0,HUNTSVILLE HOSPITAL,101 SIVLEY RD,HUNTSVILLE,0,MADISON,2562651000
10033,UNIVERSITY OF ALABAMA HOSPITAL,619 SOUTH 19TH STREET,BIRMINGHAM,35233,JEFFERSON,2059344011
10040,EAST ALABAMA MEDICAL CENTER AND SNF,2000 PEPPERELL PARKWAY,OPELIKA,0,LEE,3347493411
10039,HUNTSVILLE HOSPITAL,101 SIVLEY RD,HUNTSVILLE,35801,MADISON,2562651000
10011,ST VINCENT'S EAST,50 MEDICAL PARK EAST DRIVE,BIRMINGHAM,35235,JEFFERSON,2058383122
10018,CALLAHAN EYE FOUNDATION HOSPITAL,1720 UNIVERSITY BLVD,BIRMINGHAM,35233,JEFFERSON,2053258100
10086,NORTHWEST MEDICAL CENTER,1530 U S HIGHWAY 43,WINFIELD,35594,MARION,2054877736
10025,G H LANIER MEMORIAL HOSPITAL,4800 48TH ST,VALLEY,36854,CHAMBERS,3347561400
10032,WEDOWEE HOSPITAL,209 NORTH MAIN STREET,WEDOWEE,36278,RANDOLPH,2563572111
10011,ST VINCENT'S EAST,50 MEDICAL PARK EAST DRIVE,BIRMINGHAM,35235,JEFFERSON,2058383122
10086,NORTHWEST MEDICAL CENTER,1530 U S HIGHWAY 43,WINFIELD,35594,MARION,2054877736
10022,CHEROKEE MEDICAL CENTER,400 NORTHWOOD DR,CENTRE,35960,CHEROKEE,2569275531
10027,ELBA GENERAL HOSPITAL,987 DRAYTON STREET,ELBA,36323,COFFEE,3348972257
10019,HELEN KELLER MEMORIAL HOSPITAL,1300 SOUTH MONTGOMERY AVENUE,SHEFFIELD,35660,JEFFERSON,2056208100
10086,NORTHWEST MEDICAL CENTER,1530 U S HIGHWAY 43,WINFIELD,35594,MARION,2054877736
10038,STRINGFELLOW MEMORIAL HOSPITAL,301 EAST 18TH ST,ANNISTON,36201,CALHOUN,2562358900
10038,STRINUFELLOW MEMORIAL HOSPITAL,301 EAST 18TH ST,ANNISTON,36201,CALHOUN,2562358900
10007,MIZELL MEMORIAL HOSPITAL,702 N MAIN ST,OPP,36467,COVINGTON,3344933541
10016,SHELBY BAPTIST MEDICAL CENTER,1000 FIRST STREET NORTH,ALABASTER,35007,SHELBY,2056208100
10034,COMMUNITY HOSPITAL INC,885 FRIENDSHIP ROAD,TALLASSEE,36078,ELMORE,3342836541
10087,UNIV OF SOUTH ALABAMA MEDICAL CENTER,2451 FILLINGIM STREET,MOBILE,36617,MOBILE,2514717110
10043,CHILTON MEDICAL CENTER,1010 LAY DAM ROAD,CLANTON,35045,CHILTON,2057552500
10032,STRINGFELLOW MEMORIAL HOSPITAL,209 NORTH MAIN STREET,WEDOWEE,36278,RANDOLPH,2563572111
10016,SHELBY BAPTIST MEDICAL CENTER,1000 FIRST STREET NORTH,ALABASTER,35007,SHELBY,2056208100
20017,ALASKA REGIONAL HOSPITAL,2801 DEBARR ROAD,ANCHORAGE,99508,ANCHORAGE,9072761131
10025,G H LANIER MEMORIAL HOSPITAL,1720 UNIVERSITY BLVD,VALLEY,36854,CHAMBERS,3347561400
10050,ST VINCENTS BLOUNT,1108 ROSS CLARK CIRCLE,ONEONTA,35121,BLOUNT,2052743000
10046,RIVERVIEW REGIONAL MEDICAL CENTER,600 SOUTH THIRD STREET,GADSDEN,35901,ETOWAH,2565435200
10056,ST VINCENTS HOSPITAL,810 ST VINCENTS DRIVE,BIRMINGHAM,35205,CALHOUN,2059397000
10050,ST VINCENTS BLOUNT,150 GILBREATH DRIVE,ONEONTA,35121,BLOUNT,2052743000
10034,COMMUNITY HOSPITAL INC,805 FRIENDSHIP ROAD,TALLASSEE,36078,ELMORE,3342836541
20017,ALASKA REGIONAL HOSPITAL,2000 PEPPERELL PARKWAY,ANCHORAGE,99508,ANCHORAGE,9072761131
20017,ALASKA REGIONAL HOSPITAL,2801 DEBARR ROAD,ANCHORAGE,99508,ANCHORAGE,9072761131
10011,ST VINCENT'S EAST,50 MEDICAL PARK EAST DRIVE,BIRMINGHAM,35640,JEFFERSON,2058383122
10035,CULLMAN REGIONAL MEDICAL CENTER,1912 ALABAMA HIGHWAY 157,CULLMAN,35058,CULLMAN,2567372000
10038,STRINGFELLOW MEMORIAL HOSPITAL,4370 WEST MAIN STREET,ANNISTON,36201,CALHOUN,2562358900
10047,GEORGIANA HOSPITAL,515 MIRANDA ST,GEORGIANA,36033,BUTLER,3343762205
10029,EAST ALABAMA MEDICAL CENTER AND SNF,2000 PEPPERELL PARKWAY,OPELIKA,36801,LEE,3347493411
10036,ANDALUSIA REGIONAL HOSPITAL,849 SOUTH THREE NOTCH STREET,ANDRLUSIA,36420,COVINGTON,3342228466
10008,CRENSHAW COMMUNITY HOSPITAL,101 HOSPITAL CIRCLE,LUVERNE,36049,CRENSHAW,3343353374
10005,STRINGFELLOW MEMORIAL HOSPITAL,301 EAST 18TH ST,ANNISTON,36201,CALHOUN,2562358900
10045,FAYETTE MEDICAL CENTER,1653 TEMPLE AVENUE NORTH,MOBILE,35555,FAYETTE,2059325966
10029,EAST ALABAMA MEDICAL CENTER AND SNF,2000 PEPPERELL PARKWAY,OPELIKA,36801,LEE,3347493411
10012,DEKALB REGIONAL MEDICAL CENTER,200 MED CENTER DRIVE,FORT PAYNE,35235,DE KALB,2568453150
10008,CRENSHAW COMMUNITY HOSPITAL,101 HOSPITAL CIRCLE,LUVERNE,36049,CRENSHAW,3343353374
20017,ALASKA REGIONAL HOSPITAL,2801 DEBARR ROAD,ANCKORAGE,99508,ANCHORAGE,9072761131
10033,UNIVERSITY OF ALABAMA HOSPITAL,619 SOUTH 19TH STREET,BIRMINGHAM,35233,JEFFERSON,2059344011
0,EAST ALABAMA MEDICAL CENTER AND SNF,2000 PEPPERELL PARKWAY,OPELIKA,0,LEE,3347493411
10164,COOSA VALLEY MEDICAL CENTER,315 W HICKORY ST,SYLACAUGA,35150,TALLADEGA,2562495000
10086,NORTHWEST MEDICAL CENTER,1530 U S HIGHWAY 43,WINFIELD,35594,MARION,2562651000
10011,ST VINCENT'S EAST,50 MEDICAL PARK EAST DRIVE,BIRMINGHAM,35235,JEFFERSON,2058383122
10021,HELEN KELLER MEMORIAL HOSPITAL,1300 SOUTH MONTGOMERY AVENUE,SHEFFIELD,35660,JEFFERSON,2563864556
10009,HARTSELLE MEDICAL CENTER,201 PINE STREET NORTHWEST,HARTSELLE,35640,MORGAN,2567736511
10034,COMMUNITY HOSPITAL INC,805 FRIENDSHIP ROAD,TALLASSEE,36078,ELMORE,3342836541
10029,EAST ALABAMA MEDICAL CENTER AND SNF,2000 PEPPERELL PARKWAY,OPELIKA,36801,LEE,3347493411
10032,WEDOWEE HOSPITAL,209 NORTH MAIN STREET,WEDOWEI,36278,RANDOLPH,2563572111
10023,BAPTIST MEDICZL CENTER SOUTH,2105 EAST SOUTH BOULEVARD,MONTGOMERY,36116,MONTGOMERY,3342882100
10012,CHEROKEE MEDICAL CENTER,200 MED CENTER DRIVE,FORT PAYNE,35968,DE KALB,2568453150
10011,ST VINCENT'S EAST,50 MEDICAL PARK EAST DRIVE,CULLMAN,35235,JEFFERSON,2058383122
10055,FLOWERS HOSPITAL,4370 WEST MAIN STREET,DOTHAN,36305,HOUSTON,3347935000
10086,NORTHWEST MEDICAL CENTER,1530 U S HIGHWAY 43,WINFIELD,35594,JEFFERSON,2054877736
10009,HARTSELLE MEDICAL CENTER,201 PINE STREET NORTHWEST,HARTSELLE,35640,MORGAN,2567736511
10019,HELEN KELLER MEMORIAL HOSPITAL,1300 SOUTH MONTGOMERY AVENUE,SHEFFIELD,35660,JEFFERSON,2563864556
10032,WEDOWEE HOSPITAL,209 NORTH MAIN STREET,WEDOWEE,35968,RANDOLPH,2563572111
10035,CULLMAN REGIONAL MEDICAL CENTER,4370 WEST MAIN STREET,CULLMAN,35058,CULLMAN,2567372000
10021,DALE MEDICAL CENTER,126 HOSPITAL AVE,OZARK,36360,DALE,3347742601
10056,ST VINCENTS HOSPITAL,810 ST VINCENTS DRIVE,BIRMINGHAM,35205,LEE,2059397000
10036,MARION REGIONAL MEDICAL CENTER,1256 MILITARY STREET SOUTH,HAMILTON,35570,MARION,2059216200
10045,FAYETTE MEDICAL CENTER,1653 TEMPLE AVENUE NORTH,FAYETTE,35555,FAYETTE,2059325966
10018,CALLAHAN EYE FOUNDATION HOSPITAL,1720 UNIVERSITY BLVD,BIRMINGHAM,35233,JEFFERSON,2567688400
10005,MIZELL MEMORIAL HOSPITAL,2505 U S HIGHWAY 431 NORTH,BOAZ,35957,MARSHALL,2565938310
10036,ANDALUSIA REGIONAL HOSPITAL,849 SOUTH THREE NOTCH STREET,ANDALUSIA,36420,COVINGTON,3342228466
10001,SOUTHEAST ALABAMA MEDICAL CENTER,1108 ROSS CLARK CIRCLE,DOTHAN,36302,HOUSTON,3347938701
10001,SOUTHEAST ALABAMA MEDICAL CENTER,1108 ROSS CLARK CIRCLE,DOTHAN,99508,HOUSTON,3347938701
10040,GADSDEN REGIONAL MEDICAL CENTER,1007 GOODYEAR AVENUE,GADSDEN,35903,ETOWAH,2564944000
10019,HELEN KELLER MEMORIAL HOSPITAL,1300 SOUTH MONTGOMERY AVENUE,SHEFFIELD,35660,JEFFERSON,2563864556
10043,MARION REGIONAL MEDICAL CENTER,1010 LAY DAM ROAD,CLANTON,35045,CHILTON,2057552500
10035,CULLMAN REGIONAL MEDICAL CENTER,1912 ALABAMA HIGHWAY 157,FORT PAYNE,35058,CULLMAN,2567372000
10015,SOUTHWEST ALABAMA MEDICAL CENTER,33700 HIGHWAY 43,THOMASVILLE,36784,CLARKE,2565938310
10108,CALLAHAN EYE FOUNDATION HOSPITAL,1720 UNIVERSITY BLVD,BIRMINGHAM,35233,JEFFERSON,2053258100
10034,COMMUNITY HOSPITAL INC,515 MIRANDA ST,TALLASSEE,36078,ELMORE,3342836541
10015,SOUTHWEST ALABAMA MEDICAL CENTER,33700 HIGHWAY 43,THOMASVILLE,36784,MONTGOMERY,3346366221
10047,MEDICAL CENTER ENTERPRISE,400 N EDWARDS STREET,ENTERPRISE,36330,,3343470584
10005,MARSHALL MEDICAL CENTER SOUTH,2505 U S HIGHWAY 431 NORTH,BOAZ,35957,MARSHALL,2565938310
10019,HELEN KELLER MEMORIAL HOSPITAL,1300 SOUTH MONTGOMERY AVENUE,SHEFFIELD,35660,JEFFERSON,2563864556
10018,CALLAHAN EYE FOUNDATION HOSPITAL,1720 UNIVERSITY BLVD,BIRMINGHAM,35233,JEFFERSON,2053258100
10023,BAPTIST MEDICAL CENTER SOUTH,2105 EAST SOUTH BOULEVARD,MONTGOMERY,36116,MONTGOMERY,3342882100
10046,RIVERVIEW REGIONAL MEDICAL CENTER,600 SOUTH THIRD STREET,GADSDEN,35901,ETOWAH,2565435200
10025,G H LANIER MEMORIAL HOSPITAL,4800 48TH ST,VALLEY,36854,CHAMBERS,3347561400
10027,ELBA GENERAL HOSPITAL,987 DRAYTON STREET,ELBA,36323,COFFEE,3348972257
10040,NORTHWEST MEDICAL CENTER,1007 GOODYEAR AVENUE,GADSDEN,35903,ETOWAH,2564944000
10025,G H LANIER MEMORIAL HOSPITAL,4800 48TH ST,VALLEY,36854,CHAMBERS,3347561400
10047,GEORGIANA HOSPITAL,2105 EAST SOUTH BOULEVARD,GEORGIANA,36033,BUTLER,3343762205
10043,CHILTON MEDICAL CENTER,1010 LAY DAM ROAD,CLANTON,35045,CHILTON,2057552500
10043,CHILTON MEDICAL CENTER,1010 LAY DAM ROAD,CLANTON,35045,CHILTON,2057552500
10046,RIVERVIEW REGIONAL MEDICAL CENTER,600 SOUTH THIRD STREET,GADSDEN,35901,ETOWAH,2565435200
10086,NORTHWEST MEDICAL CENTER,1530 U S HIGHWAY 43,WINFIELD,35594,MARION,3343470584
10046,RIVERVIEW REGIONAL MEDICAL CENTER,600 SOUTH THIRD STREET,OPELIKA,35901,ETOWAH,2565435200
10033,UNIVERSITY OF ALABAMA HOSPITAL,619 SOUTH 19TH STREET,BIRMINGHAM,35233,JEFFERSON,2059344011
10005,ALASKA REGIONAL HOSPITAL,2801 DEBARR ROAD,ANCHORAGE,99508,ANCHORAGE,9072761131
10011,ST VINCENT'S EAST,50 MEDICAL PARK EAST DRIVE,BIRMINGHAM,35235,FAYETTE,2058383122
10035,CULLMAN REGIONAL MEDICAL CENTER,1912 ALABAMA HIGHWAY 157,CULLMAN,35058,CULLMAN,2567372000
10036,ANDALUSIA REGIONAL HOSPITAL,50 MEDICAL PARK EAST DRIVE,ANDALUSIA,36420,COVINGTON,3342228466
10046,RIVERVIEW REGIONAL MEDICAL CENTER,600 SOUTH THIRD STREET,GADSDEN,35901,ETOWAH,3346366221
10005,MARSHALL MEDICAL CENTER SOUTH,2505 U S HIGHWAY 431 NORTH,BOAZ,35957,MARSHALL,2565938310
10007,MIZELL MEMORIAL HOSPITAL,702 N MAIN ST,OPP,36467,COVINGTON,3344933541
10040,GADSDEN REGIONAL MEDICAL CENTER,1007 GOODYEAR AVENUE,GADSDEN,35903,ETOWAH,2564944000
10045,FAYETTE MEDICAL CENTER,1653 TEMPLE AVENUE NORTH,FAYETTE,35555,FAYETTE,2059325966
10164,COOSA VALLEY MEDICAL CENTER,315 W HICKORY ST,SYLACAUGA,35150,TALLADEGA,2562495000
10047,GEORGIANA HOSPITAL,515 MIRANDA ST,GEORGIANA,36033,BUTLER,3343762205
10001,SHELBY BAPTIST MEDICAL CENTER,1108 ROSS CLARK CIRCLE,DOTHAN,36302,HOUSTON,3347938701
10085,DECATUR GENERAL HOSPITAL,1201 7TH STREET SE,DECATUR,35609,MORGAN,2563412000
10044,MARION REGIONAL MEDICAL CENTER,1256 MILITARY STREET SOUTH,HAMILTON,35570,MARION,2059216200
10044,MARION REGIONAL MEDICAL CENTER,1256 MILITARY STREET SOUTH,HAMILTON,35570,MARION,2059216200
10036,ANDALUSIA REGIONAL HOSPITAL,849 SOUTH THREE NOTCH STREET,ANDALUSIA,36420,COVINGTON,3342228466
10033,UNIVERSITY OF ALABAMA HOSPITAL,619 SOUTH 19TH STREET,BIRMINGHAM,35233,JEFFERSON,2059344011
10027,ELBA GENERAL HOSPITAL,987 DRAYTON STREET,ELBA,36323,COFFEE,3348972257
10008,CRENSHAW COMMUNITY HOSPITAL,101 HOSPITAL CIRCLE,CLANTON,36049,CRENSHAW,3343353374
10022,CHEROKEE MEDICAL CENTER,400 NORTHWOOD DR,CENTRE,35960,CHEROKEE,2569275531
10022,CHEROKEE MEDICAL CENTER,400 NORTHWOOD DR,CENTRE,35570,CHEROKEE,2569275531
10038,STRINGFELLOW MEMORIAL HOSPITAL,301 EAST 18TH ST,ANNISTON,36201,CALHOUN,2562358900
10049,DALE MEDICAL CENTER,400 N EDWARDS STREET,ENTERPRISE,36330,COFFEE,3343470584
10018,CALLAHAN EYE FOUNDATION HOSPITAL,1720 UNIVERSITY BLVD,BIRMINGHAM,35233,JEFFERSON,2053258100
10164,COOSA VALLEY MEDICAL CENTER,315 W HICKORY ST,SYLACAUGA,35150,TALLADEGA,2562495000
10012,DEKALB REGIONAL MEDICAL CENTER,200 MED CENTER DRIVE,FORT PAYNE,35968,DE KALB,2568453150
10021,DALE MEDICAL CENTER,126 HOSPITAL AVE,OZARK,36360,DALC,3347742601
10025,N H LANIER MEMORIAL HOSPITAL,4800 48TH ST,VALLEY,36854,CHAMBERS,3347561400
10035,CULLMAN REGIONAL MEDICAL CENTER,1912 ALABAMA HIGHWAY 157,CULLMAN,35058,CULLMAN,2567372000
10005,MARSHALL MEDICAL CENTER SOUTH,2451 FILLINGIM STREET,BOAZ,35957,MARSHALL,2565938310
10046,RIVERVIEW REGIONAL MEDICAL CENTER,600 SOUTH THIRD STREET,GADSDEN,35957,ETOWAH,2565435200
10022,CHEROKEE MEDICAL CENTER,849 SOUTH THREE NOTCH STREET,CENTRE,35960,CHEROKEE,2569275531
10108,PRATTVILLE BAPTIST HOSPITAL,124 S MEMORIAL DR,PRATTVILLE,36033,AUTAUGA,3343614267
10021,DALE MEDICAL CENTER,2000 PEPPERELL PARKWAY,OZARK,36360,DALE,3347742601
10009,HARTSELLE MEDICAL CENTER,201 PINE STREET NORTHWEST,HARTSELLE,35640,MORGAN,2567736511
10001,SOUTHEAST ALABAMA MEDICAL CENTER,1108 ROSS CLARK CIRCLE,DOTHAN,36302,HOUSTON,2562495000
10022,CHEROKEE MEDICAL CENTER,400 NORTHWOOD DR,CENTRE,35960,CHEROKEE,2569275531
10035,CULLMAN REGIONAL MEDICAL CENTER,1912 ALABAMA HIGHWAY 157,CULLMAN,35058,CULLMAN,2567372000
10044,MARION REGIONAL MEDICAL CENTER,1256 MILITARY STREET SOUTH,HAMILTON,35570,MARION,2059216200
10001,SOUTHEAST ALABAMA MEDICAL CENTER,1108 ROSS CLARK CIRCLE,DOTHAN,36302,HOUSTON,3347938701
10008,CRENSHAW COMMUNITY HOSPITAL,101 HOSPITAL CIRCLE,LUVERNE,36049,CRENSHAW,3343353374
10018,CALLAHAN EYE FOUNDATION HOSPITAL,1720 UNIVERSITY BLVD,BIRMINGHAM,36078,JEFFERSON,2053258100
10049,MEDICAL CENTER ENTERPRISE,400 N EDWARDS STREET,ENTERPRISE,36330,COFFEE,3343470584
10035,G H LANIER MEMORIAL HOSPITAL,1912 ALABAMA HIGHWAY 157,CULLMAN,35058,CULLMAN,2567372000
10040,GADSDEN REGIONAL MEDICAL CENTER,1007 GOODYEAR AVENUE,GADSDEN,35903,ETOWAH,2564944000
10018,CALLAHAN EYE FOUNDATION HOSPITAL,1720 UNIVERSITY BLVD,BIRMINGHAM,35233,JEFFERSON,2053258100
10039,HUNTSVILLE HOSPITAL,101 SIVLEY RD,HUNTSVILLE,35801,MADISON,2562651000
10040,GADSDEN REGIONAL MEDICAL CENTER,1007 GOODYEAR AVENUE,GADSDEN,35903,ETOWAH,2564944000
10045,FAYETTE MEDICAL CENTER,1653 TEMPLE AVENUE NORTH,FAYETTE,35555,FAYETTE,2059325966
10022,CHEROKEE MEDICAL CENTER,400 NORTHWOOD DR,CENTRE,35960,CHEROKEE,2054877736
10006,ELIZA COFFEE MEMORIAL HOSPITAL,205 MARENGO STREET,FLORENCE,35631,LAUDERDALE,3347561400
10047,GEORGIANA HOSPITAL,515 MIRANDA ST,GEORGIANA,36033,ZUTLER,3343762205
10012,DEKALB REGIONAL MEDICAL CENTER,200 MED CENTER DRIVE,FORT PAYNE,35968,DE KALB,2568453150
20017,ALASKA REGIONAL HOSPITAL,2801 DEBARR ROAD,ANCHORAGE,99508,MARION,9072761131
10050,ST VINCENTS BLOUNT,150 GILBREATH DRIVE,ONEONTA,35121,BLOUNT,2052743000
10027,ELBA GENERAL HOSPITAL,987 DRAYTON STREET,GADSDEN,36323,COFFEE,3348972257
10050,ST VINCENTS BLOUNT,150 GILBREATH DRIVE,ONEONTA,35121,BLOUNT,2052743000
10035,CULLMAN REGIONAL MEDICAL CENTER,1912 ALABAMA HIGHWAY 157,CULLMAN,35058,MORGAN,2567372000
10021,DALE MEDICAL CENTER,126 HOSPITAL AVE,OZARK,36360,DALE,3347742601
10034,COMMUNITY HOSPITAL INC,805 FRIENDSHIP ROAD,TALLASSEE,36078,ELMORE,3342836541
10046,UNIVERSITY OF ALABAMA HOSPITAL,600 SOUTH THIRD STREET,GADSDEN,35901,ETOWAH,2565435200
10005,MARSHALL MEDICAL CENTER SOUTH,2505 U S HIGHWAY 431 NORTH,BOAZ,35957,MARSHALL,2565938310
10016,SHELBY BAPTIST MEDICAL CENTER,1000 FIRSU STREET NORTH,ALABASTER,35007,SHELBY,2056208100
10007,MIZELL MEMORIAL HOSPITAL,702 N MAIN ST,OPP,36467,COVINGTON,3344933541
10044,MARION REGIONAL MEDICAL CENTER,1256 MILITARY STREET SOUTH,HAMILTON,35570,MARION,2059216200
10086,NORTHWEST MEDICAL CENTER,1530 U S HIGHWAY 43,WINFIELD,35594,MARION,2054877736
10024,JACKSON HOSPITAL & CLINIC INC,1725 PINE STREET,MONTGOMERY,36106,MONTGOMERY,3342938000
10001,SOUTHEAST ALABAMA MEDICAL CENTER,1108 ROSS CLARK CIRCLE,DOTHAN,36302,HOUSTON,3347938701
10036,ANDALUSIA REGIONAL HOSPITAL,1010 LAY DAM ROAD,ANDALUSIA,36420,COVINGTON,3342228466
10164,COOSA VALLEY MEDICAL CENTER,315 W HICKORY ST,SYLACAUGA,36323,TALLADEGA,2562495000
10001,HARTSELLE MEDICAL CENTER,,HARTSELLE,35640,,2567736511
10015,SOUTHWEST ALABAMA MEDICAL CENTER,33700 HIGHWAY 43,THOMASVILLE,36784,CLARKE,3346366221
10027,ELBA GENERAL HOSPITAL,987 DRAYTON STREET,ELBA,36323,COFFEE,2567736511
10164,COOSA VALLEY MEDICAL CENTER,315 W HICKORY ST,SYLACAUGA,35150,MARION,2562495000
10005,MARSHALL MEDICAL CENTER SOUTH,2505 U S HIGHWAY 431 NORTH,BOAZ,35957,MARSHALL,2565938310
10046,RIVERVIEW REGIONAL MEDICAL CENTER,600 SOUTH THIRD STREET,DOTHAN,35901,ETOWAH,2565435200
10050,ST VINCENTS BLOUNT,150 GILBREATH DRIVE,ONEONTA,35121,BUTLER,2052743000
10011,ST VINCENT'S EAST,50 MEDICAL PARK EAST DRIVE,BIRMINGHAM,35235,JEFFERSON,2565435200
10049,MEDICAL CENTER ENTERPRISE,400 N EDWARDS STREET,ENTERPRISE,36330,COFFEE,3343470584
10005,MARSHALL MEDICAL CENTER SOUTH,2505 U S HIGHWAY 431 NORTH,BOAZ,35957,MARSHALL,2565938310
10006,ELIZA COFFEE MEMORIAL HOSPITAL,205 MARENGO STREET,FLORENCE,35631,LAUDERDALE,2567688400
10010,MARSHALL MEDICAL CENTER NORTH,8000 ALABAMA HIGHWAY 69,GUNTERSVILLE,35976,MARSHALL,2565718000
10001,SOUTHEAST ALABAMA MEDICAL CENTER,1108 ROSS CLARK CIRCLE,DOTHAN,36302,HOUSTON,3347938701
10009,HARTSELLE MEDICAL CENTER,201 PINE STREET NORTHWEST,HARTSELLE,35640,MORGAN,2567736511
10046,RIVERVIEW REGIONAL MEDICAL CENTER,600 SOUTH THIRD STREET,GADSDEN,35901,ETOWAH,2565435200
10029,EAST ALABAMA MEDICAL CENTER AND SNF,2000 PEPPERELL PARKWAY,OPELIKA,36801,LEE,3347493411
10086,NORTHWEST MEDICAL CENTER,1530 U S HIGHWAY 43,WINFIELD,35594,MARION,2054877736
10022,CHEROKEE MEDICAL CENTER,400 NORTHWOOD DR,CENTRE,35960,CHEROKEE,2569275531
10039,HUNTSVILLE HOSPITAL,101 SIVLEY RD,HUNTSVILLE,35801,MADISON,2058383122
10035,CULLMAN REGIONAL MEDICAL CENTER,1912 ALABAMA HIGHWAY 157,CULLMAN,35058,CULLMAN,2567372000
10022,CRENSHAW COMMUNITY HOSPITAL,400 NORTHWOOD DR,CENTRE,35960,CHEROKEE,2569275531
10033,UNIVERSITY OF ALABAMA HOSPITAL,619 SOUTH 19TH STREET,BIRMINGHAM,35233,JEFFERSON,2059344011
10049,MIZELL MEMORIAL HOSPITAL,400 N EDWARDS STREET,ENTERPRISE,36330,COFFEE,3343470584
20017,ALASKA REGIONAL HZSPITAL,2801 DEBARR ROAD,ANCHORAGE,99508,ANCHORAGE,9072761131
10040,GADSDEN REGIONAL MEDICAL CENTER,1007 GOODYEAR AVENUE,GADSDEN,35903,ETOWAH,2564944000
10036,ANDALUSIA REGIONAL HOSPITAL,849 SOUTH THREE NOTCH STREET,ANDALUSIA,36420,COVINGTON,3342228466
10016,SHELZY BAPTIST MEDICAL CENTER,1000 FIRST STREET NORTH,ALABASTER,35007,SHELBY,2056208100
10025,G H LANIER MEMORIAL HOSPITAL,4800 48TH ST,VALLEY,36854,CHAMBERS,3347561400
10025,G H LANIER MEMORIAL HOSPITAL,4800 48TH ST,VALLEY,36854,CHAMBERS,3347561400
10033,UNIVERSITY OF ALABAMA HOSPITAL,619 SOUTH 19TH STREET,BIRMINGHAM,35233,JEFFERSON,2059344011
10022,CHEROKEE MEDICAL CENTER,400 NORTHWOOD DR,CENTRE,35960,CHEROKEE,2569275531
10087,UNIV OF SOUTH ALABAMA MEDICAL CENTER,2451 FILLINGIM STREET,MOBILE,36617,MOBILE,2514717110
10007,MARSHALL MEDICAL CENTER SOUTH,702 N MAIN ST,OPP,36467,COVINGTON,3344933541
10036,ANDALUSIA REGIONAL HOSPITAL,849 SOUTH THREE NOTCH STREET,ANDALUSIA,36420,COVINGTON,3342228466
10021,DALE MEDICAL CENTER,126 HOSPITAL AVE,OZARK,36360,DALE,3347742601
20017,ALASKA REGIONAL HOSPITAL,2801 DEBARR ROAD,ANCHORAGE,99508,ANCHORAGE,9072761131
10006,ELIZA COFFEE MEMORIAL HOSPITAL,8000 ALABAMA HIGHWAY 69,FLORENCE,35631,LAUDERDALE,2567688400
10034,COMMUNITY HOSPITAL INC,805 FRIENDSHIP ROAD,TALLASSEE,36078,SHELBY,3342836541
10023,BAPTIST MEDICAL CENTER SOUTH,2105 EAST SOUTH BOULEVARD,MONTGOMERY,36116,MONTGOMERY,3342882100
10038,JACKSON HOSPITAL & CLINIC INC,301 EAST 18TH ST,ANNISTON,36201,CALHOUN,2562358900
10012,DEKALB REGIONAL MEDICAL CENTER,200 MED CENTER DRIVE,FORT PAYNE,35968,DE KALB,2568453150
10049,MEDICAL CENTER ENTERPRISE,400 N EDWARDS STREET,ENTERPRISE,36330,COFFEE,3343470584
10040,GADSDEN REGIONAL MEDICAL CENTER,1007 GOODYEAR AVENUE,GADSDEN,35903,ETOWAH,2564944000
20018,YUKON KUSKOKWIM DELTA REG HOSPITAL,PO BOX 287,BETHEL,99559,BETHEL,2059344011
10035,CULLMAN REGIONAL MEDICAL CENTER,1912 ALABAMA HIGHWAY 157,CULLMAN,35058,CULLMAN,2567372000
10043,CHILTON MEDICAL CENTER,1010 LAY DAM ROAD,CLANTON,35045,CHILTON,2057552500
10049,MEDICAL CENTER ENTERPRISE,400 N EDWARDS STREET,ENTERPRISE,36330,COFFEE,3343470584
20017,ALASKA REGIONAL HOSPITAL,2801 DEBARR ROAD,GEORGIANA,99508,ANCHORAGE,9072761131
10009,HARTSELLE MEDICAL CENTER,201 PINE STREET NORTHWEST,HARTSELLE,35640,MORGAN,2567736511
10039,HUNTSVILLE HOSPITAL,101 SIVLEY RD,HUNTSVILLE,35801,MADISON,2562651000
10043,CHILTON MEDICAL CENTER,1010 LAY DAM ROAD,CLANTON,35045,CHILTON,3343353374
10010,MARSHALL MEDICAL CENTER NORTH,8000 ALABAMA HIGHWAY 69,GUNTERSVILLE,35976,MARSHALL,2565718000
10032,WEDOWEE HOSPITAL,987 DRAYTON STREET,WEDOWEE,36278,RANDOLPH,2563572111
10016,BAPTIST MEDICAL CENTER SOUTH,1000 FIRST STREET NORTH,ALABASTER,35007,SHELBY,2056208100
10033,UNIVERSITY OF ALABAMA HOSPITAL,619 SOUTH 19TH STREET,BIRMINGHAM,35233,JEFFERSON,2059344011
10049,MEDICAL CENTER ENTERPRISE,400 N EDWARDS STREET,ENTERPRISE,36330,COFFEE,3343470584
10006,ELIZA COFFEE MEMORIAL HOSPITAL,205 MARENGO STREET,FLORENCE,35631,LAUDERDALE,2567688400
10044,MARION REGIONAL MEDICAL CENTER,1256 MILITARY STREET SOUTH,HAMILTON,35570,CALHOUN,2059216200
10019,BAPTIST MEDICAL CENTER SOUTH,1300 SOUTH MONTGOMERY AVENUE,SHEFFIELD,35660,JEFFERSON,2563864556
10012,DEKALB REGIONAL MEDICAL CENTER,200 MED CENTER DRIVE,FORT PAYNE,35968,DE KALB,2568453150
10022,CHEROKEE MEDICAL CENTER,400 NORTHWOOD DR,CENTRE,35555,CHEROKEE,2569275531
10025,FLOWERS HOSPITAL,4800 48TH ST,VALLEY,36854,CHAMBERS,3347561400
10019,HELEN KELLER MEMORIAL HOSPITAL,1300 SOUTH MONTGOMERY AVENUE,SHEFFIELD,35660,JEFFERSON,2563864556
10011,GADSDEN REGIONAL MEDICAL CENTER,1007 GOODYEAR AVENUE,GADSDEN,35903,ETOWAH,2564944000
10006,ELIZA COFFEE MEMORIAL HOSPITAL,205 MARENGO STREET,FLORENCE,35631,LAUDERDALE,2567688400
10008,HUNTSVILLE HOSPITAL,,HUNTSVILLE,35801,MADISON,2562651000
10015,SOUTHWEST ALABAMA MEDICAL CENTER,33700 HIGHWAY 43,THOMASVILLE,36784,CLARKE,3346366221
10011,ST VINCENT'S EAST,50 MEDICAL PARK EAST DRIVE,BIRMINGHAM,35235,JEFFERSON,2058383122
10046,RIVERVIEW REGIONAL MEDICAL CENTER,600 SOUTH THIRD STREET,GADSDEN,35901,ETOWAH,2565435200
10022,CHEROKEE MEDICAL CENTER,810 ST VINCENTS DRIVE,CENTRE,35960,CHEROKEE,2569275531
10040,GADSDEN REGIONAL MEDICAL CENTER,1007 GOODYEAR AVENUE,GADSDEN,35903,ETOWAH,2564944000
10023,BAPTIST MEDICAL CENTER SOUTH,987 DRAYTON STREET,MONTGOMERY,36116,MONTGOMERY,3342882100
10047,GEORGIANA HOSPITAL,515 MIRANDA ST,GEORGIANA,36106,BUTLER,3343762205
10007,MIZELL MEMORIAL HOSPITAL,702 N MAIN ST,OPP,36467,COVINGTON,3344933541
10049,MEDICAL CENTER ENTERPRISE,400 N EDWARDS STREET,ENTERPRISE,36330,COFFEE,3343470584
10005,MARSHALL MEDICAL CENTER SOUTK,2505 U S HIGHWAY 431 NORTH,BOAZ,35957,MARSHALL,2565938310
10008,CRENSHAW COMMUNITY HOSPITAL,101 HOSPITAL CIRCLE,LUVERNE,36049,CRENSHAW,3343353374
10045,FAYETTE MEDICAL CONTER,1653 TEMPLE AVENUE NORTH,FAYETTE,35555,FAYETTE,2059325966
10043,CHILTON MEDICAL CENTER,1010 LAY DAM ROAD,CLANTON,35045,CHILTON,2057552500
10034,COMMUNITY HOSPITAL INC,805 FRIENDSHIP ROAD,TALLASSEE,36467,ELMORE,3342836541
10029,EAST ALABAMA MEDICAL CENTER AND SNF,2000 PEPPERELL PARKWAY,OPELIKA,36801,LEE,3347493411
10001,SOUTHEAST ALABAMA MEDICAL CENTER,1108 ROSS CLARK CIRCLE,DOTHAN,36302,HOUSTON,3347938701
10010,COMMUNITY HOSPITAL INC,805 FRIENDSHIP ROAD,TALLASSEE,36078,ELMORE,3342836541
10010,ST VINCENT'S EAST,50 MEDICAL PARK EAST DRIVE,BIRMINGHAM,35235,JEFFERSON,2058383122
10034,COMMUNITY HOSPITAL INC,805 FRIENDSHIP ROAD,TALLASSEE,36078,ELMORE,3342836541
10045,FAYETTE MEDICAL CENTER,1653 TEMPLE AVENUE NORTH,FAYETTE,35555,FAYETTE,2059325966
10055,FLOWERS HOSPITAL,4370 WEST MAIN STREET,DOTHAN,36305,HOUSTON,3347935000
10040,GADSDEN REGIONAL MEDICAL CENTER,1007 GOODYEAR AVENUE,GADSDEN,35903,ETOWAH,2564944000
10007,SOUTHWEST ALABAMA MEDICAL CENTER,702 N MAIN ST,OPP,36467,COVINGTON,3344933541
10027,ELBA GENERAL HOSPITAL,987 DRAYTON STREET,ELBA,36323,MORGAN,3348972257
10034,COMMUNITY HOSPITAL INC,805 FRIENDSHIP ROAD,TALLASSEE,36078,ELMORE,3342836541
10035,HELEN KELLER MEMORIAL HOSPITAL,1912 ALABAMA HIGHWAY 157,CULLMAN,35058,CULLMAN,2567372000
10164,COOSA VALLEY MEDICAL CENTER,315 W HICKORY ST,SYLACAUGA,35150,TALLADEGA,2562495000
10024,JACKSON HOSPITAL & CLINIC INC,1725 PINE STREET,MONTGOMERY,36106,MONTGOMERY,3342938000
10043,CHILTON MEDICAL CENTER,1010 LAY DAM ROAD,CLANTON,35045,CHILTON,2057552500
10043,CHILTON MEDICAL CENTER,1010 LAY DAM ROAD,CLANTON,35045,CHILTON,2057552500
10011,MEDICAL CENTER ENTERPRISE,,,36330,COFFEE,3343470584
10055,FLOWERS HOSPITAL,4370 WEST MAIN STREET,DOTHAN,36305,HOUSTON,3347935000
10046,RIVERVIEW REGIONAL MEDICAL CENTER,600 SOUTH THIRD STREET,GADSDEN,35901,ETOWAH,2565435200
10033,UNIVERSITY OF ALABAMA HOSPITAL,619 SOUTH 19TH STREET,BIRMINGHAM,35233,JEFFERSON,2059344011
10045,FAYETTE MEDICAL CENTER,1653 TEMPLE AVENUE NORTH,FAYETTE,35555,FAYETTE,2059325966
10046,RIVERVIEW REGIONAL MEDICAL CENTER,600 SOUTH THIRD STREET,GADSDEN,35901,ETOWAH,2565435200
10035,CULLMAN REGIONAL MEDICAL CENTER,1912 ALABAMA HIGHWAY 157,CULLMAN,35058,CULLMAN,2567372000
10043,CHILTON MEDICAL CENTER,1010 LAY DAM ROAD,CLANTON,35045,CHILTON,2057552500
10021,DALE MEDICAL CENTER,126 HOSPITAL AVE,OZARK,36360,DALE,3347742601
0,G H LANIER MEMORIAL HOSPITAL,4800 48TH ST,VALLEY,36854,,3347561400
10039,HUNTSVILLE HOSPITAL,101 SIVLEY RD,HUNTSVILLE,35801,JEFFERSON,2562651000
10001,SOUTHEAST ALABAMA MEDICAL CENTER,1108 ROSS CLARK CIRCLE,DOTHAN,35976,HOUSTON,3347938701
10087,UNIV OF SOUTH ALABAMA MEDICAL CENTER,2451 FILLINGIM STREET,MOBILE,36617,MOBILE,2514717110
10036,ANDALUSIA REGIONAL HOSPITAL,849 SOUTH THREE NOTCH STREET,SHEFFIELD,36420,COVINGTON,3342228466
10108,PRATTVILLE BAPTIST HOSPITAL,124 S MEMORIAL DR,PRATTVILLE,36067,AUTAUGA,3343614267
10032,WEDOWEE HOSPITAL,209 NORTH MAIN STREET,WDDOWEE,36278,RANDOLPH,2563572111
10001,ALASKA REGIONAL HOSPITAL,2801 DEBARR ROAD,ANCHORAGE,99508,ANCHORAGE,9072761131
10022,CHEROKEE MEDICAL CENTER,400 NORTHWOOD DR,CENTRE,35960,CHEROKEE,2569275531
10012,DEKALB REGIONAL MEDICAL CENTER,200 MED CENTER DRIVE,FORT PAYNE,36420,DE KALB,2568453150
10016,SHELBY BAPTIST MEDICAL CENTER,1000 FIRST STREET NORTH,FLORENCE,35007,SHELBY,2056208100
10045,FAYETTE MEDICAL CENTER,1653 TEMPLE AVENUE NORTH,FAYETTE,35555,ETOWAH,2059325966
10108,PRATTVILLE BAPTIST HOSPITAL,124 S MEMORIAL DR,BIRMINGHAM,36067,AUTAUGA,3343614267
10032,WEDOWEE HOSPITAL,209 NORTH MAIN STREET,WEDOWEE,36278,RANDOLPH,2563572111
10043,CHILTON MEDICAL CENTER,1010 LAY DAM ROAD,CLANTON,35045,CHILTON,2057552500
10025,G H LANIER MEMORIAL HOSPITAL,4800 48TH ST,VALLEY,36854,CHAMBERS,3347561400
10016,SHELBY BAPTIST MEDICAL CENTER,205 MARENGO STREET,ALABASTER,35007,SHELBY,2056208100
10011,ST VINCENT'S EAST,50 MEDICAL PARK EAST DRIVE,BIRMINGHAM,36067,JEFFERSON,2058383122
10023,BAPTIST MEDICAL CENTER SOUTH,101 HOSPITAL CIRCLE,MONTGOMERY,36116,MONTGOMERY,3342882100
10045,FAYETTE MEDICAL CENTER,1653 TEMPLE AVENUE NORTH,FWYETTE,35555,FAYETTE,2059325966
10008,CRENSHAW COMMUNITY HOSPITAL,101 HOSPITAL CIRCLE,LUVERNE,36049,CRENSHAW,3343353374
10007,MIZELL MEMORIAL HOSPITAL,702 N MAIN ST,OPP,36467,COVINGTON,3344933541
10036,ANDALUSIA REGIONAL HOSPITAL,849 SOUTH THREE NOTCH STREET,ANDALUSIA,36801,COVINGTON,3342228466
10040,GADSDEN REGIONAL MEDICAL CENTER,1007 GOODYEAR AVENUE,GADSDEN,35640,ETOWAH,2564944000
10001,SOUTHEAST ALABAMA MEDICAL CENTER,1530 U S HIGHWAY 43,DOTHAN,36302,HOUSTON,3347938701
10046,RIVERVIEW REGIONAL MEDICAL CENTER,600 SOUTH THIRD STREET,GADSDEN,35901,ETOWAH,2565435200
10005,MARSHALL MEDICAL CENTER SOUTH,2505 U S HIGHWAY 431 NORTH,BOAZ,35957,MARSHALL,2565938310
10018,CALLAHAN EYE FOUNDATION HOSPITAL,1720 UNIVERSITY BLVD,BIRMINGHAM,35233,JEFFERSON,2053258100
10023,BAPTIST MEDICAL CENTER SOUTH,2105 EAST SOUTH BOULEVARD,MONTGOMERY,36116,MONTGOMERY,3342882100
10164,COOSA VALLEY MEDICAL CENTER,315 W HICKORY ST,ANNISTON,35150,TALLADEGA,2562495000
0,FAYETTE MEDICAL CENTER,1653 TEMPLE AVENUE NORTH,FAYETTE,0,FAYETTE,2059325966
10034,COMMUNITY HOSPITAL INC,805 FRIENDSHIP ROAD,TALLASSEE,35570,ELMORE,3342836541
10040,GADSDEN REGIONAL MEDICAL CENTER,1007 GOODYEAR AVENUE,GADSDEN,35903,ETOWAH,2564944000
10047,GEORGIANA HOSPITAL,515 MIRANDA ST,GEORGIANA,36033,BUTLER,3343762205
10007,UNIVERSITY OF ALABAMA HOSPITAL,702 N MAIN ST,OPP,36467,COVINGTON,3344933541
10045,FAYETTE MEDICAL CENTER,1653 TEMPLE AVENUE NORTH,FAYETTE,35555,FAYETTE,2059325966
10038,STRINGFELLOW MEMORIAL HOSPITAL,301 EAST 18TH ST,ANNISTON,36201,CALHOUN,2562358900
10049,MEDICAL CENTER ENTERPRISE,400 N EDWARDS STREET,ENTERPRISE,36330,BLOUNT,3343470584
10044,MARION REGIONAL MEDICAL CENTER,1256 MILITARY STREET SOUTH,HAMILTON,35570,MARION,2059216200
10108,PRATTVILLE BAPTIST HOSPITAL,124 S MEMORIAL DR,PRATTVILLE,36067,AUTAUGA,3343614267
10008,CRENSHAW COMMUNITY HOSPITAL,101 HOSPITAL CIRCLE,LUVERNE,36049,CRENSHAW,3343353374
10012,DEKALB REGIONAL MEDICAL CENTER,200 MED CENTER DRIVE,FORT PAYNE,35968,DE KALB,2568453150
10023,,101 SIVLEY RD,HUNTSVILLE,35801,MADISON,2562651000
10015,SOUTHWEST ALABAMA MEDICAL CENTER,33700 HIGHWAY 43,THOMASVILLE,36784,CLARKE,3346366221
10005,MARSHALL MEDICAL CENTER SOUTH,2505 U S HIGHWAY 431 NORTH,BOAZ,35957,MARSHALL,2565938310
10034,COMMUNITY HOSPITAL INC,805 FRIENDSHIP ROAD,TALLASSEE,36078,ELMORE,3342836541
10005,MARSHALL MEDICAL CENTER SOUTH,2505 U S HIGHWAY 431 NORTH,BOAZ,35957,MARSHALL,2565938310
20017,ALASKA REGIONAL HOSPITAL,2801 DEBARR ROAD,ANCHORAGE,99508,ANCHORAGE,9072761131
10049,MEDICAL CENTER ENTERPRISE,400 N EDWARDS STREET,ENTERPRISE,36330,COFFEE,3343470584
10008,CRENSHAW COMMUNITY HOSPITAL,101 HOSPITAL CIRCLE,LUVERNE,36049,CRENSHAW,2054877736
10029,EAST ALABAMA MEDICAL CENTER AND SNF,2000 PEPPERELL PARKWAY,OPELIKA,36801,LEE,3342938000
10038,STRINGFELLOW MEMORIAL HOSPITAL,301 EAST 18TH ST,ANNISTON,36201,CALHOUN,2562358900
10038,STRINGFELLOW MEMORIAL HOSPITAL,4370 WEST MAIN STREET,ANNISTON,36201,CALHOUN,2562358900
10036,ANDALUSIA REGIONAL HOSPITAL,619 SOUTH 19TH STREET,ANDALUSIA,36420,COVINGTON,3342228466
10108,PRATTVILLE BAPTIST HOSPITAL,124 S MEMORIAL DR,PRATTVILLE,36067,AUTAUGA,3343614267
10164,COOSA VALLEY MEDICAL CENTER,315 W HICKORY ST,SYLACAUGA,35150,TALLADEGA,2562495000
10023,BAPTIST MEDICAL CENTER SOUTH,2105 EAST SOUTH BOULEVARD,MONTGOMERY,36116,MONTGOMERY,3342882100
10019,HELEN KELLER MEMORIAL HOSPITAL,1300 SOUTH MONTGOMERY AVENUE,ELBA,35660,JEFFERSON,2563864556
20017,G H LANIER MEMORIAL HOSPITAL,4800 48TH ST,VALLEY,36854,CHAMBERS,3347561400
10043,CHILTON MEDICAL CENTER,1010 LAY DAM ROAD,CLANTON,35045,CHILTON,2057552500
10164,COOSA VALLEY MEDICAL CENTER,315 W HICKORY ST,SYLACAUGA,35150,TALLADEGA,2562495000
10009,HARTSELLE MEDICAL CENTER,201 PINE STREET NORTHWEST,HARTSELLE,35640,MORGAN,2567736511
10038,STRINGFELLOW MEMORIAL HOSPITAL,8000 ALABAMA HIGHWAY 69,ANNISTON,36201,CALHOUN,2562358900
10025,G H LANIER MEMORIAL HOSPITAL,4800 48TH ST,VALLEY,36854,CHAMBERS,3347561400
10049,MEDICAL CENTER ENTERPRISE,400 N EDWARDS STREET,ENTERPRISE,36330,COFFEE,3343470584
10005,MARSHALL MEDICAL CENTER SOUTH,2505 U S HIGHWAY 431 NORTH,BOAZ,35957,MARSHALL,3347561400
10005,HARTSELLE MEDICAL CENTER,2505 U S HIGHWAY 431 NORTH,BOAZ,35957,MARSHALL,2565938310
10023,BAPTIST MEDICAL CENTER SOUTH,2105 EAST SOUTH BOULEVARD,MONTGOMERY,36116,MOBILE,3342882100
10011,ST VINCENT'S EAST,50 MEDICAL PARK EAST DRIVE,BIRMINGHAM,35235,JEFFERSON,2058383122
10008,CRENSHAW COMMUNITY HOSPITAL,101 HOSPITAL CIRCLE,LUVERNE,36049,CRENSHAW,3343353374
10023,BAPTIST MEDICAL CENTER SOUTH,2105 EAST SOUTH BOULEVARD,MONTGOMERY,36116,MONTGOMERY,3342882100
10005,MARSHALL MEDICAL CENTER SOUTH,2505 U S HIGHWAY 431 NORTH,BOAZ,35957,MARSHALL,2565938310
10008,CRENSHAW COMMUNITY HOSPITAL,101 HOSPITAL CIRCLE,LUVERNE,36049,CRENSHAW,3343353374
10043,CHILTON MEDICAL CENTER,1010 LAY DAM ROAD,CLANTON,35045,CHILTON,2057552500
10046,RIVERVIEW REGIONAL MEDICAL CENTER,600 SOUTH THIRD STREET,GADSDEN,35901,ETOWAH,2565435200
10045,FAYETTE MEDICAL CENTER,1653 TEMPLE AVENUE NORTH,FAYETTE,35555,FAYETTE,2059325966
10022,CHEROKEE MEDICAL CENTER,101 SIVLEY RD,CENTRE,35960,CHEROKEE,2569275531
10032,WEDOWEE HOSPITAL,209 NORTH MAIN STREET,WEDOWEE,36278,RANDOLPH,2563572111
20017,ALASKA REGIONAL HOSPITAL,2801 DEBARR ROAD,ANCHORAGE,99508,ANCHORAGE,9072761131
10019,HELEN KELLER MEMORIAL HOSPITAL,1300 SOUTH MONTGOMERY AVENUE,SHEFFIELD,35660,JEFFERSON,2563864556
10015,SOUTHWEST ALABAMA MEDICAL CENTER,33700 HIGHWAY 43,THOMASVILLE,36784,CLARKE,3346366221
10025,G H LANIER MEMORIAL HOSPITAL,101 HOSPITAL CIRCLE,VALLEY,36854,CHAMBERS,3347561400
10049,MEDICAL CENTER ENTERPRISE,400 N EDWARDS STREET,ENTERPRISE,36330,COFFEE,3343470584
10021,DALE MEDICAL CENTER,126 HOSPITAL AVE,OZARK,36360,DALE,3347742601
10108,PRATTVILLE BAPTIST HOSPITAL,124 S MEMORIAL DR,PRATTVILLE,36067,AUTAUGA,3343614267
10011,MEDICAL CENTER ENTERPRISE,50 MEDICAL PARK EAST DRIVE,BIRMINGHAM,35235,JEFFERSON,2058383122
10035,CULLMAN REGIONAL MEDICAL CENTER,1912 ALABAMA HIGHWAY 157,CULLMAN,35058,CULLMAN,2567372000
10001,SOUTHEAST ALABAMA MEDICAL CENTER,1108 ROSS CLARK CIRCLE,DOTHAN,36302,HOUSTON,3347938701
10043,CHILTON MEDICAL CENTER,1010 LAY DAM ROAD,CLANTON,35045,CHILTON,2057552500
10023,ST VINCENTS BLOUNT,150 GILBREATH DRIVE,ONEONTA,35121,BLOUNT,2052743000
10025,G H LANIER MEMORIAL HOSPITAL,4800 48TH ST,VALLEY,36854,CHAMBERS,3347561400
10049,UNIV OF SOUTH ALABAMA MEDICAL CENTER,2451 FILLINGIM STREET,MOBILE,36617,MOBILE,2514717110
10019,HELEN KELLER MEMORIAL HOSPITAL,1300 SOUTH MONTGOMERY AVENUE,SHEFFIELD,35660,JEFFERSON,2563864556
10039,ST VINCENTS BLOUNT,150 GILBREATH DRIVE,ONEONTA,35121,BLOUNT,2052743000
10006,ELIZA COFFEE MEMORIAL HOSPITAL,400 NORTHWOOD DR,FLORENCE,35631,LAUDERDALE,2567688400
10164,COOSA VALLEY MEDICAL CENTER,315 W HICKORY ST,SYLACAUGA,35150,TALLADEGA,2562495000
10033,UNIVERSITY OF ALABAMA HOSPITAL,619 SOUTH 19TH STREET,BIRMINGHAM,35233,JEFFERSON,2059344011
10025,G H LANIER MEMORIAL HOSPITAL,4800 48TH ST,VALLEY,36854,CHAMBERS,2053258100
10033,UNIVERSITY OF ALABAMA HOSPITAL,619 SOUTH 19TH STREET,BIRMINGHAM,35233,JEFFERSON,2059344011
10010,MARSHALL MEDICAL CENTER NORTH,8000 ALABAMA HIGHWAY 69,GUNTERSVILLE,35976,MARSHALL,2565718000
10043,CHILTON MEDICAL CENTER,1010 LAY DAM ROAD,CLANTON,35045,CHILTON,2053258100
10044,MARION REGIONAL MEDICAL CENTER,1256 MILITARY STREET SOUTH,HAMILTON,35570,MARION,2059216200
10050,ST VINCENTS BLOUNT,150 GILBREATH DRIVE,ONEONTA,35121,JEFFERSON,2052743000
10022,CHEROKEE MEDICAL CENTER,400 NORTHWOOD DR,CENTRE,35960,CHEROKEE,2569275531
10015,SOUTHWEST ALABAMA MEDICAL CENTER,33700 HIGHWAY 43,THOMASVILLE,35121,CLARKE,3346366221
10034,COMMUNITY HOSPITAL INC,805 FRIENDSHIP ROAD,BIRMINGHAM,36078,ELMORE,3342836541
10024,JACKSON HOSPITAL & CLINIC INC,1725 PINE STREET,MONTGOMERY,36106,MONTGOMERY,3342938000
10012,DEKALB REGIONAL MEDICAL CENTER,200 MED CENTER DRIVE,FORT PAYNE,35968,DE KALB,2568453150
10038,STRINGFELLOW MEMORIAL HOSPITAL,301 EAST 18TH ST,ANNISTON,36201,CALHOUN,2562358900
10044,MARION REGIONAL MEDICAL CENTER,1256 MILITARY STREET SOUTH,HAMILTON,35570,MARION,2059216200
10055,FLOWBRS HOSPITAL,4370 WEST MAIN STREET,DOTHAN,36305,HOUSTON,3347935000
10046,RIVERVIEW REGIONAL MEDICAL CENTER,600 SOUTH THIRD STREET,GADSDEN,35901,ETOWAH,2565435200
10035,CULLMAN REGIONAL MEDICAL CENTER,1912 ALABAMA HIGHWAY 157,CULLMAN,35058,CULLMAN,2567372000
10024,JACKSON HOSPITAL & CLINIC INC,1912 ALABAMA HIGHWAY 157,MONTGOMERY,36106,MONTGOMERY,3342938000
10022,CHEROKEE MEDICAL CENTER,400 NORTHWOOD DR,CENTRE,35960,CHEROKEE,2569275531
10007,MIZELL MEMORIAL HOSPITAL,702 N MAIN ST,OPP,36467,COVINGTON,3344933541
10039,ANDALUSIA REGIONAL HOSPITAL,849 SOUTH THREE NOTCH STREET,ANDALUSIA,36420,COVINGTON,3342228466
10087,UNIV OF SOUTH ALABAMA MEDICAL CENTER,2451 FILLINGIM STREET,MOBILE,36617,LAUDERDALE,2514717110
10025,G H LANIER MEMORIAL HOSPITAL,4800 48TH ST,VALLEY,36854,CHAMBERS,3347561400
10009,HARTSELLE MEDICAL CENTER,201 PINE STREET NORTHWEST,HARTSELLE,35640,SHELBY,2567736511
10044,MARION REGIONAL MEDICAL CENTER,1256 MILITARY STREET SOUTH,HAMILTON,35570,MARION,2059216200
10016,SHELBY BAPTIST MEDICAL CENTER,1000 FIRST STREET NORTH,ALABASTER,35007,SHELBY,2056208100
10044,MARION REGIONAL MEDICAL CENTER,1256 MILITARY STREET SOUTH,HAMILTON,35570,MARION,2059216200
10029,EAST ALABAMA MEDICAL CENTER AND SNF,2000 PEPPERELL PARKWAY,OPELIKA,99508,LEE,3347493411
10023,BAPTIST MEDICAL CENTER SOUTH,2105 EAST SOUTH BOULEVARD,MOBILE,36116,MONTGOMERY,3342882100
10010,MARSHALL MEDICAL CENTER NORTH,8000 ALABAMA HIGHWAY 69,GUNTERSVILLE,35976,MARSHALL,2565718000
10033,UNIVERSITY OF ALABAMA HOSPITAL,619 SOUTH 19TH STREET,BIRMINGHAM,35233,JEFFERSON,2059344011
10164,FAYETTE MEDICAL CENTER,1653 TEMPLE AVENUE NORTH,FAYETTE,35555,FAYETTE,2059325966
10010,MARSHALL MEDICAL CENTER NORTH,8000 ALABAMA HIGHWAY 69,GUNTERSVILLE,35976,MARSHALL,2568453150
10007,MIZELL MEMORIAL HOSPITAL,702 N MAIN ST,OPP,36467,COVINGTON,3344933541
10018,CALLAHAN EYE FOUNDATION HOSPITAL,1720 UNIVERSITY BLVD,ALABASTER,35233,JEFFERSON,2053258100
10032,WEDOWEE HOSPITAL,209 NORTH MAIN STREET,WEDOWEE,36278,RANDOLPH,2563572111
10005,MARSHALL MEDICAL CENTER SOUTH,2505 U S HIGHWAY 431 NORTH,BOAZ,35957,MARSHALL,2565938310
10015,SOUTHWEST ALABAMA MEDICAL CENTER,33700 HIGHWAY 43,OPP,36784,CLARKE,3346366221
10023,BAPTIST MEDICAL CENTER SOUTH,1912 ALABAMA HIGHWAY 157,MONTGOMERY,36116,MONTGOMERY,3342882100
10001,SOUTHEAST ALABAMA MEDICAL CENTER,1108 ROSS CLARK CIRCLE,DOTHAN,36302,HOUSTON,3347938701
10044,MARION REGIONAL MEDICAL CENTER,1256 MILITARY STREET SOUTH,HAMILTON,35570,MARION,2059216200
10044,MARION REGIONAL MEDICAL CENTER,1256 MILITARY STREET SOUTH,HAMILTON,35570,MARION,3346366221
10033,UNIVERSITY OF ALABAMA HOSPITAL,619 SOUTH 19TH STREET,BIRMINGHAM,35233,JEFFERSON,2059344011
10032,WEDOWEE HOSPITAL,209 NORTH MAIN STREET,WEDOWEE,36278,RANDOLPH,2563572111
10043,CHILTON MEDICAL CENTER,1010 LAY DAM ROAD,CLANTON,35045,MONTGOMERY,2057552500
10049,COOSA VALLEY MEDICAL CENTER,315 W HICKORY ST,SYLACAUGA,35150,TALLADEGA,2562495000
10016,SHELBY BAPTIST MEDICAL CENTER,1000 FIRST STREET NORTH,ALABASTER,35007,SHELBY,2056208100
10007,MIZELL MEMORIAL HOSPITAL,150 GILBREATH DRIVE,OPP,36467,COVINGTON,3344933541
10087,UNIV OF SOUTH ALABAMA MEDICAL CENTER,2451 FILLINGIM STREET,MOBILE,36617,MOBILE,2514717110
10029,EAST ALABAMA MEDICAL CENTER AND SNF,2000 PEPPERELL PARKWAY,OPELIKA,36801,LEE,3347493411
10009,BAPTIST MEDICAL CENTER SOUTH,2105 EAST SOUTH BOULEVARD,MONTGOMERY,36116,MONTGOMERY,3342882100
10025,G H LANIER MEMORIAL HOSPITAL,4800 48TH ST,VALLEY,36854,CHAMBERS,2564944000
10034,COMMUNITY HOSPITAL INC,2000 PEPPERELL PARKWAY,TALLASSEE,36078,ELMORE,3342836541
10036,ANDALUSIA REGIONAL HOSPITAL,849 SOUTH THREE NOTCH STREET,ANDALUSIA,36420,COVINGTON,3342228466
10039,HUNTSVILLE HOSPITAL,101 SIVLEY RD,HUNTSVILLE,35801,MARION,2562651000
10019,HELEN KELLER MEMORIAL HOSPITAL,1300 SOUTH MONTGOMERY AVENUE,SHEFFIELD,35660,JEFFERSON,2563864556
10009,DEKALB REGIONAL MEDICAL CENTER,201 PINE STREET NORTHWEST,HARTSELLE,35640,MORGAN,2567736511
10029,EAST ALABAMA MEDICAL CENTER AND SNF,2000 PEPPERELL PARKWAY,OPELIKA,36801,LEE,3347493411
10023,BAPTIST MEDICAL CENTER SOUTH,2105 EAST SOUTH BOULEVARD,MONTGOMERY,36116,MONTGOMERY,3342882100
10011,ST VINCENT'S EAST,50 MEDICAL PARK EAST DRIVE,BIRMINGHAM,35235,JEFFERSON,2058383122
10046,RIVERVIEW RFGIONAL MEDICAL CENTER,600 SOUTH THIRD STREET,GADSDEN,35901,ETOWAH,2565435200
10049,CHEROKEE MEDICAL CENTER,400 N EDWARDS STREET,ENTERPRISE,36330,COFFEE,3343470584
10021,DALE MEDICAL CENTER,8000 ALABAMA HIGHWAY 69,OZARK,36360,DALE,3347742601
10045,FAYETTE MEDICAL CENTER,1653 TEMPLE AVENUE NORTH,FAYETTE,35555,FAYETTE,2059325966
10011,ST VINCENT'S EAST,50 MEDICAL PARK EAST DRIVE,BIRMINGHAM,35968,JEFFERSON,2058383122
10035,CULLMAN REGIONAL MEDICAL CENTER,1912 ALABAMA HIGHWAY 157,CULLMAN,35058,CULLMAN,2567372000
10008,CRENSHAW COMMUNITY HOSPITAL,101 HOFPITAL CIRCLE,LUVERNE,36049,CRENSHAW,3343353374
10040,GADSDEN REGIONAL MEDICAL CENTER,1007 GOODYEAR AVENUE,GADSDEN,35903,ETOWAH,2564944000
20017,ALASKA REGIONAL HOSPITAL,2801 DEBARR ROAD,ANCHORAGE,99508,ANCHORAGE,9072761131
10045,FAYETTE MEDICAL CENTER,1653 TEMPLE AVENUE NORTH,FAYETTE,35555,FAYETTE,2059325966
10008,CRENSHAW COMMUNITY HOSPITAL,101 HOSPITAL CIRCLE,LUVERNE,36049,CRENSHAW,3343353374
10032,WEDOWEE HOSPITAL,209 NORTH MAIN STREET,WEDOWEE,36278,RANDOLPH,2563572111
10032,CULLMAN REGIONAL MEDICAL CENTER,209 NORTH MAIN STREET,WEDOWEE,36278,RANDOLPH,2563572111
10032,WEDOWEE HOSPITAL,209 NORTH MAIN STREET,WEDOWEE,36278,RANDOLPH,2563572111
10006,ELIZA COFFEE MEMORIAL HOSPITAL,205 MARENGO STREET,OPP,35631,LAUDERDALE,2567688400
10044,MARION REGIONAL MEDICAL CENTER,1256 MILITARY STREET SOUTH,HAMILTON,35570,MARION,2059216200
10006,ELIZA COFFEE MEMORIAL HOSPITAL,205 MARENGO STREET,FLORENCE,35631,MORGAN,2567688400
10039,MIZELL MEMORIAL HOSPITAL,101 SIVLEY RD,HUNTSVILLE,35801,MADISON,2562651000
10164,COOSA VALLEY MEDICAL CENTER,315 W HICKORY ST,SYLACAUGA,35150,TALLADEGA,2562495000
10009,HARTSELLE MEDICAL CENTER,201 PINE STREET NORTHWEST,BIRMINGHAM,35640,MORGAN,2567736511
10045,FAYETTE MEDICAL CENTER,1653 TEMPLE AVENUE NORTH,FAYETTE,35555,FAYETTE,2565435200
10087,UNIV OF SOUTH ALABAMA MEDICAL CENTER,2451 FILLINGIM STREET,MOBILE,36617,MOBILE,2514717110
10035,CULLMAN REGIONAL MEDICAL CENTER,1912 ALABAMA HIGHWAY 157,CULLMAN,36067,CULLMAN,2567372000
10038,STRINGFELLOW MEMORIAL HOSPITAL,301 EAST 18TH ST,CULLMAN,36201,CALHOUN,2562358900
10006,ELIZA COFFEE MEMORIAL HOSPITAL,205 MARENGO STREET,FLORENCE,35631,LAUDERDALE,2567688400
10050,ST VINCENTS BLOUNT,150 GILBREATH DRIVE,ONEONTA,35121,BLOUNT,2052743000
10029,EAST ALABAMA MEDICAL CENTER AND SNF,2000 PEPPERELL PARKWAY,OPELIKA,36801,LEE,3347493411
10025,G H LANIER MEMORIAL HOSPITAL,4800 48TH ST,VALLEY,36854,CHAMBERS,3347561400
10035,CULLMAN REGIONAL MEDICAL CENTER,1912 ALABAMA HIGHWAY 157,CULLMAN,35058,CULLMAN,2567372000
10047,GEORGIANA HOSPITAL,515 MIRANDA ST,GEORGIANA,36033,BUTLER,3343762205
10045,FAYETTE MEDICAL CENTER,1653 TEMPLE AVENUE NORTH,FAYETTE,35555,FAYETTE,2059325966
10006,ELIZA COFFEE MEMORIAL HOSPITAL,205 MARENGO STREET,FLORENCE,35631,HOUSTON,2567688400
10108,PRATTVILLE BAPTIST HOSPITAL,124 S MEMORIAL DR,PRATTVILLE,36067,AUTAUGA,3343614267
10016,SHELBY BAPTIST MEDICAL CENTER,1000 FIRST STREET NORTH,ALABASTER,35007,SHELBY,2056208100
10022,CHEROKEE MEDICAL CENTER,400 NORTHWOOD DR,CENTRE,35960,CHEROKEE,2569275531
10015,SOUTHWEST ALABAMA MEDICAL CENTER,33700 HIGHWAY 43,THOMASVILLE,36784,CLARKE,3346366221
10043,CHILTON MEDICAL CENTER,1010 LAY DAM ROAD,CLANTON,35045,CHILTON,2057552500
10035,CULLMAN REGIONAL MEDICAL CENTER,1912 ALABAMA HIGHWAY 157,CULLMAN,35058,CULLMAN,2567372000
10158,RUSSELLVILLE HOSPITAL,15155 HIGHWAY 43,RUSSELLVILLE,35653,CALHOUN,2563321611
10024,JACKSON HOSPITAL & CLINIC INC,1725 PINE STREET,MONTGOMERY,36106,MONTGOMERY,3342938000
10021,HUNTSVILLE HOSPITAL,126 HOSPITAL AVE,OZARK,36360,DALE,3347742601
10047,GEORGIANA HOSPITAL,515 MIRANDA ST,GEORGIANA,36033,BUTLER,3343762205
10035,CULLMAN REGIONAL MEDICAL CENTER,1912 ALABAMA HIGHWAY 157,CULLMAN,35058,CULLMAN,2567372000
10006,ELIZA COFFEE MEMORIAL HOSPITAL,205 MARENGO STREET,FLORENCE,35631,LAUDERDALE,2567688400
10015,SOUTHWEST ALABAMA MEDICAL CENTER,33700 HIGHWAY 43,THOMASVILLE,36784,CLARKE,3346366221
10046,RIVERVIEW REGIONAL MEDICAL CENTER,600 SOUTH THIRD STREET,GADSDEN,35901,ETOWAH,2565435200
10036,ANDALUSIA REGIONAL HOSPITAL,1000 FIRST STREET NORTH,ANDALUSIA,36420,COVINGTON,3342228466
10035,CULLMAN REGIONAL MEDICAL CENTER,1912 ALABAMA HIGHWAY 157,CULLMAN,35058,CULLMAN,2567372000
10035,CULLMAN REGIONAL MEDICAL CENTER,1912 ALABAMA HIGHWAY 157,CULLMAN,35058,CULLMAN,2567372000
10047,GEORGIANA HOSPITAL,515 MIRANDA ST,GEORGRANA,36033,BUTLER,3343762205
10006,ELIZA COFFEE MEMORIAL HOSPITAL,205 MARENGO STREET,FLORENCE,35631,LAUDERDALE,2567688400
10015,SOUTHWEST ALABAMA MEDICAL CENTER,33700 HIGHWAY 43,THOMASVILLE,36302,CLARKE,3346366221
10029,EAST ALABAMA MEDICAL CENTER AND SNF,2000 PEPPERELL PARKWAY,OPELIKA,36801,MORGAN,3347493411
10032,WEDOWEE HOSPITAL,209 NORTH MAIN STREET,WEDOWEE,36278,RANDOLPH,2563572111
10024,JACKSON HOSPITAL & CLINIC INC,1725 PINE STREET,MONTGOMERY,36106,MONTGOMERY,3342938000
10032,WEDOWEE HOSPITAL,209 NORTH MAIN STREET,WEDOWEE,36278,RANDOLPH,2563572111
10033,HELEN KELLER MEMORIAL HOSPITAL,619 SOUTH 19TH STREET,BIRMINGHAM,35233,JEFFERSON,2059344011
10034,MARSHALL MEDICAL CENTER NORTH,805 FRIENDSHIP ROAD,TALLASSEE,36078,ELMORE,3342836541
10008,CRENSHAW COMMUNITY HOSPITAL,101 HOSPITAL CIRCLE,LUVERNE,36049,CRENSHAW,3343353374
10046,RIVERVIEW REGIONAL MEDICAL CENTER,600 SOUTH THIRD STREET,GADSDEN,35901,ETOWAH,2565435200
10034,COMMUNITY HOSPITAL INC,805 FRIENDSHIP ROAD,TALLASSEE,36078,ELMORE,3342836541
10039,HUNTSVILLE HOSPITAL,101 SIVLEY RD,HUNTSVILLE,35801,MADISON,2562651000
10008,CRENSHAW COMMUNITY HOSPITAL,101 HOSPITAL CIRCLE,LUVERNE,36049,CRENSHAW,3343353374
10012,DEKALB REGIONAL MEDICAL CENTER,200 MED CENTER DRIVE,FORT PAYNE,35976,DE KALB,2568453150
10055,FLOWERS HOSPITAL,4370 WEST MAIN STREET,DOTHAN,35901,HOUSTON,3347935000
10050,ST VINCENTS BLOUNT,150 GILBREATH DRIVE,ONEONTA,35121,BLOUNT,2052743000
10086,NORTHWEST MEDICAL CENTER,1530 U S HIGHWAY 43,WINFIELD,35594,MARION,2054877736
10015,SOUTHWEST ALABAMA MEDICAL CENTER,33700 HIGHWAY 43,THOMASVILLE,36784,CLARKE,2059216200
10032,WEDOWEE HOSPITAL,209 NORTH MAIN STREET,WEDOWEE,36278,RANDOLPH,2563572111
10008,CRENSHAW COMMUNITY HOSPITAL,101 HOSPITAL CIRCLE,LUVERNE,36049,CRENSHAW,3343353374
20018,YUKON KUSKOKWIM DELTA REG HOSPITAL,PO BOX 287,BETHEL,99559,BETHEL,3346366221
10047,GEORGIANA HOSPITAL,515 MIRANDA ST,GEORGIANA,36033,BUTLER,3343762205
10019,HELEN KELLER MEMORIAL HOSPITAL,1300 SOUTH MONTGOMERY AVENUE,ALABASTER,35660,JEFFERSON,2563864556
10044,HELEN KELLER MEMORIAL HOSPITAL,1256 MILITARY STREET SOUTH,HAMILTON,35570,MARION,2059216200
10033,UNIVERSITY OF ALABIMA HOSPITAL,619 SOUTH 19TH STREET,BIRMINGHAM,35233,JEFFERSON,2059344011
10039,HUNTSVILLE HOSPITAL,101 SIVLEY RD,HUNTSVILLE,35801,MADISON,2562651000
10038,STRINGFELLOW MEMORIAL HOSPITAL,301 EAST 18TH ST,ANNISTON,35640,CALHOUN,2562358900
10012,DEKALB REGIONAL MEDICAL CENTER,200 MED CENTER DRIVE,FORT PAYNE,35968,DE KALB,2568453150
10029,EAST ALABAMA MEDICAL CENTER AND SNF,2105 EAST SOUTH BOULEVARD,OPELIKA,36801,LEE,3347493411
10086,NORTHWEST MEDICAL CENTER,1530 U S HIGHWAY 43,WINFIELD,35594,MARION,2054877736
10029,EAST ALABAMA MEDICAL CENTER AND SNF,2000 PEPPERELL PARKWAY,OPELIKA,36801,LTE,3347493411
10047,GEORGIANA HOSPITAL,515 MIRANDA ST,GEORGIANA,35233,BUTLER,3343762205
10009,MIZELL MEMORIAL HOSPITAL,702 N MAIN ST,OPP,36467,COVINGTON,3344933541
10029,EAST ALABAMA MEDICAL CENTER AND SNF,2000 PEPPERELL PARKWAY,OPELIKA,36801,LEE,3347493411
10086,NORTHWEST MEDICAL CENTER,1530 U S HIGHWAY 43,WINFIELD,35594,MARION,2054877736
10024,JACKSON HOSPITAL & CLINIC INC,1725 PINE STREET,MONTGOMERY,36106,MONTGOMERY,3342938000
10001,SOUTHEAST ALABAMA MEDIGAL CENTER,1108 ROSS CLARK CIRCLE,DOTHAN,36302,HOUSTON,3347938701
10011,ST VINCENT'S EAST,50 MEDICAL PARK EAST DRIVE,BIRMINGHAM,35235,JEFFERSON,2058383122
10086,NORTHWEST MEDICAL CENTER,1530 U S HIGHWAY 43,ELBA,35594,MARION,2054877736
10044,MARION REGIONAL MEDICAL CENTER,1256 MILITARY STREET SOUTH,HAMILTON,35570,MARION,2059216200
10027,ELBA GENERAL HOSPITAL,987 DRAYTON STREET,ELBA,36323,COVINGTON,3348972257
10023,BAPTIST MEDICAL CENTER SOUTH,2105 EAST SOUTH BOULEVARD,MONTGOMERY,36116,MONTGOMERY,3342882100
10164,COOSA VALLEY MEDICAL CENTER,315 W HICKORY ST,SYLACAUGA,35150,TALLADEGA,2562495000
10050,ST VINCENTS BLOUNT,150 GILBREATH DRIVE,ONEONTA,35121,BLOUNT,2052743000
10019,HELEN KELLER MEMORIAL HOSPITAL,1300 SOUTH MONTGOMERY AVENUE,SHEFFIELD,35660,JEFFERSON,2563864556
10024,JACKSON HOSPITAL & CLINIC INC,1725 PINE STREET,MONTGOMERY,36106,MONHGOMERY,3342938000
10055,FLOWERS HOSPITAL,4370 WEST MAIN STREET,DOTHAN,36305,HOUSTON,2057552500
10016,SHELBY BAPTIST MEDICAL CENTER,1000 FIRST STREET NORTH,ALABASTER,35007,SHELBY,2056208100
10021,DALE MEDICAL CENTER,126 HOSPITAL AVE,OZARK,36360,DALE,3347742601
10007,MIZELL MEMORIAL HOSPITAL,702 N MAIN ST,OPP,36467,COVINGTON,3344933541
10011,HUNTSVILLE HOSPITAL,50 MEDICAL PARK EAST DRIVE,BIRMINGHAM,35235,JEFFERSON,2058383122
10164,COOSA VALLEY MEDICAL CENTER,315 W HICKORY ST,SYLACAUGA,35150,TALLADEGA,2562495000
10086,NORTHWEST MEDICAL CENTER,1530 U S HIGHWAY 43,WINFIELD,35594,MARION,2054877736
10046,RIVERVIEW REGIONAL MEDICAL CENTER,600 SOUTH THIRD STREET,GADSDEN,35901,ETOWAH,2565435200
10019,HELEN KELLER MEMORIAL HOSPITAL,1300 SOUTH MONTGOMERY AVENUE,SHEFFIELD,35660,JEFFERSON,2563864556
10036,ANDALUSIA REGIONAL HOSPITAL,849 SOUTH THREE NOTCH STREET,BIRMINGHAM,36420,COVINGTON,3342228466
10019,HELEN KELLER MEMORIAL HOSPITAL,1300 SOUTH MONTGOMERY AVENUE,SHEFFIELD,35660,JEFFERSON,2563864556
10007,MIZELL MEMORIAL HOSPITAL,702 N MAIN ST,OPP,36302,COVINGTON,3344933541
10005,MARSHALL MEDICAL CENTER SOUTH,2505 U S HIGHWAY 431 NORTH,BOAZ,35957,MARSHALL,2565938310
10021,DALE MEDICAL CENTER,126 HOSPITAL AVE,OZARK,36360,MONTGOMERY,3347742601
10049,MEDICAL CENTER ENTERPRISE,400 N EDWARDS STREET,ENTERPRISE,36330,COFFEE,3343470584
10029,EAST ALABAMA MEDICAL CENTER AND SNF,2000 PEPPERELL PARKWAY,OPELIKA,35058,LEE,3347493411
10015,SOUTHWEST ALABAMA MEDICAL CENTER,33700 HIGHWAY 43,THOMASVILLE,36784,CLARKE,2567736511
10039,HUNTSVILLE HOSPITAL,101 SIVLEY RD,HUNTSVILLE,35976,MADISON,2562651000
10032,WEDOWEE HOSPITAL,209 NORTH MAIN STREET,WEDOWEE,36278,RANDOLPH,2563572111
10029,EAST ALABAMA MEDICAL CENTER AND SNF,2000 PEPPERELL PARKWAY,OPELIKA,36801,LEE,3347493411
10005,MARSHALL MEDICAL CENTER SOUTH,2505 U S HIGHWAY 431 NORTH,BOAZ,35957,MARSHALL,2565938310
10006,ELIZA COFFEE MEMORIAL HOSPITAL,205 MARENGO STREET,FLORENCE,35631,LAUDERDALE,2567688400
10010,ANDALUSIA REGIONAL HOSPITAL,849 SOUTH THREE NOTCH STREET,ANDALUSIA,36420,COVINGTON,0
10034,COMMUNITY HOSPITFL INC,805 FRIENDSHIP ROAD,TALLASSEE,36078,ELMORE,3342836541
10021,DALE MEDICAL CENTER,126 HOSPITAL AVE,OZARK,36360,DALE,3347742601
10016,SHELBY BAPTIST MEDICAL CENTER,1000 FIRST STREET NORTH,ALABASTER,35007,SHELBY,2056208100
10024,JACKSON HOSPITAL & CLINIC INC,1725 PINE STREET,MONTGOMERY,36106,MONTGOMERY,3342938000
10021,DALE MEDICAL CENTER,126 HOSPITAL AVE,OZARK,36360,DALE,3347742601
10029,EAST ALABAMA MEDICAL CENTER AND SNF,2000 PEPPERELL PARKWAY,TALLASSEE,36801,LEE,3347493411
10011,ST VINCENT'S EAST,50 MEDICAL PARK EAST DRIVE,BIRMINGHAM,35235,JEFFERSON,2058383122
10001,SOUTHEAST ALABAMA MEDICAL CENTER,1108 ROSS CLARK CIRCLE,DOTHAN,36302,HOUSTON,3347561400
10011,ST VINCENT'S EAST,50 MEDICAL PARK EAST DRIVE,BIRMINGHAM,35235,JEFFERSON,2058383122
10018,CALLAHAN EYE FOUNDATION HOSPITAL,1720 UNIVERSITY BLVD,BIRMINGHAM,35233,JEFFERSON,2562495000
10012,DEKALB REGIONAL MEDICAL CENTER,200 MED CENTER DRIVE,FORT PAYNE,35968,DE KALB,2568453150
10024,JACKSON HOSPITAL & CLINIC INC,1725 PINE STREET,MONTGOMERY,36106,MONTGOMERY,3342938000
10108,PRATTVILLE BAPTIST HOSPITAL,124 S MEMORIAL DR,PRATTVILLE,36067,AUTAUGA,3343470584
10027,ELBA GENERAL HOSPITAL,987 DRAYTON STREET,ELBA,36323,COFFEE,3348972257
10045,FAYETTE MEDICAL CENTER,1653 TEMPLE AVENUE NORTH,FAYETTE,35555,FAYETTE,2059325966
10016,SHELBY BAPTIST MEDICAL CENTER,1000 FIRST STREET NORTH,ALABASTER,35007,SHELBY,2562651000
10008,SOUTHWEST ALABAMA MEDICAL CENTER,101 HOSPITAL CIRCLE,LUVERNE,36049,CRENSHAW,3343353374
10029,EAST ALABAMA MEDICAL CENTER AND SNF,2000 PEPPERELL PARKWAY,OPELIKA,36801,JEFFERSON,3347493411
10024,JACKSON HOSPITAL & CLINIC INC,1725 PINE STREET,MONTGOMERY,36106,MONTGOMERY,3342938000
20017,ALASKA REGIONAL HOSPITAL,2801 DEBARR ROAD,ANCHORAGE,99508,ANCHORAGE,9072761131
10016,SHELBY BAPTIST MEDICAL CENTER,1000 FIRST STREET NORTH,ALABASTER,35007,SHELBY,2056208100
10005,MARSHALL MEDICAL CENTER SOUTH,2505 U S HIGHWAY 431 NORTH,BOAZ,35957,MARSHALL,2565938310
10164,COOSA VALLEY MEDICAL CENTER,315 W HICKORY ST,SYLACAUGA,35150,TALLADEGA,2565435200
10033,UNIVERSITY OF ALABAMA HOSPITAL,619 SOUTH 19TH STREET,BIRMINGHAM,35233,JEFFERSON,2059344011
10035,CULLMAN REGIONAL MEDICAL CENTER,1912 ALABAMA HIGHWAY 157,CULLMAN,35058,CULLMAN,2567372000
10039,DEKALB REGIONAL MEDICAL CENTER,101 SIVLEY RD,HUNTSVILLE,35801,MADISON,2562651000
10034,COMMUNITY HOSPITAL INC,805 FRIENDSHIP ROAD,TALLASSEE,36078,ELMORE,3342836541
10055,FLOWERS HOSPITAL,400 NORTHWOOD DR,DOTHAN,36305,HOUSTON,3347935000
10024,JACKSON HOSPITAL & CLINIC INC,1725 PINE STREET,MONTGOMERY,36106,MONTGOMERY,3342938000
10050,ST VINCENTS BLOUNT,150 GILBREATH DRIVE,ONEONTA,35121,BLOUNT,2052743000
10164,COOSA VALLEY MEDICAL CENTER,315 W HICKORY ST,SYLACAUGA,35150,TALLADEGA,2562495000
10046,RIVERVIEW REGIONAL MEDICAL CENTER,600 SOUTH THIRD STREET,BOAZ,35901,ETOWAH,2565435200
10032,WEDOWEE HOSPITAL,209 NORTH MAIN STREET,WEDOWEE,36278,RANDOLPH,2563572111
10108,PRATTVILLE BAPTIST HOSPITAL,124 S MEMORIAL DR,PRATTVILLE,36067,AUTAUGA,3343614267
10108,PRATTVILLE BAPTIST HOSPITAL,124 S MEMORIAL DR,PRATTVILLE,36067,AUTAUGA,3343614267
10038,STRINGFELLOW MEMORIAL HOSPITAL,301 EAST 18TH ST,ANNISTON,36201,CALHOUN,2562358900
10018,CALLAHAN EYE FOUNDATION HOSPITAL,1720 UNIVERSITY BLVD,BIRMINGHAM,35233,JEFFERSON,2053258100
10108,PRATTVILLE BAPTIST HOSPITAL,124 S MEMORIAL DR,PRATTVILLE,36067,AUTAUGA,3343614267
10009,HARTSELLE MEDICAL CENTER,201 PINE STREET NORTHWEST,HARTSELLE,35640,MORGAN,2567736511
10009,HARTSELLE MEDICAL CENTER,201 PINE STREET NORTHWEST,HARTSELLE,35640,MORGAN,2567736511
10033,UNIVERSITY OF ALABAMA HOSPITAL,619 SOUTH 19TH STREET,BIRMINGHAM,35233,JEFFERSON,2059344011
10016,SHELBY BAPTIST MEDICAL CENTER,1000 FIRST STREET NORTH,ALABASTER,35007,COVINGTON,2056208100
10039,HUNTSVILLE HOSPITAL,101 SIVLEY RD,ALABASTER,35801,MADISON,2562651000
10040,GADSDEN REGIONAL MEDICAL CENTER,1007 GOODYEAR AVENUE,GADSDEN,35903,ETOWAH,2564944000
10044,EAST ALABAMA MEDICAL CENTER AND SNF,2000 PEPPERELL PARKWAY,OPELIKA,36801,LEE,3347493411
10025,G H LANIER MEMORIAL HOSPITAL,4800 48TH ST,VALLEY,36854,CHAMBERS,3343470584
10019,HELEN KELLER MEMORIAL HOSPITAL,1300 SOUTH MONTGOMERY AVENUE,SHEFFIELD,35660,JEFFERSON,2563864556
10032,WEDOWEE HOSPITAL,209 NORTH MAIN STREET,WEDOWEE,36278,RANDOLPH,2563572111
10043,CHILTON MEDICAL CENTER,1010 LAY DAM ROAD,CLANTON,35045,CHILTON,2057552500
10036,ANDALUSIA REGIONAL HOSPITAL,849 SOUTH THREE NOTCH STREET,ANDALUSIA,36420,COVINGTON,3342228466
10018,CALLAHAN EYE FOUNDATION HOSPITAL,1720 UNIVERSITY BLVD,BIRMINGHAM,35233,JEFFERSON,2053258100
10045,FLOWERS HOSPITAL,4370 WEST MAIN STREET,DOTHAN,36305,HOUSTON,3347935000
10010,MARSHABL MEDICAL CENTER NORTH,8000 ALABAMA HIGHWAY 69,GUNTERSVILLE,35976,MARSHALL,2565718000
10011,ST VINCENT'S EAST,50 MEDICAL PARK EAST DRIVE,BIRMINGQAM,35235,JEFFERSON,2058383122
10025,G H LANIER MEMORIAL HOSPITAL,4800 48TH ST,VALLEY,36854,CHAMBERS,3348972257
10012,DEKALB REGIONAL MEDICAL CENTER,200 MED CENTER DRIVE,FORT PAYNE,35968,DE KALB,2568453150
10019,HELEN KELLER MEMORIAL HOSPITAL,1300 SOUTH MONTGOMERY AVENUE,SHEFFIELD,35660,JESFERSON,2563864556
10022,CHEROKEE MEDICAL CENTER,987 DRAYTON STREET,CENTRE,35960,CHEROKEE,2569275531
10005,MARSHALL MEDICAL CENTER SOUTH,2505 U S HIGHWAY 431 NORTH,BOAZ,35957,MARSHALL,3343614267
10047,GEORGIANA HOSPITAL,515 MIRANDA ST,GEORGIANA,36033,BUTLER,3343762205
10029,EAST ALABAMA MEDICAL CENTER AND SNF,2000 PEPPERELL PARKWAY,OPELIKA,36801,LEE,3347493411
10043,CHILTON MEDICAL CENTER,1010 LAY DAM ROAD,CLANTON,35045,CHILTON,2057552500
10036,ANDALUSIA REGIONAL HOSPITAL,849 SOUTH THREE NOTCH STREET,ANDALUSIA,36420,COVINGTON,3342228466
10024,JACKSON HOSPITAL & CLINIC INC,1725 PINE STREET,MONTGOMERY,36106,MONTGOMERY,3342938000
10023,BAPTIST MEDICAL CENTER SOUTH,2105 EAST SOUTH BOULEVARD,MONTGOMERY,36116,MONTGOMERY,3342882100
10038,STRINGFELLOW MEMORIAL HOSPITAL,301 EAST 18TH ST,ANNISTON,36201,CALHOUN,2562358900
10019,HELEN KELLER MEMORIAL HOSPITAL,1300 SOUTH MONTGOMERY AVENUE,SHEFFIELD,35660,JEFFERSON,2563864556
10025,G H LANIER MEMORIAL HOSPITAL,4800 48TH ST,VALLEY,36854,CHAMBERS,3347561400
10010,MARSHALL MEDICAL CENTER NORTH,8000 ALABAMA HIGHWAY 69,GUNTERSVILLE,36420,MARSHALL,2565718000
10047,GEORGIANA HOSPITAL,515 MIRANDA ST,GEORGIAZA,36033,BUTLER,3343762205
10039,HUNTSVILLE HOSPITAL,101 SIVLEY RD,HUNTSVILLE,35801,MADISON,2562651000
10034,COMMUNITY HOSPITAL INC,805 FRIENDSHIP ROAD,TALLASSEE,36801,ELMORE,3342836541
10036,ANDALUSIA REGIONAL HOSPITAL,849 SOUTH THREE NOTCH STREET,ANDALUSIA,36420,COVINGTON,3342228466
10027,ELBA GENERAL HOSPITAL,987 DRAYTON STREET,ELBA,36323,COFFEE,3348972257
10032,WEDOWEE HOSPITAL,209 NORTH MAIN STREET,WEDOWEE,36278,RANDOLPH,2563572111
10015,SOUTHWEST ALABAMA MEDICAL CENTER,33700 HIGHWAY 43,THOMASVILLE,36784,CLARKE,3347561400
10012,DEKALB REGIONAL MEDICAL CENTER,200 MED CENTER DRIVE,FORT PAYNE,35968,DE KALB,2568453150
10029,EAST ALABAMA MEDICAL CENTER AND SNF,2000 PEPPERELL PARKWAY,OPELIKA,36801,LEE,3347493411
10006,ELIZA COFFEE MEMORIAL HOSPITAL,205 MARENGO STREET,FLORENCE,35631,LAUDERDALE,2567688400
10046,RIVERVIEW REGIONAL MEDICAL CENTER,600 SOUTH THIRD STREET,GADSDEN,35901,ETOWAH,2565435200
10050,ST VINCENTS BLOUNT,150 GILBREATH DRIVE,ONEONTA,36330,BLOUNT,2052743000
10009,HARTSELLE MEDICAL CENTER,201 PINE STREET NORTHWEST,HARTSELLE,35640,MORGAN,3342228466
10016,SHELBY BAPTIST MEDICAL CENTER,1000 FIRST STREET NORTH,ANDALUSIA,35007,SHELBY,2056208100
10006,ELIZA COFFEE MEMORIAL HOSPITAL,205 MARENGO STREET,FLORENCE,35631,LAUDERDALE,2567688400
10055,FLOWERS HOSPITAL,4370 WEST MAIN STREET,BIRMINGHAM,36305,HOUSTON,3347935000
10043,CHILTON MEDICAL CENTER,1300 SOUTH MONTGOMERY AVENUE,CLANTON,35045,CHILTON,2057552500
10021,DALE MEDICAL CENTER,126 HOSPITAL AVE,OZARK,36360,DALE,3347742601
10012,DEKALB REGIONAL MEDICAL CENTER,200 MED CENTER DRIVE,FORT PAYNE,35968,DE KALB,2568453150
10046,RIVERVIEW REGIONAL MEDICAL CENTER,600 SOUTH THIRD STREET,GADSDEN,36467,ETOWAH,2565435200
10009,HARTSELLE MEDICAL CENTER,201 PINE STREET NORTHWEST,HARTSELLE,35640,MORGAN,2567736511
10016,SHELBY BAPTIST MEDICAL CENTER,1000 FIRST STREET NORTH,ALABASTEA,35007,SHELBY,2056208100
10016,SHELBY BAPTIST MEDICAL CENTER,1000 FIRST STREET NORTH,ALABASTER,35007,JEFFERSON,2056208100
10033,UNIVERSITY OF ALABAMA HOSPITAL,619 SOUTH 19TH STREET,BIRMINGHAM,35233,JEFFERSON,2059344011
10027,ELBA GENERAL HOSPITAL,987 DRAYTON STREET,ELBA,36323,COFFEE,3348972257
10035,,,HAMILTON,35570,MARION,2059216200
10005,MARSHALL MEDICAL CENTER SOUTH,2505 U S HIGHWAY 431 NORTH,BOAZ,35957,MARSHALL,2565938310
10034,COMMUNITY HOSPITAL INC,805 FRIENDSHIP ROAD,TALLASSEE,36078,ELMORE,3342836541
10049,MEDICAL CENTER ENTERPRISE,400 N EDWARDS STREET,ENTERPRISE,36116,COFFEE,3343470584
10016,SHELBY BAPTIST MEDICAL CENTER,1000 FIRST STREET NORTH,ALABASTER,35007,SHELBY,2056208100
10046,RIVERVIEW REGIONAL MEDICAL CENTER,600 SOUTH THIRD STREET,GADSDEN,35901,ETOWAH,3346366221
10040,ELIZA COFFEE MEMORIAL HOSPITAL,205 MARENGO STREET,FLORENCE,35631,LAUDERDALE,2567688400
10005,MARSHALL MEDICAL CENTER SOUTH,2505 U S HIGHWAY 431 NORTH,PRATTVILLE,35957,MARSHALL,2565938310
20018,YUKON KUSKOKWIM DELTA REG HOSPITAL,PO BOX 287,BETHEL,99559,BETHEL,9075436300
10010,MARSHALL MEDICAL CENTER NORTH,600 SOUTH THIRD STREET,GUNTERSVILLE,35976,MARSHALL,2565718000
10005,MARSHALL MEDICAL CENTER SOUTH,2505 U S HIGHWAY 431 NORTH,BOAZ,35957,MARSHALL,2565938310
10049,MEDICAL CENTER ENTERPRISE,400 N EDWARDS STREET,ENTERPRISE,36330,COFFEE,3343470584
10011,ST VINCENT'S EAST,50 MEDICAL PARK EAST DRIVE,BIRMINGHAM,35235,JEFFERSON,2058383122
10039,HUNTSVILLE HOSPITAL,101 SIVLEY RD,HUNTSVILLE,35801,MADISON,2562651000
10034,COMMUNITY HOSPITAL INC,805 FRIENDSHIP ROAD,TALLASSEE,36078,ELMORE,3342836541
10050,ST VINCENTS BLOUNT,150 GILBREATH DRIVE,ONEONTA,35121,BLOUNT,2052743000
10022,CHEROKEE MEDICAL CENTER,400 NORTHWOOD DR,CENTRE,35960,CHEROKEE,2569275531
10016,SHELBY BAPTIST MEDICAL CENTER,1000 FIRST STREET NORTH,ALABASTER,35007,SHELBY,2056208100
10035,CULLMAN REGIONAL MEDICAL CENTER,1912 ALABAMA HIGHWAY 157,CULLMAN,35058,CULLMAN,2567372000
10027,ELBA GENERAL HOSPITAL,987 DRAYTON STREET,ELBA,36323,COFFEE,3348972257
10015,SOUTHWEST ALABAMA MEDICAL CENTER,33700 HIGHWAY 43,THOMASVILLE,36784,CLARKE,3346366221
10009,HARTSELLE MEDICAL CENTER,201 PINE STREET NORTHWEST,HARTSELLE,35640,MORGAN,2567736511
10008,CRENSHAW COMMUNITY HOSPITAL,101 HOSPITAL CIRCLE,LUVERNE,36049,CRENSHAW,3343353374
0,,126 HOSPITAL AVE,OZARK,36360,DALE,3347742601
10010,MARSHALL MEDICAL CENTER NORTH,8000 ALABAMA HIGHWAY 69,GUNTERSVILLE,35976,MARSHALL,2565718000
10039,HUNTSVILLE HOSPITAL,101 HOSPITAL CIRCLE,HUNTSVILLE,35801,MADISON,2562651000
10047,GEORGIANA HOSPITAL,515 MIRANDA ST,PRATTVILLE,36033,BUTLER,3343762205
10021,DALE MEDICAL CENTER,126 HOSPITAL AVE,OZARK,36360,DALE,3347742601
10012,DEKALB REGIONAL MEDICAL CENTER,200 MED CENTER DRIVE,FORT PAYNE,35233,DE KALB,2568453150
10001,SOUTHEAST ALABAMA MEDICAL CENTER,1108 ROSS CLARK CIRCLE,DOTHAN,36302,HOUSTON,3347938701
10055,FLOWERS HOSPITAL,4370 WEST MAIN STREET,HARTSELLE,36305,HOUSTON,3347935000
10044,MARION REGIONAL MEDICAL CENTER,1256 MILITARY STREET SOUTH,HAMILTON,36784,MARION,2059216200
10034,BAPTIST MEDICAL CENTER SOUTH,,MONTGOMERY,36116,MONTGOMERY,3342882100
10043,CHILTON MEDICAL CENTER,1010 LAY DAM ROAD,CLANTON,35045,CHILTON,2057552500
10021,DALE MEDICAL CENTER,126 HOSPITAL AVE,OZARK,36360,DALE,3347742601
10015,SOUTHWEST ALABAMA MEDICAL CENTER,33700 HIGHWAY 43,THOMASVILLE,36784,CLARKE,2564944000
10034,COMMUNITY HOSPITAL INC,805 FRIENDSHIP ROAD,TALLASSEE,36078,ELMORE,3342836541
10009,HARTSELLE MEDICAL CENTER,201 PINE STREET NORTHWEST,HARTSELLE,35640,LAUDERDALE,2567736511
10033,UNIVERSITY OF ALABAMA HOSPITAL,619 SOUTH 19TH STREET,BIRMINGHAM,35233,JEFFERSON,2059344011
10007,,1256 MILITARY STREET SOUTH,HAMILTON,0,MARION,2059216200
10006,ELIZA COFFEE MEMORIAL HOSPITAL,987 DRAYTON STREET,FLORENCE,35631,LAUDERDALE,2567688400
10039,HUNTSVILLE HOSPITAL,101 SIVLEY RD,HUNTSVILLE,35801,MADISON,2562651000
20017,ALASKA REGIONAL HOSPITAL,2105 EAST SOUTH BOULEVARD,ANCHORAGE,99508,ANCHORAGE,9072761131
10016,SHELBY BAPTIST MEDICAL CENTER,1000 FIRST STREET NORTH,ALABASTER,35007,SHELBY,2056208100
10047,GEORGIANA HOSPITAL,515 MIRANDA ST,GEORGIANA,36033,BUTLER,3343762205
10019,HELEN KELLER MEMORIAL HOSPITAL,1300 SOUTH MONTGOMERY AVENUE,SHEFFIELU,35660,JEFFERSON,2563864556
10086,NORTHWEST MEDICAL CENTER,1530 U S HIGHWAY 43,WINFIELD,35594,CHAMBERS,2054877736
10018,CALLAHAN EYE FOUNDATION HOSPITAL,1720 UNIVERSITY BLVD,BIRMINGHAM,35233,JEFFERSON,2053258100
10034,COMMUNITY HOSPITAL INC,805 FRIENDSHIP ROAD,TALLASSEE,36078,ELMORE,3342836541
10050,ST VINCENTS BLOUNT,987 DRAYTON STREET,ONEONTA,35121,BLOUNT,2052743000
10108,PRATTVILLE BAPTIST HOSPITAL,124 S MEMORIAL DR,PRATTVILLE,36067,AUTAUGA,3343614267
10021,DALE MEDICAL CENTER,126 HOSPITAL AVE,OZARK,36360,DALE,3347742601
10022,CHEROKEE MEDICAL CENTER,400 NORTHWOOD DR,CENTRE,35960,CHEROKEE,2569275531
10021,DALE MEDICAL CENTER,126 HOSPITAL AVE,OZARK,36360,DALE,3347742601
10016,SHELBY BAPTIST MEDICAL CENTER,1000 FIRST STREET NORTH,ALABASTER,35007,SHELBY,2056208100
10023,BAPTIST MEDICAL CENTER SOUTH,849 SOUTH THREE NOTCH STREET,MONTGOMERY,36116,MONTGOMERY,3342882100
10027,ELBA GENERAL HOSPITAL,849 SOUTH THREE NOTCH STREET,ELBA,36323,COFFEE,3348972257
10016,,1912 ALABAMA HIGHWAY 157,,35058,CULLMAN,2567372000
10023,BAPTIST MEDICAL CENTER SOUTH,2105 EAST SOUTH BOULEVARD,MONTGOMERY,35570,MONTGOMERY,3342882100
10046,RIVERVIEW REGIONAL MEDICAL CENTER,600 SOUTH THIRD STREET,GADSDEN,35901,ETOWAH,2565435200
10016,SHELBY BAPTIST MEDICAL CENTER,1000 FIRST STREET NORTH,ALABASTER,35007,SHELBY,2056208100
10022,CHEROKEE MEDICAL CENTER,400 NORTHWOOD DR,CENTRE,35960,CHEROKEE,2569275531
10019,HELEN KELLER MEMORIAL HOSPITAL,1300 SOUTH MONTGOMERY AVENUE,SHEFFIELD,35660,JEFFERSON,2563864556
10029,SHELBY BAPTIST MEDICAL CENTER,1000 FIRST STREET NORTH,ALABASTER,35007,SHELBY,2056208100
10015,SOUTHWEST ALABAMA MEDICAL CENTER,33700 HIGHWAY 43,THOMASVILLE,36784,CLARKE,3346366221
10018,CALLAHAN EYE FOUNDATION HOSPITAL,1720 UNIVERSITY BLVD,BIRMINGHAM,35233,JEFFERSON,2053258100
10158,RUSSELLVILLE HOSPITAL,4800 48TH ST,RUSSELLVILLE,35653,FRANKLIN,2563321611
10018,CALLAHAN EYE FOUNDATION HOSPITAL,1720 UNIVERSITY BLVD,BIRMINGHAM,35233,JEFFERSON,2053258100
10047,GEORGIANA HOSPITAL,515 MIRANDA ST,GEORGIANA,36033,BUTLER,3343762205
10005,MARSHALL MEDICAL CENTER SOUTH,2505 U S HIGHWAY 431 NORTH,BOAZ,35957,MARSHALL,2565938310
10055,FLOWERS HOSPITAL,4370 WEST MAIN STREET,DOTHAN,36305,HOUSTON,3347935000
10039,HUNTSVILLE HOSPITAL,101 SIVLEY RD,HUNTSVILLE,35801,MADISON,2562651000
10038,STRINGFELLOW MEMORIAL HOSPITAL,301 EAST 18TH ST,ANNISTON,36201,CALHOUN,2562358900
10032,WEDOWEE HOSPITAL,209 NORTH MAIN STREET,WEDOWEE,36278,RANDOLPH,2563572111
10033,UNIVERSITY OF ALABAMA HOSPITAL,619 SOUTH 19TH STREET,BIRMINGHAM,35233,JEFFERSON,2054877736
10001,SOUTHEAST ALABAMA MEDICAL CENTER,1108 ROSS CLARK CIRCLE,DOTHAN,36302,HOUSTON,3347938701
10034,COMMUNITY HOSPITAL INC,805 FRIENDSHIP ROAD,TALLASSEE,36078,BLOUNT,3342836541
10012,DEKALB REGIONAL MEDICAL CENTER,200 MED CENTER DRIVE,FORT PAYNE,35968,DE KALB,2568453150
10019,HELEN KELLER MEMORIAL HOSPITAL,1300 SOUTH MONTGOMERY AVENUE,SHEFFIELD,35660,JEFFERSON,2563864556
10047,GEORGIANA HOSPITAL,515 MIRANDA ST,GEORGIANA,36033,BUTLER,3343762205
10033,UNIVERSITY OF ALABAMA HOSPITAL,619 SOUTH 19TH STREET,BIRMINGHAM,35058,JEFFERSON,2059344011
10044,MARION REGIONAL MEDICAL CENTER,1256 MILITARY STREET SOUTH,HAMILTON,35570,MARION,2059216200
10023,BAPTIST MEDICAL CENTER SOUTH,2105 EAST SOUTH BOULEVARD,MONTGOMERY,36116,MONTGOMERY,3342882100
10040,GADSDEN REGIONAL MEDICAL CENTER,1007 GOODYEAR AVENUE,GADSDEN,35903,ETOWAH,2564944000
10015,SOUTHWEST ALABAMA MEDICAL CENTER,33700 HIGHWAY 43,THOMASVILLE,36784,DALE,3346366221
10001,SOUTHEAST ALABAMA MEDICAL CENTER,1108 ROSS CLARK CIRCLE,DOTHAN,36302,HOUSTON,3347938701
10023,BAPTIST MEDICAL CENTER SOUTH,2105 EAST SOUTH BOULEVARD,MONTGOMERY,36116,MONTGOMERY,3342882100
10033,UNIVERSITY OF ALABAMA HOSPITAL,619 SOUTH 19TH STREET,BIRMINGHAM,35233,JEFFERSON,2059344011
10043,CHILTON MEDICAL CENTER,1010 LAY DAM ROAD,MONTGOMERY,35045,CHILTON,2057552500
10038,STRINGFELLOW MEMORIAL HOSPITAL,301 EAST 18TH ST,ANNISTON,36201,CALHOZN,2562358900
10029,EAST ALABAMA MEDICAL CENTER AND SNF,301 EAST 18TH ST,OPELIKA,36801,LEE,3347493411
10086,NORTHWEST MEDICAL CENTER,1530 U S HIGHWAY 43,WINFIELD,35594,MARION,3346366221
10086,NORTHWEST MEDICAL CENTER,1530 U S HIGHWAY 43,WINFIELD,35594,MARION,2054877736
10056,ST VINCENTS HOSPITAL,2105 EAST SOUTH BOULEVARD,BIRMINGHAM,35205,JEFFERSON,2059397000
10038,STRINGFELLOW MEMORIAL HOSPITAL,301 EAST 18TH ST,ANNISTON,36201,CALHOUN,2562358900
10036,ANDALUSIA REGIONAL HOSPITAL,849 SOUTH THREE NOTCH STREET,ANDALUSIA,36420,COVINGTON,3342228466
10023,DEKALB REGIONAL MEDICAL CENTER,2105 EAST SOUTH BOULEVARD,MONTGOMERY,36116,MONTGOMERY,3342882100
10034,COMMUNITY HOSPITAL INC,805 FRIENDSHIP ROAD,TALLASSEE,36078,ELMORE,3342836541
10055,FLOWERS HOSPITAL,150 GILBREATH DRIVE,DOTHAN,36305,HOUSTON,3347935000
10029,EAST ALABAMA MEDICAL CENTER AND SNF,2000 PEPPERELL PARKWAY,OPELIKA,36801,LEE,3347493411
10016,SHELBY BAPTIST MEDICAL CENTER,1000 FIRST STREET NORTH,ALABASTER,35007,SHELBY,9072761131
10019,RIVERVIEW REGIONAL MEDICAL CENTER,1300 SOUTH MONTGOMERY AVENUE,SHEFFIELD,35660,JEFFERSON,2563864556
10040,GADSDEN REGIONAL MEDICAL CENTER,1007 GOODYEAR AVENUE,GADSDEN,35903,ETOWAH,2564944000
10012,DEKALB REGIONAL MEDICAL CENTER,200 MED CENTER DRIVE,FORT PAYNE,35968,DE KALB,2568453150
10033,UNIVERSITY OF ALABAMA HOSPITAL,619 SOUTH 19TH STREET,BIRMINGHAM,35233,JEFFERSON,2059344011
10046,RIVERVIEW REGIONAL MEDICAL CENTER,600 SOUTH THIRD STREET,GADSDEN,35901,ETOWAH,2565435200
20017,ALASKA REGIONAL HOSPITAL,2801 DEBARR ROAD,ANCHORAGE,35801,ANCHORAGE,9072761131
10108,PRATTVILLE BAPTIST HOSPITAL,1725 PINE STREET,PRATTVILLE,36067,AUTAUGA,3343614267
10011,ST VINCENT'S EAST,50 MEDICAL PARK EAST DRIVE,BIRMINGHAM,35235,JEFFERSON,2058383122
10021,DALE MEDICAL CENTER,126 HOSPITAL AVE,OZARK,36360,DALE,3347742601
10007,DEKALB REGIONAL MEDICAL CENTER,702 N MAIN ST,OPP,36467,COVINGTON,3344933541
10039,HUNTSVILLE HOSPITAL,101 SIVLEY RD,HUNTSVILLE,35801,MADISON,2562651000
10010,MARSHALL MEDICAL CENTER NORTH,8000 ALABAMA HIGHWAY 69,GUNTERSVILLE,35976,MARSHALL,2564944000
10010,MARSHALL MEDICAL CENTER NORTH,8000 ALABAMA HIGHWAY 69,GUNTERSVILLE,35976,MARSHALL,2565718000
10012,DEKALB REGIONAL MEDICAL CENTER,200 MED CENTER DRIVE,BIRMINGHAM,35968,DE KALB,2568453150
10045,FAYETTE MEDICAL CENTER,1653 TEMPLE AVENUE NORTH,FAYETTE,35555,FAYETTE,2059325966
10018,CALLAHAN EYE FOUNDATION HOSPITAL,1720 UNIVERSITY BLVD,BIRMINGHAM,35233,JEFFERSON,2053258100
10006,ELIZA COFFEE MEMORIAL HOSPITAL,400 NORTHWOOD DR,FLORENCE,35631,LAUDERDALE,2567688400
10049,MEDICAL CENTER ENTERPRISE,400 N EDWARDS STREET,ENTERPRISE,35640,COFFEE,3343470584
10027,ELBA GENERAL HOSPITAL,301 EAST 18TH ST,ELBA,36323,COFFEE,3348972257
10033,UNIVERSITY OF ALABAMA HOSPITAL,8000 ALABAMA HIGHWAY 69,BIRMINGHAM,35233,JEFFERSON,2059344011
10010,MARSHALL MEDICAL CENTER NORTH,8000 ALABAMA HIGHWAY 69,GUNTERSVILLE,35976,MARSHALL,2565718000
10045,FAYETTE MEDICAL CENTER,1653 TEMPLE AVENUE NORTH,FAYETTE,35555,CHEROKEE,2059325966
10055,FLOWERS HOSPITAL,4370 WEST MAIN STREET,DOTHAN,36305,HOUSTON,3347935000
10034,STRINGFELLOW MEMORIAL HOSPITAL,301 EAST 18TH ST,ANNISTON,36201,CALHOUN,2562358900
10005,MARSHALL MEDICAL CENTER SOUTH,2505 U S HIGHWAY 431 NORTH,BOAZ,36305,MARSHALL,2565938310
10034,COMMUNITY HOSPITAL INC,805 FRIENDSHIP ROAD,TALLASSEE,36078,ELMORE,3342836541
10009,HARTSELLE MEDICAL CENTER,201 PINE STREET NORTHWEST,HARTSELLE,35640,MORGAN,2567736511
10047,GEORGIANA HOSPITAL,515 MIRANDA ST,BIRMINGHAM,36033,BUTLER,3343762205
10022,CHEROKEE MEDICAL CENTER,400 NORTHWOOD DR,CENTRE,35960,CHEROKEE,2059216200
10056,ST VINCENTS HOSPITAL,810 ST VINCENTS DRIVE,BIRMINGHAM,36067,JEFFERSON,2059397000
10047,GEORGIANA HOSPITAL,515 MIRANDA ST,GEORGIANA,36033,BUTLER,3343762205
10019,HELEN KELLER MEMORIAL HOSPITAL,1300 SOUTH MONTGOMERY AVENUE,SHEFFIELD,35660,JEFFERSON,2563864556
10032,WEDOWEE HOSPITAL,209 NORTH MAIN STREET,WEDOEEE,36278,RANDOLPH,2563572111
10049,MEDICAL CENTER ENTERPRISE,400 N EDWARDS STREET,ENTERPRISE,36330,COFFEE,3342228466
10018,CALLAHAN EYE FOUNDATION HOSPITAL,1720 UNIVERSITY BLVD,BIRMINGHAM,35233,COFFEE,2053258100
10011,ST VINCENT'S EAST,50 MEDICAL PARK EAST DRIVE,BIRMINGHAM,35235,JEFFERSON,2058383122
10016,SHELBY BAPTIST MEDICAL CENTER,1000 FIRST STREET NORTH,ALABASTER,35007,SHELBY,2056208100
10023,BAPTIST MEDICAL CENTER SOUTH,2105 EAST SOUTH BOULEVARD,MONTGOMERY,36116,CRENSHAW,3342882100
10032,WEDOWEE HOSPITAL,209 NORTH MAIN STREET,WEDOWEE,36278,RANDOLPH,2563572111
10034,COMMUNITY HOSPITAL INC,805 FRIENDSHIP ROAD,TALLASSEE,36078,ELMORE,3342836541
10021,DALE MEDICAL CENTER,126 HOSPITAL AVE,OZARK,36360,DALE,3347742601
10006,MARSHALL MEDICAL CENTER NORTH,8000 ALABAMA HIGHWAY 69,GUNTERSVILLE,35976,MARSHALL,2565718000
10027,MARSHALL MEDICAL CENTER SOUTH,2505 U S HIGHWAY 431 NORTH,BOAZ,35957,MARSHALL,2565938310
10086,NORTHWEST MEDICAL CENTER,1530 U S HIGHWAY 43,WINFIELD,35594,MARION,2054877736
10040,GADSDEN REGIONAL MEDICAL CENTER,1007 GOODYEAR AVENUE,GADSDEN,35903,ETOWAH,2564944000
10011,ST VINCENT'S EAST,50 MEDICAL PARK EAST DRIVE,BIRMINGHAM,35235,JEFFERSON,2058383122
0,GEORGIANA HOSPITAL,,GEORGIANA,36033,BUTLER,3343762205
10025,MIZELL MEMORIAL HOSPITAL,4800 48TH ST,VALLEY,36854,CHAMBERS,3347561400
10047,GEORGIANA HOSPITAL,515 MIRANDA ST,GEORGIANA,36033,BUTLER,3343762205
10045,FAYETTE MEDICAL CENTER,1653 TEMPLE AVENUE NORTH,FAYETTE,35555,FAYETTE,2059325966
10018,CALLAHAN EYE FOUNDATION HOSPITAL,1720 UNIVERSITY BLVD,BIRMINGHAM,35233,JEFFERSON,2053258100
10023,BAPTIST MEDICAL CENTER SOUTH,2105 EAST SOUTH BOULEVARD,MONTGOMERY,36116,MONTGOMERY,3342882100
10012,DEKALB REGIONAL MEDICAL CENTER,200 MED CENTER DRIVE,SYLACAUGA,35968,DE KALB,2568453150
10043,CHILTON MEDICAL CENTER,1010 LAY DAM ROAD,CLANTON,35045,CHILTON,2057552500
10033,UNIVERSITY OF ALABAMA HOSPITAL,619 SOUTH 19TH STREET,VIRMINGHAM,35233,JEFFERSON,2059344011
10038,STRINGFELLOW MEMORIAL HOSPITAL,301 EAST 18TH ST,ANNISTON,36201,CALHOUN,2056208100
10039,HUNTSVILLE HOSPITAL,101 SIVLEY RD,HUNTSVILLE,35801,MADISON,2562651000
10033,UNIVERSITY OF ALABAMA HOSPITAL,619 SOUTH 19TH STREET,BIRMINGHAM,35233,JEFFERSON,2059325966
10038,STRINGFELLOW MEMORIAL HOSPITAL,301 EAST 18TH ST,ANNISTON,36201,CULLMAN,2562358900
10029,EAST ALABAMA MEDICAL CENTER AND SNF,2000 PEPPERELL PARKWAY,OPELIKA,36801,LEE,3347493411
10009,HARTSELLE MEDICAL CENTER,201 PINE STREET NORTHWEST,HARTSELLE,35640,MORGAN,2567736511
10011,ST VINCENT'S EAST,50 MEDICAL PARK EAST DRIVE,BIRMINGHAM,35235,JEFFERSON,2058383122
10005,MARSHALL MEDICAL CENTER SOUTH,2505 U S HIGHWAY 431 NORTH,BOAZ,35957,MARSHALL,2565938310
10034,COMMUNITY HOSPITAL INC,1108 ROSS CLARK CIRCLE,TALLASSEE,36078,ELMORE,3342836541
20017,ALASKA REGIONAL HOSPITAL,2801 DEBARR ROAD,ANCHORAGE,99508,ANCHORAGE,9072761131
10025,G H LANIER MEMORIAL HOSPITAL,4800 48TH ST,VALLEY,36854,CHAMBERS,3347561400
10039,HARTSELLE MEDICAL CENTER,101 SIVLEY RD,HUNTSVILLE,35801,MADISON,2562651000
10012,DEKALB REGIONAL MEDICAL CENTER,200 MED CENTER DRIVE,FORT PAYNE,35968,DE KALB,2568453150
10010,MARSHALL MEDICAL CENTER NORTH,8000 ALABAMA HIGHWAY 69,GUNTERSVILLE,35976,MARSHALL,2565718000
10024,JACKSON HOSPITAL & CLINIC INC,1725 PINE STREET,MONTGOMERY,36106,MONTGOMERY,3342938000
10043,CHILTON MEDICAL CENTER,1010 LAY DAM ROAD,CLANTON,35045,CHILTON,2057552500
10029,EAST ALABAMA MEDICAL CENTER AND SNF,2000 PEPPERELL PARKWAY,ANNISTON,36801,LEE,3347493411
10034,COMMUNITY HOSPITAL INC,805 FRIENDSHIP ROAD,TALLASSEE,36078,BLOUNT,3342836541
10164,COOSA VALLEY MEDICAL CENTER,315 W HICKORY ST,SYLACAUGA,35150,TALLADEGA,2562495000
10023,BAPTIST MEDICAL CENTER SOUTH,2105 EAST SOUTH BOULESARD,MONTGOMERY,36116,MONTGOMERY,3342882100
10039,HUNTSVILLE HOSPITAL,101 SIVLEY RD,HUNTSVILLE,35631,MADISON,2562651000
10019,MARSHALL MEDICAL CENTER SOUTH,2505 U S HIGHWAY 431 NORTH,BOAZ,35957,MARSHALL,2565938310
10025,G H LANIER MEMORIAL HOSPITAL,4800 48TH ST,VALLEY,36854,CHAMBERS,3347561400
10008,CRENSHAW COMMUNITY HOSPITAL,101 HOSPITAL CIRCLE,LUVERNE,36049,CRENSHAW,3343353374
10010,MARSHALL MEDICAL CENTER NORTH,209 NORTH MAIN STREET,GUNTERSVILLE,35976,MARSHALL,2565718000
10055,FLQWERS HOSPITAL,4370 WEST MAIN STREET,DOTHAN,36305,HOUSTON,3347935000
10086,NORTHWEST MEDICAL CENTER,1530 U S HIGHWAY 43,WINFIELD,35960,MARION,2054877736
10164,COOSA VALLEY MEDICAL CENTER,315 W HICKORY ST,SYLACAUGA,35150,TALLADEGA,2562495000
10022,CHEROKEE MEDICAL CENTER,400 NORTHWOOD DR,CENTRE,35960,CHEROKEE,2569275531
10024,JACKSON HOSPITAL & CLINIC INC,1725 PINE STREET,MONTGOMERY,36106,MONTGOMERY,3342938000
10029,EAST ALABAMA MEDICAL CENTER AND SNF,2000 PEPPERELL PARKWAY,OPELIKA,36801,LEE,3347493411
10019,HELEN KELLER MEMORIAL HOSPITAL,1300 SOUTH MONTGOMERY AVENUE,SHEFFIELD,35660,JEFFERSON,2563864556
10044,MARSHALL MEDICAL CENTER SOUTH,1256 MILITARY STREET SOUTH,HAMILTON,35570,MARION,2059216200
10009,HARTSELLE MEDICAL CENTER,201 PINE STREET NORTHWEST,HARTSELLE,35235,MORGAN,2567736511
10044,MARION REGIONAL MEDICAL CENTER,1256 MILITARY STREET SOUTH,HAMILTON,36067,MARION,2059216200
10001,HARTSELLE MEDICAL CENTER,201 PINE STREET NORTHWEST,HARTSELLE,35640,MORGAN,2567736511
10015,SOUTHWEST ALABAMA MEDICAL CENTER,33700 HIGHWAY 43,THOMASVILLE,36784,CLARKE,3346366221
10047,GEORGIANA HOOPITAL,515 MIRANDA ST,GEORGIANA,36033,BUTLER,3343762205
10015,ST VINCENT'S EAST,33700 HIGHWAY 43,THOMASVILLE,36784,CLARKE,3346366221
10011,ST VINCENT'S EAST,50 MEDICAL PARK EAST DRIVE,BIRMINGHAM,35235,JEFFERSON,2058383122
10024,JACKSON HOSPITAL & CLINIC INC,1725 PINE STREET,MONTGOMERY,36106,MONTGOMERY,3342938000
10023,BAPTIST MEDICAL CENTER SOUTH,2105 EAST SOUTH BOULEVARD,MONTGOMERY,36116,MONTGOMERY,3342882100
10023,BAPTIST MEDICAL CENTER SOUTH,2105 EAST SOUTH BOULEVARD,WEDOWEE,36116,MONTGOMERY,3342882100
10035,CHEROKEE MEDICAL CENTER,1912 ALABAMA HIGHWAY 157,CULLMAN,35058,CULLMAN,2567372000
10039,HUNTSVILLE HOSPITAL,1725 PINE STREET,HUNTSVILLE,35801,MADISON,2562651000
10036,ANDALUSIA REGIONAL HOSPITAL,849 SOUTH THREE NOTCH STREET,ANDALUSIA,36420,COVINGTON,2565938310
10019,HELEN KELLER MEMORIAL HOSPITAL,1300 SOUTH MONTGOMERY AVENUE,SHEFFIELD,35660,JEFFERSON,2563864556
10010,MARSHALL MEDICAL CENTER NORTH,8000 ALABAMA HIGHWAY 69,GUNTERSVILLE,35976,MARSHALL,2565718000
10086,NORTHWEST MEDICAL CENTER,1530 U S HIGHWAY 43,WINFIELD,35594,MARION,2054877736
10046,RIVERVIEW REGIONAL MEDICAL CENTER,600 SOUTH THIRD STREET,GADSDEN,35901,ETOWAH,2565435200
10049,MEDICAL CENTER ENTERPRISE,400 N EDWARDS STREET,ENTERPRISE,36330,COFFEE,3343470584
10022,CHEROKEE MEDICAL CENTER,400 NORTHWOOD DR,CENTRE,35960,CHEROKEE,2569275531
10087,UNIV OF SOUTH ALABAMA MEDICAL CENTER,2451 FILLINGIM STREET,MOBILE,36617,MOBILE,2514717110
10018,CALLAHAN EYE FOUNDATION HOSPITAL,1720 UNIVERSITY BLVD,BIRMINGHAM,35233,JEFFERSON,2053258100
10029,FLOWERS HOSPITAL,2000 PEPPERELL PARKWAY,OPELIKA,36801,LEE,3347493411
10025,G H LANIER MEMORIAL HOSPITAL,4800 48TH ST,VALLEY,36854,CHAMBERS,3347561400
10006,ELIZA COFFEE MEMORIAL HOSPITAL,205 MARENGO STREET,FLORENCE,35631,LAUDERDALE,2567688400
10033,UNIVERSITY OF ALABAMA HOSPITAL,619 SOUTH 19TH STREET,GEORGIANA,35233,JEFFERSON,2059344011
10010,MARSHALL MEDICAL CENTER NORTH,8000 ALABAMA HIGHWAY 69,GUNTERSVILLE,35976,MARSHALL,2565718000
10032,WEDOWEE HOSPITAL,209 NORTH MAIN STREET,WEDOWEE,36278,RANDOLPH,2563572111
10034,COMMUNITY HOSPITAL INC,805 FRIENDSHIP ROAD,TALLASSEE,36078,ELMORE,3342836541
10040,GADSDEN REGIONAL MEDICAL CENTER,1007 GOODYEAR AVENUE,GADSDEN,35903,ETOWAH,2564944000
10007,MIZELL MEMORIAL HOSPITAL,702 N MAIN UT,OPP,36467,COVINGTON,3344933541
10023,BAPTIST MEDICAL CENTER SOUTH,2105 EAST SOUTH BOULEVARD,MONTGOMERY,36116,MONTGOMERY,3342882100
10036,ANDALUSIA REGIONAL HOSPITAL,849 SOUTH THREE NOTCH STREET,ANDALUSIA,36420,COVINGTON,3346366221
10009,UNIVERSITY OF ALABAMA HOSPITAL,201 PINE STREET NORTHWEST,HARTSELLE,35640,MORGAN,2567736511
10046,RIVERVIEW REGIONAL MEDICAL CENTER,600 SOUTH THIRD STREET,GADSDEN,35901,ETOWAH,2565435200
10024,JACKSON HOSPITAL & CLINIC INC,1725 PINE STREET,MONTGOMERY,35901,MONTGOMERY,3342938000
10086,NORTHWEST MEDICAL CENTER,1530 U S HIGHWAY 43,WINFIELD,35594,MARION,2054877736
10034,COMMUNITY HOSPITAL INC,805 FRIENDSHIP ROAD,TALLASSEE,36078,ELMORE,3342836541
10005,MARSHALL MEDICAL CENTER SOUTH,2505 U S HIGHWAY 431 NORTH,BOAZ,35957,MARSHALL,2565938310
10033,UNIVERSITY OF ALABAMA HOSPITAL,619 SOUTH 19TH STREET,BIRMINGHAM,35233,JEFFRRSON,2059344011
10027,ELBA GENERAL HOSPITAL,987 DRAYTON STREET,HARTSELLE,36323,COFFEE,3348972257
10047,GEORGIANA HOSPITAL,126 HOSPITAL AVE,GEORGIANA,36033,BUTLER,3343762205
10043,CHILTON MEDICAL CENTER,1010 LAY DAM ROAD,CLANTON,35045,CHILTON,2057552500
10006,ELIZA COFFEE MEMORIAL HOSPITAL,205 MARENGO STREET,FLORENCE,35631,LAUDERDALE,2567688400
10036,ANDALUSIA REGIONAL HOSPITAL,849 SOUTH THREE NOTCH STREET,ANDALUSIA,36420,COVINGTON,3342228466
10049,MEDICAL CENTER ENTERPRISE,400 N EDWARDS STREET,ENTERPRISE,36330,COFFEE,3343470584
10049,ELBA GENERAL HOSPITAL,987 DRAYTON STREET,ELBA,36323,COFFEE,3348972257
10044,MARION REGIONAL MEDICAL CENTER,1256 MILITARY STREET SOUTH,HAMILTON,35570,MARION,2059216200
10045,FAYETTE MEDICAL CENTER,1653 TEMPLE AVENUE NORTH,FAYETTE,35555,FAYETTE,2059325966
10086,NORTHWEST MEDICAL CENTER,1530 U S HIGHWAY 43,WINFIELD,35594,MARION,2054877736
20017,ALASKA REGIONAL HOSPITAL,2801 DEBARR ROAD,ANCHORAGE,99508,CULLMAN,9072761131
10040,GADSDEN REGIONAL MEDICAL CENTER,1007 GOODYEAR AVENUE,GADSDEN,35903,ETOWAH,2564944000
10055,FLOWERS HOSPITAL,4370 WEST MAIN STREET,DOTHAN,36305,HOUYTON,3347935000
10018,CALLAHAN EYE FOUNDATION HOSPITAL,1720 UNIVERSITY BLVD,BIRMINGHAM,35233,JEFFERSON,2053258100
10032,WEDOWEE HOSPITAL,209 NORTH MAIN STREET,WEDOWEE,36278,RANDOLPH,2563572111
10047,GEORGIANA HOSPITAL,515 MIRANDA ST,GEORGIANA,36033,BUTLER,3343762205
10044,ST VINCENT'S EAST,50 MEDICAL PARK EAST DRIVE,BIRMINGHAM,35235,JEFFERSON,2058383122
10047,GEORGIANA HOSPITAL,515 MIRANDA ST,GEORGIANA,36033,BUTLER,2562651000
10045,FAYETTE MEDICAL CENTER,1653 TEMPLE AVENUE NORTH,FAYETTE,35007,FAYETTE,2059325966
10022,CHEROKEE MEDICAL CENTER,400 NORTHWOOD DR,CENTRE,35960,CHEROKEE,2569275531
10038,STRINGFELLOW MEMORIAL HOSPITAL,301 EAST 18TH ST,ANNISTON,36201,CALHOUN,2562358900
10043,CHILTON MEDICAL CENTER,1010 LAY DAM ROAD,CLANTON,35045,CHILTON,2057552500
10012,DEKALB REGIONAL MEDICAL CENTER,200 MED CENTER DRIVE,FORT PAYNE,35968,DE KALB,2568453150
10006,COMMUNITY HOSPITAL INC,805 FRIENDSHIP ROAD,TALLASSEE,36078,ELMORE,3342836541
10035,CULLMAN REGIONAL MEDICAL CENTER,1912 ALABAMA HIGHWAY 157,CULLMMN,35058,CULLMAN,2567372000
10050,ST VINCENTS BLOUNT,150 GILBREATH DRIVE,ONEONTA,35121,BLOUNT,2052743000
10036,ANDALUSIA REGIONAL HOSPITAL,849 SOUTH THREE NOTCH STREET,ANDALUSIA,36420,COVINGTON,3342228466
10046,RIVERVIEW REGIONAL MEDICAL CENTER,600 SOUTH THIRD STREET,GADSDEN,35901,ETOWAH,2059216200
10038,,,MONTGOMERY,36116,MONTGOMERY,3342882100
10087,UNIV OF SOUTH ALABAMA MEDICAL CENTER,150 GILBREATH DRIVE,MOBILE,36617,MOBILE,2514717110
10009,ST VINCENTS BLOUNT,201 PINE STREET NORTHWEST,HARTSELLE,35640,MORGAN,2567736511
10045,FAYETTE MEDICAL CENTER,1653 TEMPLE AVENUE NORTH,FAYETTE,35555,FAYETTE,2059325966
10164,COOSA VALLEY MEDICAL CENTER,315 W HICKORY ST,SYLACAUGA,35150,TALLADEGA,2562495000
10038,STRINGFELLOW MEMORIAL HOSPITAL,301 EAST 18TH ST,ANNISTON,36201,CALHOUN,2562358900
10027,ELBA GENERAL HOSPITAL,987 DRAYTON STREET,WINFIELD,36323,COFFEE,3348972257
10015,SOUTHWEST ALABAMA MEDICAL CENTER,33700 HIGHWAY 43,THOMASVILLE,36784,CLARKE,3346366221
10044,CRENSHAW COMMUNITY HOSPITAL,101 HOSPITAL CIRCLE,LUVERNE,36049,,3343353374
10010,MARSHALL MEDICAL CENTER NORTH,8000 ALABAMA HIGHWAY 69,GUNTERSVILLE,35976,MARSHALL,2565718000
10005,MARSHALL MEDICAL CENTER SOUTH,2505 U S HIGHWAY 431 NORTH,BOAZ,35957,MARSHALL,2565938310
10006,ELIZA COFFEE MEMORIAL HOSPITAL,205 MARENGO STREET,FLORENCE,35631,LAUDERDALE,2567688400
10035,CULLMAN REGIONAL MEDICAL CENTER,1912 ALABAMA HIGHWAY 157,CULLMAN,35058,FAYETTE,2567372000
10043,CHILTON MEDICAL CENTER,1010 LAY DAM ROAD,CLANTON,35045,CHILTON,2057552500
10011,ST VINCENT'S EAST,50 MEDICAL PARK EAST DRIVE,BIRMINGHAM,35235,JEFFERSON,2058383122
10019,HELEN KELLER MEMORIAL HOSPITAL,1300 SOUTH MONTGOMERY AVENUE,SHEFFIELD,35660,JEFFERSON,2563864556
10086,NORTHWEST MEDICAL CENTER,1530 U S HIGHWAY 43,WINFIELD,35594,MARION,2054877736
10047,GEORGIANA HOSPITAL,515 MIRANDA ST,GEORGIANA,36033,BUTLER,3343762205
10033,UNIVERSITY OF ALABAMA HOSPITAL,619 SOUTH 19TH STREET,BIRMINGHAM,35233,COFFEE,2059344011
10016,SHELBY BAPTIST MEDICAL CENTER,1000 FIRST STREET NORTH,ONEONTA,35007,SHELBY,2056208100
10019,HELEN KELLER MEMORIAL HOSPITAL,1300 SOUTH MONTGOMERY AVENUE,SHEFFIELD,35660,LEE,2563864556
10011,ST VINCENT'S EAST,50 MEDICAL PARK EAST DRIVE,BIRMINGHAM,35235,JEFFERSON,2058383122
10015,SOUTHWEST ALABAMA MEDICAL CENTER,33700 HIGHWAY 43,THOMASVILLE,36784,CLARKE,3346366221
10087,UNIV OF SOUTH ALABAMA MEDICAL CENTER,2451 FILLINGIM STREET,MOBILE,36617,MOBILE,2514717110
10007,MIZELL MEMORIAL HOSPITAL,702 N MAIN ST,OPP,36467,COVINGTON,3344933541
10007,PRATTVILLE BAPTIST HOSPITAL,124 S MEMORIAL DR,PRATTVILLE,36067,AUTAUGA,3343614267
10025,G H LANIER MEMORIAL HOSPITAL,4800 48TH ST,VALLEY,36854,CHAMBERS,3347561400
10024,JACKSON HOSPITAL & CLINIC INC,1725 PINE STREET,MONTGOMERY,36106,MONTGOMERY,3342938000
10039,CHEROKEE MEDICAL CENTER,101 SIVLEY RD,HUNTSVILLE,35801,MADISON,2562651000
10158,RUSSELLVILLE HOSPITAL,15155 HIGHWAY 43,RUSSELLVILLE,35653,FRANKLIN,2563321611
10016,SHELBY BAPTIST MEDICAL CENTER,1000 FIRST STREET NORTH,ALABASTER,35007,SHELBY,2056208100
10038,STRINGFELLOW MEMORIAL HOSPITAL,301 EAST 18TH ST,ANNISTON,36278,CALHOUN,2562358900
10047,GEORGIANA HOSPITAL,515 MIRANDA ST,GEORGIANA,36033,LEE,3343762205
10087,UNIV OF SOUTH ALABAMA MEDICAL CENTER,2451 FILLINGIM STREET,MOAILE,36617,MOBILE,2514717110
10011,ST VINCENT'S EAST,50 MEDICAL PARK EAST DRIVE,BIRMINGHAM,35235,JEFFERSON,2058383122
20017,ALASKA REGIONAL HOSPITAL,2801 DEBARR ROAD,ANCHORAGE,99508,ANCHORAGE,9072761131
10040,GADSDEN REGIONAL MEDICAL CENTER,1007 GOODYEAR AVENUE,GADSDEN,35903,ETOWAH,2564944000
10012,DEKALB REGIONAL MEDIZAL CENTER,200 MED CENTER DRIVE,FORT PAYNE,35968,DE KALB,2568453150
10005,MARSHALL MEDICAL CENTER SOUTH,2505 U S HIGHWAY 431 NORTH,BOAZ,35957,MARSHALL,2565938310
10038,STRINGFELLOW MEMORIAL HOSPITAL,301 EAST 18TH ST,ANNISTON,36201,CALHOUN,2562358900
10055,FLOWERS HOSPITAL,4370 WEST MAIN STREET,DOTHAN,36305,HOUSTON,3347935000
10032,WEDOWEE HOSPITAL,209 NORTH MAIN STREET,WEDOWEE,36278,RANDOLPH,2563572111
10019,HELEN KELLER MEMORIAL HOSPITAL,1300 SOUTH MONTGOMERY AVENUE,SHEFFIELD,35660,LEE,2563864556
10108,PRATTVILLE BAPTIST HOSPITAL,124 S MEMORIAL DR,PRATTVILLE,36067,AUTAUGA,3343614267
10009,HARTSELLE MEDICAL CENTER,201 PINE STREET NORTHWEST,HARTSELLE,35640,MORGAN,2567736511
10164,COOSA VALLEY MEDICAL CENTER,315 W HICKORY ST,SYLACAUGA,35150,TALLADEGA,2562495000
10032,WEDOWEE HOSPITAL,209 NORTH MAIN STREET,BOAZ,36278,RANDOLPH,2563572111
10086,NORTHWEST MEDICAL CENTER,1530 U S HIGHWAY 43,WINFIELD,35594,MARION,2054877736
10007,GADSDEN REGIONAL MEDICAL CENTER,1007 GOODYEAR AVENUE,,35903,ETOWAH,0
10035,CULLMAN REGIONAL MEDICAL CENTER,1912 ALABAMA HIGHWAY 157,CULLMAN,35058,CULLMAN,2567372000
10034,CHEROKEE MEDICAL CENTER,400 NORTHWOOD DR,CENTRE,0,CHEROKEE,2569275531
10025,G H LANIER MEMORIAL HOSPITAL,4800 48TH ST,VALLEY,35235,CHAMBERS,3347561400
10006,ELIZA COFFEE MEMORIAL HOSPITAL,2105 EAST SOUTH BOULEVARD,FLORENCE,35631,LAUDERDALE,2567688400
10044,MARION REGIONAL MEDICAL CENTER,1256 MILITARY STREET SOUTH,HAMILTON,35570,MARION,2059216200
10032,WEDOWEE HOSPITAL,209 NORTH MAIN SGREET,WEDOWEE,36278,RANDOLPH,2563572111
10035,ELBA GENERAL HOSPITAL,,ELBA,36323,COFFEE,3348972257
10022,CHEROKEE MEDICAL CENTER,408 NORTHWOOD DR,CENTRE,35960,CHEROKEE,2569275531
10021,DALE MEDICAL CENTER,126 HOSPITAL AVE,OZARK,36360,DALE,3347742601
10027,ELBA GENERAL HOSPITAL,987 DRAYTON STREET,DOTHAN,36323,COFFEE,3348972257
10047,GEORGIANA HOSPITAL,515 MIRANDA ST,GEORGIANA,36033,BUTLER,3343762205
10047,GEORGIANA HOSPITAL,805 FRIENDSHIP ROAD,GEORGIANA,36033,BUTLER,3343762205
10027,ELBA GENERAL HOSPITAL,987 DRAYTON STREET,ELBA,36323,COFFEE,3348972257
10009,HARTSELLE MEDICAL CENTER,201 PINE STREET NORTHWEST,HARTSELLE,35640,ANCHORAGE,2567736511
10049,,1530 U S HIGHWAY 43,WINFIELD,35594,,2054877736
0,ELIZA COFFEE MEMORIAL HOSPITAL,205 MARENGO STREET,FLORENCE,35631,LAUDERDALE,2567688400
10040,GADSDEN REGIONAL MEDICAL CENTER,1007 GOODYEAR AVENUE,GADSDEN,35903,ETOWAH,2564944000
10087,UNIV OF SOUTH ALABAMA MEDICAL CENTER,2451 FILLINGIM STREET,MOBILE,36617,MOBILE,2514717110
10019,HELEN KELLER MEMORIAL HOSPITAL,1300 SOUTH MONTGOMERY AVENUE,SHEFFIELD,35660,JEFFERSON,2563864556
10012,DEKALB REGIONAL MEDICAL CENTER,200 MED CENTER DRIVE,FORT PAYNE,35968,DE KALB,2568453150
10038,STRINGFELLOW MEMORIAL HOSPITAL,301 EAST 18TH ST,ANNISTON,36201,CALHOUN,2562358900
10018,CALLAHAN EYE FOUNDATION HOSPITAL,1720 UNIVERSITY BLVD,BIRMINGHAM,35233,JEFFERSON,2053258100
10022,CHEROKEE MEDICAL CENTER,400 NORTHWOOD DR,CENTRE,35960,CHEROKEE,3348972257
10023,BAPTIST MEDICAL CENTER SOUTH,2105 EAST SOUTH BOULEVARD,MONTGOMERY,36116,MONTGOMERY,3342882100
10016,SHELBY FAPTIST MEDICAL CENTER,1000 FIRST STREET NORTH,ALABASTER,35007,SHELBY,2056208100
10022,UNIV OF SOUTH ALABAMA MEDICAL CENTER,2451 FILLINGIM STREET,MOBILE,0,MOBILE,2514717110
10040,GADSDEN REGIONAL MEDICAL CENTER,1007 GOODYEAR AVENUE,GADSDEN,35903,MADISON,2564944000
10040,GADSDEN REGIONAL MEDICAL CENTER,1007 GOODYEAR AVENUE,GADSDEN,35903,ETOWAH,2564944000
10047,GEORGIANA HOSPITAL,515 MIRANDA ST,GEORGIANA,36033,BUTLER,3343762205
10025,G H LANIEG MEMORIAL HOSPITAL,4800 48TH ST,VALLEY,36854,CHAMBERS,3347561400
10056,PRATTVILLE BAPTIST HOSPITAL,124 S MEMORIAL DR,PRATTVILLE,36067,AUTAUGA,3343614267
10029,EAST ALABAMA MEDICAL CENTER AND SNF,2000 PEPPERELL PARKWAY,OPELIKA,36801,MARION,3347493411
10009,HARTSELLE MEDICAL CENTER,201 PINE STREET NORTHWEST,HARTSELLE,35640,MORGAN,2567736511
10015,SOUTHWEST ALABAMA MEDICAL CENTER,33700 HIGHWAY 43,THOMASVILLE,36784,CLARKE,3346366221
10009,HARTSELLE MEDICAL CENTER,201 PINE STREET NORTHWEST,HARTSELLE,35640,JEFFERSON,2567736511
10108,PRATTVILLE BAPTIST HOSPITAL,124 S MEMORIAL DR,PRATTVILLE,36330,AUTAUGA,3343614267
10046,RIVERVIEW REGIONAL MEDICAL CENTER,600 SOUTH THIRD STREET,GADSDEN,35901,ETOWAH,2565435200
10024,JACKSON HOSPITAL & CLINIC INC,1725 PINE STREET,MONTGOMERY,36106,MONTGOMERY,3342938000
10024,JACKSON HOSPITAL & CLINIC INC,1725 PINE STREET,MONTGOMERY,36106,MONTGOMERY,3342938000
10007,MIZELL MEMORIAL HOSPITAL,1108 ROSS CLARK CIRCLE,OPP,36467,COVINGTON,3344933541
10022,CHEROKEE MEDICAL CENTER,400 NORTHWOOD DR,GEORGIANA,35960,CHEROKEE,2569275531
10023,ELIZA COFFEE MEMORIAL HOSPITAL,2105 EAST SOUTH BOULEVARD,MONTGOMERY,36116,MONTGOMERY,3342882100
10022,CHEROKEE MEDICAL CENTER,400 NORTHWOOD DR,CENTRE,35960,CHEROKEE,2563572111
10023,BAPTIST MEDICAL CENTER SOUTH,2105 EAST SOUTH BOULEVARD,MONTGOMERY,36116,MONTGOMERY,3342882100
10087,UNIV OF SOUTH ALABAMA MEDICAL CENTER,2451 FILLINGIM STREET,MOBILE,36617,MOBILE,2514717110
10025,G H LANIER MEMORIAL HOSPITAL,4800 48TH ST,VALLEY,36854,CHAMBERS,3347561400
10050,WEDOWEE HOSPITAL,150 GILBREATH DRIVE,ONEONTA,35121,BLOUNT,2052743000
10036,ANDALUSIA REGIONAL HOSPITAL,849 SOUTH THREE NOTCH STREET,ANDALUSIA,36420,COVINGTON,3342228466
10047,GEORGIANA HOSPITAL,515 MIRANDA ST,FAYETTE,36033,BUTLER,3343762205
10018,CALLAHAN EYE FOUNDATION HOSPITAL,1720 UNIVERSITY BLVD,BIRMINGHAM,35233,JEFFERSON,2053258100
10012,DEKALB REGIONAL MEDICAL CENTER,200 MED CENTER DRIVE,FORT PAYNE,35968,DE KALB,2568453150
10086,NORTHWEST MEDICAL CENTER,1530 U S HIGHWAY 43,WINFIELD,35594,MARION,2054877736
10039,HUNTSVILLE HOSPITAL,101 SIVLEY RD,HUNTSVILLE,35801,MADISON,2562651000
10011,ST VINCENT'S EAST,50 MEDICAL PARK EAST DRIVE,BIRMINGHAM,35235,JEFFERSON,2058383122
10044,MARION REGIONAL MEDICAL CENTER,1256 MILITARY STREET SOUTH,HAMILTON,35570,MARION,2059216200
10027,ELBA GENERAL HOSPITAL,987 DRAYTON STREET,ELBA,35235,COFFEE,3348972257
10108,PRATTVILLE BAPTIST HOSPITAL,124 S MEMORIAL DR,PRATTVILLE,36067,LEE,3343614267
10010,MARSHALL MEDICAL CENTER NORTH,8000 ALABAMA HIGHWAY 69,GUNTERSVILLE,35976,MARSHALL,2565718000
10049,MEDICAL CENTER ENTERPRISE,400 N EDWARDS STREET,ENTERPRISE,36330,COFFEE,3343470584
10046,RIVERVIEW REGIONAL MEDICAL CENTER,126 HOSPITAL AVE,GADSDEN,35901,ETOWAH,2565435200
10008,CRENSHAW COMMUNITY HOSPITAL,101 HOSPITAL CIRCLE,LUVERNE,36049,CRENSHAW,3343353374
10012,DEKALB REGIONAL MEDICAL CENTER,200 MED CENTER DRIVE,FORT PAYNE,35968,DE KALB,2568453150
10038,STRINGFELLOW MEMORIAL HOSPIBAL,301 EAST 18TH ST,ANNISTON,36201,CALHOUN,2562358900
10019,HELEN KELLER MEMORIAL HOSPITAL,1300 SOUTH MONTGOMERY AVENUE,SHEFFIELD,35660,JEFFERSON,2563864556
10009,SHELBY BAPTIST MEDICAL CENTER,201 PINE STREET NORTHWEST,HARTSELLE,35640,MORGAN,2567736511
10027,,1010 LAY DAM ROAD,CLANTON,35045,CHILTON,2057552500
10012,DEKALB REGIONAL MEDICAL CENTER,200 MED CENTER DRIVE,FORT PAYNE,35968,DE KALB,2568453150
10021,DALE MEDICAL CENTER,126 HOSPITAL AVE,OZARK,36360,DALE,3347742601
10046,RIVERVIEW REGIONAL MEDICAL CENTER,600 SOUTH THIRD STREET,GADSDEN,35901,ETOWAH,2565435200
10040,GADSDEN REGIONAL MEDICAL CENTER,1007 GOODYEAR AVENUE,GADSDEN,35903,ETOWAH,2564944000
10016,SHELBY BAPTIST MEDICAL CENTER,1000 FIRST STREET NORTH,ALABASTER,35007,SHELBY,2056208100
10087,UNIV OF SOUTH ALABAMA MEDICAL CENTER,2451 FILLINGIM STREET,MOBIYE,36617,MOBILE,2514717110
10055,FLOWERS HOSPITAL,4370 WEST MAIN STREET,DOTHAN,36305,HOUSTON,2563572111
10023,BAPTIST MEDICAL CENTER SOUTH,2105 EAST SOUTH BOULEVARD,MONTGOMERY,36116,ELMORE,3342882100
10022,CHEROKEE MEDICAL CENTER,400 NORTHWOOD DR,CENTRE,35960,ETOWAH,2569275531
10005,MARSHALL MEDICAL CENTER SOUTH,2505 U S HIGHWAY 431 NORTH,BOAZ,35957,ANCHORAGE,2565938310
10055,FLOWERS HOSPITAL,205 MARENGO STREET,DOTHAN,36305,HOUSTON,3347935000
10055,FLOWERS HOSPITAL,4370 WEST MAIN STREET,DOTHAN,36305,HOUSTON,3347935000
10087,UNIV OF SOUTH ALABAMA MEDICAL CENTER,2451 FILLINGIM STREET,MOBILE,36617,MOBILE,2514717110
10008,CRENSHAW COMMUNITY HOSPITAL,101 HOSPITAL CIRCLE,LUVERNE,36049,ETOWAH,3343353374
10045,FAYETTE MEDICAL CENTER,1653 TEMPLE AVENUE NORTH,FAYETTE,35555,FAYETTE,2059325966
10021,DALE MEDICAL CENTER,126 HOSPITAL AVE,OZARK,36360,DALE,3347742601
10035,CULLMAN REGIONAL MEDICAL CENTER,1912 ALABAMA HIGHWAY 157,CULLMAN,36116,CULLMAN,2567372000
10018,CALLAHAN EYE FOUNDATION HOSPITAL,1720 UNIVERSITY BLVD,BIRMINGHAM,35233,CLARKE,2053258100
10049,MEDICAL CENTER ENTERPRISE,400 N EDWARDS STREET,ENTERPRISE,36330,COFFEE,3343470584
10032,WEDOWEE HOSPITAL,209 NORTH MAIN STREET,WEDOWEE,36278,RANDOLPH,2563572111
10035,CULLMAN REGIONAL MEDICAL CENTER,1912 ALABAMA HIGHWAY 157,CULLMAN,35205,CULLMAN,2567372000
10006,ELIZA COFFEE MEMORIAL HOSPITAL,205 MARENGO STREET,FLORENCE,35631,LAUDERDALE,2567688400
10036,ANDALUSIA REGIONAL HOSPITAL,849 SOUTH THREE NOTCH STREET,ANDALUSIA,36420,COVINGTON,3342228466
10025,G H LANIER MEMORIAL HOSPITAL,4800 48TH ST,VALLEY,36854,CHAMBERS,3347561400
10044,MARION REGIONAL MEDICAL CENTER,1256 MILITARY STREET SOUTH,HAMILTON,36420,MARION,2059216200
10040,GADSDEN REGIONAL MEDICAL CENTER,1007 GOODYEAR AVENUE,GADSDEN,35903,ETOWAH,2564944000
10010,MARSHALL MEDICAL CENTER NORTH,8000 ALABAMA HIGHWAY 69,GUNTERSVILLE,35976,MARSHALL,2565718000
10005,MARSHALL MEDICAL CENTER SOUTH,2505 U S HIGHWAY 431 NORTH,BOAZ,35957,MARSHALL,2565938310
10049,MEDICAL CENTER ENTERPRISE,2105 EAST SOUTH BOULEVARD,ENTERPRISE,36330,COFFEE,3343470584
10045,FAYETTE MEDICAL CENTER,1653 TEMPLE AVENUE NORTH,FAYETTE,35555,FAYETTE,2059325966
10040,GADSDEN REGIONAL MEDICAL CENTER,805 FRIENDSHIP ROAD,GADSDEN,35903,ETOWAH,2564944000
10038,STRINGFELLOW MEMORIAL HOSPITAL,301 EAST 18TH ST,ANNISTON,36201,ANCHORAGE,2562358900
10087,UNIV OF SOUTH ALABAMA MEDICAL CENTER,2451 FILLINGIM STREET,MOBILE,36617,MARSHALL,2514717110
10086,NORTHWEST MEDICAL CENTER,1530 U S HIGHWAY 43,WINFIELD,35594,MARION,2054877736
10006,ELIZA COFFEE MEMORIAL HOSPITAL,205 MARENGO STREET,FLORENCE,35631,LAUDERDALE,2565718000
20017,ALASKA REGIONAL HOSPITAL,2801 DEBARR ROAD,ANCHORAGE,99508,ANCHORAGE,9072761131
10011,ST VINCENT'S EAST,50 MEDICAL PARK EAST DRIVE,BIRMINGHAM,35235,JEFFERSON,2058383122
10027,ELBA GENERAL HOSPITAL,987 DRAYTON STREET,ELBA,36323,COFFEE,3348972257
10045,FAYETTE MEDICAL CENTER,1653 TEMPLE AVENUE NORTH,FAYETTE,35555,FAYETTE,2059325966
10044,MARION REGIONAL MEDICAL CENTER,1256 MILITARY STREET SOUTH,HAMILTON,35570,MARION,2059216200
10044,MARION REGIONAL MEDICAL CENTER,1256 MILITARY STREET SOUTH,HAMILTON,35570,MARION,3347493411
10022,HUNTSVILLE HOSPITAL,400 NORTHWOOD DR,CENTRE,35960,CHEROKEE,2569275531
10108,PRATTVILLE BAPTIST HOSPITAL,124 S MEMORIAL DR,CENTRE,36067,AUTAUGA,3343614267
10016,SHELBY BAPTIST MEDICAL CENTER,150 GILBREATH DRIVE,ALABASTER,35007,SHELBY,2056208100
10033,ANDALUSIA REGIONAL HOSPITAL,619 SOUTH 19TH STREET,BIRMINGHAM,35233,JEFFERSON,2059344011
10039,HUNTSVILLE HOSPITAL,1000 FIRST STREET NORTH,HUNTSVILLE,35801,MADISON,2562651000
10047,GEORGIANA HOSPITAL,515 MIRANDA ST,GEORGIANA,36033,BUTLER,3343762205
10108,PRATTVILLE BAPTIST HOSPITAL,124 S MEMORIAL DR,PRATTVILLE,36330,AUTAUGA,3343614267
10036,ANDALUSIA REGIONAL HOSPITAL,849 SOUTH THREE NOTCH STREET,ANDALUSIA,36420,COVINGTON,3342228466
10018,CALLAHAN EYE FOUNDATION HOSPITAL,1720 UNIVERSITY BLVD,BIRMINGHAM,35233,JEFFERSON,2053258100
10001,SOUTHEAST ALABAMA MEDICAL CENTER,1108 ROSS CLARK CIRCLE,DOTHAN,36302,HOUSTON,3347938701
10008,CRENSHAW COMMUNITY HOSPITAL,101 HOSBITAL CIRCLE,LUVERNE,36049,CRENSHAW,3343353374
10086,NORTHWEST MEDICAL CENTER,1530 U S HIGHWAY 43,WINFIELD,35594,ELMORE,2054877736
10024,JACKSON HOSPITAL & CLINIC INC,1725 PINE STREET,MONTGOMERY,36106,MONTGOMERY,3342938000
10019,G H LANIER MEMORIAL HOSPITAL,1300 SOUTH MONTGOMERY AVENUE,SHEFFIELD,35660,JEFFERSON,2563864556
10049,MEDICAL CENTER ENTERPRISE,400 N EDWARDS STREET,ENTERPRISE,36330,COFFEE,3343470584
10047,GEORGIANA HOSPITAL,515 MIRANDA ST,MONTGOMERY,36033,BUTLER,3343762205
10016,SHELBY BAPTIST MEDICAL CENTER,1000 FIRST STREET NORTH,ALABASTER,35007,SHELBY,2056208100
10044,MARION REGIONAL MEDICAL CENTER,1256 MILITARY STREET SOUTH,HAMILTON,36330,MARION,2059216200
10027,ELBA GENERAL HOSPITAL,301 EAST 18TH ST,ELBA,36323,COFFEE,3348972257
10027,ANDALUSIA REGIONAL HOSPITAL,,ANDALUSIA,36420,COVINGTON,3342228466
10001,SOUTHEAST ALABAMA MEDICAL CENTER,1108 ROSS CLARK CIRCLE,DOTHAN,36302,HOUSTON,3347938701
10023,BAPTIST MEDICAL CENTER SOUTH,2105 EAST SOUTH BOULEVARD,MONTGOMERY,36116,MONTGOMERY,3342882100
10046,RIVERVIEW REGIONAL MEDICAL CENTER,600 SOUTH THIRD STREET,GADSDEN,35901,ETOWAH,2565435200
10016,SHELBY BAPTIST MEDICAL CENTER,1000 FIRST STREET NORTH,ALABASTER,35007,SHELBY,2056208100
10010,MARSHALL MEDICAL CENTER NORTH,8000 ALABAMA HIGHWAY 69,GUNTERSVILLE,35976,MARSHALL,2565718000
10043,CHILTON MEDICAL CENTER,1010 LAY DAM ROAD,CLANTON,35045,CHILTON,2057552500
10024,JACKSON HOSPITAL & CLINIC INC,1725 PINE STREET,MONTGOMERY,36106,MONTGOMERY,3342938000
10164,COOSA VALLEY MEDICAL CENTER,315 W HICKORY ST,SYLACAUGA,35150,TALLADEGA,2562495000
10010,MARSHALL MEDICAL CENTER NORTH,209 NORTH MAIN STREET,GUNTERSVILLE,35976,MARSHALL,2565718000
10023,BAPTIST MEDICAL CENTER SOUTH,2105 EAST SOUTH BOULEVARD,MONTGOMERY,36116,MONTGOMERY,3342882100
10022,CHEROKEE MEDICAL CENTER,400 NORTHWOOD DR,CENTRE,35960,CHEROKEE,2569275531
10038,STRINGFELLOW MEMORIAL HOSPITAL,301 EAST 18TH ST,ANNISTON,36201,CALHOUN,2562358900
10036,ANDALUSIA REGIONAL HOSPITAL,849 SOUTH THREE NOTCH STREET,ANDALUSIA,36420,COVINGTON,3342228466
10021,DALE MEDICAL CENTER,126 HOSPITAL AVE,OZARK,36360,DALE,3347742601
10046,RIVERVIEW REGIONAL MEDICAL CENTER,600 SOUTH THIRD STREET,GADSDEN,35901,ETOWAH,2565435200
10001,SOUTHEAST ALABAMA MEDICAL CENTER,1108 ROSS CLARK CIRCLE,WINFIELD,36302,HOUSTON,3347938701
10024,JACKSON HOSPITAL & CLINIC INC,1725 PINE STREET,MONTGOMERY,36106,MONTGOMERY,3342938000
10049,MEDICAL CENTER ENTERPRISE,400 N EDWARDS STREGT,ENTERPRISE,36330,COFFEE,3343470584
10023,HUNTSVILLE HOSPITAL,2105 EAST SOUTH BOULEVARD,MONTGOMERY,36116,MONTGOMERY,3342882100
10033,MIZELL MEMORIAL HOSPITAL,619 SOUTH 19TH STREET,BIRMINGHAM,35233,JEFFERSON,2059344011
10036,ANDALUSIA REGIONAL HOSPITAL,849 SOUTH THREE NOTCH STREET,ANDALUSIA,36420,COVINGTON,2059325966
10164,COOSA VALLEY MEDICAL CENTER,315 W HICKORY ST,SYLACAUGA,35150,TALLADEGA,2562495000
10011,ST VINCENT'S EAST,50 MEDICAL PARK EAST DRIVE,BIRMINGHAM,35235,JEFFERSON,2058383122
10038,STRINGFELLOW MEMORIAL HOSPITAL,301 EAST 18TH ST,ANNISTON,36201,CALHOUN,2562358900
10055,FLOWERS HOSPITAL,4370 WEST MAIN STREET,DOTHAN,36305,HOUSTON,3347935000
10108,PRATTVILLE BAPTIST HOSPITAL,124 S MEMORIAL DR,PRATTVILLE,36067,AUTAUGA,3343614267
10050,MARSHALL MEDICAL CENTER SOUTH,2505 U S HIGHWAY 431 NORTH,BOAZ,0,,2565938310
10033,CULLMAN REGIONAL MEDICAL CENTER,619 SOUTH 19TH STREET,BIRMINGHAM,35233,JEFFERSON,2059344011
10040,GADSDEN REGIONAL MEDICAL CENTER,1007 GOODYEAR AVENUE,GADSDEN,35903,LEE,2564944000
10009,HARTSELLE MEDICAL CENTER,201 PINE STREET NORTHWEST,HUNTSVILLE,35640,MORGAN,2567736511
10029,BAST ALABAMA MEDICAL CENTER AND SNF,2000 PEPPERELL PARKWAY,OPELIKA,36801,LEE,3347493411
10008,MEDICAL CENTER ENTERPRISE,400 N EDWARDS STREET,ENTERPRISE,36330,COFFEE,0
10007,MIZELJ MEMORIAL HOSPITAL,702 N MAIN ST,OPP,36467,COVINGTON,3344933541
10025,G H LANIER MEMORIAL HOSPITAL,4800 48TH ST,VALLEY,36854,CHAMBERS,3347561400
10043,CHILTON MEDICAL CENTER,1010 LAY DAM ROAD,CLANTON,35045,CHILTON,2057552500
10036,,,OPP,36467,COVINGTON,3344933541
10086,NORTHWEST MEDICAL CENTER,1530 U S HIGHWAY 43,WINFIELD,35594,MARION,3346366221
10164,COOSA VALLEY MEDICAL CENTER,315 W HICKORY ST,SYLACAUGA,35150,TALLADEGA,2562495000
10019,HELEN KELLER MEMORIAL HOSPITAL,1300 SOUTH MONTGOMERY AVENUE,FAYETTE,35660,JEFFERSON,2563864556
10005,MARSHALL MEDICAL CENTER SOUTH,810 ST VINCENTS DRIVE,BOAZ,35957,MARSHALL,2565938310
10046,RIVERVIEW REGIONAL MEDICAL CENTER,600 SOUTH THIRD STREET,GADSDEN,35901,ETOWAH,2565435200
10012,DEKALB REGIONAL MEDICAL CENTER,200 MED CENTER DRIVE,MONTGOMERY,35968,DE KALB,2568453150
10046,RIVERVIEW REGIONAL MEDICAL CENTER,600 SOUTH THIRD STREET,GADSDEN,35901,ETOWAH,2565435200
10008,CRENSHAW COMMUNITY HOSPITAL,101 HOSPITAL CIRCLE,LUVERNE,36049,CRENSHAW,3343353374
10016,ST VINCENTS BLOUNT,1000 FIRST STREET NORTH,ALABASTER,35007,SHELBY,2056208100
10001,SOUTHEAST ALIBAMA MEDICAL CENTER,1108 ROSS CLARK CIRCLE,DOTHAN,36302,HOUSTON,3347938701
10046,RIVERVIEW REGIONAL MEDICAL CENTER,600 SOUTH THIRD STREET,GADSDEN,35901,MONTGOMERY,2565435200
10055,FLOWERS HOSPITAL,4370 WEST MAIN STREET,DOTHAN,36305,HOUSTON,3347935000
10050,ST VINCENTS BLOUNT,150 GILBREATH DRIVE,ONEONTA,35121,BLOUNT,2052743000
10006,MARION REGIONAL MEDICAL CENTER,1256 MILITARY STREET SOUTH,HAMILTON,35570,MARION,2059216200
10023,BAPTIST MEDICAL CENTER SOUTH,15155 HIGHWAY 43,MONTGOMERY,36116,MONTGOMERY,3342882100
10040,GADSDEN REGIONAL MEDICAL CENTER,1007 GOODYEAR AVENUE,GADSDEN,35903,ETOWAH,2053258100
10024,JACKSON HOSPITAL & CLINIC INC,1725 PINE STREET,MONTGOMERY,36106,MONTGOMERY,3342938000
10038,STRINGFELLOW MEMORIAL HOSPITAL,301 EAST 18TH ST,ANNISTON,36201,CALHOUN,2562358900
10018,CALLAHAN EYE FOUNDATION HOSPITAL,1720 UNIVERSITY BLVD,BIRMINGHAM,35233,JEFFERSON,2054877736
10035,CULLMAN REGIONAL MEDICAL CENTER,1912 ALABAMA HIGHWAY 157,CULLMAN,35058,CULLMAN,2567372000
10021,DALE MEDICAL CENTER,126 HOSPITAL AVE,OZARK,36360,DALE,3347742601
10033,UNIVERSITY OF ALABAMA HOSPITAL,619 SOUTH 19TH STREET,BIRMINGHAM,35233,JEFFERSON,2059344011
10025,EAST ALABAMA MEDICAL CENTER AND SNF,4800 48TH ST,VALLEY,36854,CHAMBERS,3347561400
10038,STRINGFELLOW MEMORIAL HOSPITAL,301 EAST 18TH ST,ANNISTON,36201,CALHOUN,2562358900
10035,CULLMAN REGIONAL MEDICAL CENTER,1912 ALABAMA HIGHWAY 157,CULLMAN,35058,CULLMAN,2567372000
10015,SOUTHWEST ALABAMA MEDICAL CENTER,33700 HIGHWAY 43,THOMASVILLE,36784,CLARKE,3346366221
10040,GADSDEN REGIONAL MEDICAL CENTER,1007 GOODYEAR AVENUE,GADSDEN,35903,ETOWAH,2564944000
10021,CHILTON MEDICAL CENTER,126 HOSPITAL AVE,OZARK,36360,DALE,3347742601
10006,ELIZA COFFEE MEMORIAL HOSPITAL,205 MARENGO STREET,FLORENCE,35631,COFFEE,2567688400
10005,MARSHALL MEDICAL CENTER SOUTH,2505 U S HIGHWAY 431 NORTH,BOAZ,35957,MARSHALL,2565938310
10086,MEDICAL CENTER ENTERPRISE,1530 U S HIGHWAY 43,WINFIELD,35594,MARION,2054877736
10025,G H LANIER MEMORIAL HKSPITAL,4800 48TH ST,VALLEY,36854,CHAMBERS,3347561400
10021,DALE MEDICAL CENTER,126 HOSPITAL AVE,OZARK,36360,DALE,3347742601
10010,MARSHALL MEDICAL CENTER NORTH,8000 ALABAMA HIGHWAY 69,GUNTERSVILLE,35976,MARSHALL,2565718000
10021,DALE MEDICAL CENTER,126 HOSPITAL AVE,OZARK,36360,DALE,3347742601
10018,CALLAHAN EYE FOUNDATION HOSPITAL,1720 UNIVERSITY BLVD,BIRMINGHAM,35233,JEFFERSON,2053258100
10047,GEORGIANA HOSPITAL,515 MIRANDA ST,GEORGIANA,36033,BUTLER,3343762205
10087,UNIV OF SOUTH ALABAMA MEDICAL CENTER,2451 FILLINGIM STREET,MOBILE,36617,MOBILE,2514717110
10023,BAPTIST MEDICAL CENTER SOUTH,2105 EAST SOUTH BOULEVARD,MONTGOMERY,36116,MONTGOMERY,3342882100
10024,JACKSON HOSPITAL & CLINIC INC,1725 PINE STREET,MONTGOMERY,36106,FRANKLIN,3342938000
10009,MARION REGIONAL MEDICAL CENTER,201 PINE STREET NORTHWEST,HARTSELLE,35640,MORGAN,2567736511
10044,MEDICAL CENTER ENTERPRISE,1256 MILITARY STREET SOUTH,HAMILTON,35570,MARION,2059216200
10015,SOUTHWEST ALABAMA MEDICAL CENTER,33700 HIGHWAY 43,THOMASVILLE,36784,CLARKE,3346366221
10040,MARSHALL MEDICAL CENTER SOUTH,2505 U S HIGHWAY 431 NORTH,BOAZ,35957,MARSHALL,2565938310
10049,MEDICAL CENTER ENTERPRISE,400 N EDWARDS STREET,ENTERPRISE,36330,COFFEE,3343470584
10019,HELEN KELLER MEMORIAL HOSPITAL,1300 SOUTH MONTGOMERY AVENUE,SHEFFIELD,35660,JEFFERSON,2565938310
10046,RIVERVIEW REGIONAL MEDICAL CENTER,600 SOUTH THIRD STREET,GADSDEN,35968,ETOWAH,2565435200
10010,MARSHALL MEDICAL CENTER NORTH,8000 ALABAMA HIGHWAY 69,GUNTERSVILLE,35976,MARSHALL,2565718000
10005,MARSHALL MEDICAL CENTER SOUTH,2505 U S HIGHWAY 431 NORTH,BOAZ,35957,MARSHALL,2565938310
10036,ANDALUSIA REGIONAL HOSPITAL,849 SOUTH THREE NOTCH STREET,ANDALUSIA,36420,COVINGTON,3342228466
10010,MARSHALL MEDICAL CENTER NORTH,8000 ALABAMA HIGHWAY 69,GUNTERSVILLE,35976,MARSHALL,2565718000
10006,ELIZA COFFEE MEMORIAL HOSPITAL,205 MARENGO STREET,TALLASSEE,35631,LAUDERDALE,2567688400
10034,COMMUNITY HOSPITAL INC,805 FRIENDSHIP ROAD,TALLASSEE,36078,ELMORE,3342836541
10019,HELEN KELLER MEMORIAL HOSPITAL,1300 SOUTH MONTGOMERY AVENUE,SHEFFIELD,35660,JEFFERSON,2563864556
10032,WEDOWEE HOSPITAL,209 NORTH MAIN STREET,WEDOWEE,36278,RANDOLPH,2567688400
10025,G H LANIER MEMORIAL HOSPITAL,4800 48TH ST,VALLEY,36854,CHAMBERS,3347561400
10027,ELBA GENERAL HOSPITAL,987 DRAYTON STREET,SHEFFIELD,36323,COFFEE,3348972257
10043,CHILTON MEDICAL CENTER,1010 LAY DAM ROAD,CLANTON,35045,LAUDERDALE,2057552500
10050,ST VINCENTS BLOUNT,150 GILBREATH DRIVE,ONEONTA,35121,BLOUNT,2052743000
10010,MARSHALL MEDICAL CENTER NORTH,8000 ALABAMA HIGHWAY 69,GUWTERSVILLE,35976,MARSHALL,2565718000
10027,ELBA GENERAL HOSPITAL,987 DRAYTON STREET,ELBA,36323,COFFEE,3348972257
10034,JACKSON HOSPITAL & CLINIC INC,805 FRIENDSHIP ROAD,TALLASSEE,36078,ELMORE,3342836541
10021,DALE MEDICAL CENTER,126 HOSPITAL AVE,OZARK,36360,DALE,3347742601
10023,BAPTIST MEDICAL CENTEA SOUTH,2105 EAST SOUTH BOULEVARD,MONTGOMERY,36116,MONTGOMERY,3342882100
10029,EAST ALABAMA MEDICAL CENTER AND SNF,2000 PEPPERELL PARKWAY,OPELIKA,36801,CHILTON,3347493411
10033,UNIVERSITY OF ALABAMA HOSPITAL,619 SOUTH 19TH STREET,GEORGIANA,35233,JEFFERSON,2059344011
10027,ELBA GENERAL HOSPITAL,987 DRAYTON STREET,ELBA,36323,COFFEE,3348972257
10025,G H LANIER MEMORIAL HOSPITAL,4800 48TH ST,VALLEY,36854,CHAMBERS,3347561400
10025,G H LANIER MEMORIAL HOSPITAL,4800 48TH ST,VALLEY,36854,CHAMBERS,3347561400
10087,UNIV OF SOUTH ALABAMA MEDICAL CENTER,2451 FILLINGIM STREET,LUVERNE,36617,MOBILE,2514717110
10015,SOUTHWEST ALABAMA MEDICAL CENTER,33700 HIGHWAY 43,THOMASVILLE,36784,CLARKE,2565435200
10029,EAST ALABAMA MEDICAL CENTER AND SNF,2000 PEPPERELL PARKWAY,HUNTSVILLE,36801,LEE,3347493411
10027,ELBA GENERAL HOSPITAL,987 DRAYTON STREET,ELBA,36323,COFFEE,3348972257
10024,JACKSON HOSPITAL & CLINIC INC,1725 PINE STREET,MONTGOMERY,36106,MONTGOMERY,3342938000
0,,1108 ROSS CLARK CIRCLE,DOTHAN,36302,HOUSTON,3347938701
10018,CALLAHAN EYE FOUNDATION HOSPITAL,1720 UNIVERSITY BLVD,BIRMINGHAM,35233,JEFFERSON,2053258100
10019,HELEN KELLER MEMORIAL HOSPITAL,1300 SOUTH MONTGOMERY AVENUE,SHEFFIELD,35660,JEFFERSON,2563864556
10043,PRATTVILLE BAPTIST HOSPITAL,124 S MEMORIAL DR,PRATTVILLE,36067,AUTAUGA,3343614267
10046,RIVERVIEW REGIONAL MEDICAL CENTER,2505 U S HIGHWAY 431 NORTH,GADSDEN,35901,ETOWAH,2565435200
10032,WEDOWEE HOSPITAL,209 NORTH MAIN STREET,WEDOWEE,36278,RANDOLPH,2563572111
10039,HUNTSVILLE HOSPITAL,101 SIVLEY RD,HUNTSVILLE,35801,MADISON,2562651000
10008,CRENSHAW COMMUNITY HOSPITAL,101 HOSPITAL CIRCLE,GUNTERSVILLE,36049,CRENSHAW,3343353374
10032,WEDOWEE HOSPITAL,209 NORTH MAIN STREET,WEDOWEE,36278,RANDOLPH,2565435200
10049,SOUTHEAST ALABAMA MEDICAL CENTER,1108 ROSS CLARK CIRCLE,DOTHAN,36302,HOUSTON,3347938701
10027,ELBA GENERAL HOSPITAL,987 DRAYTON STREET,ELBA,36323,COFFEE,3348972257
10055,,205 MARENGO STREET,FLORENCE,35631,LAUDERDALE,0
10039,HUNTSVILLE HOSPITAL,101 SIVLEY RD,HUNTSVILLE,35801,MADISON,2562651000
10019,HELEN KELLER MEMORIAL HOSPITAL,1300 SOUTH MONTGOMERY AVENUE,SHEFFIELD,35660,JEFFERSON,2563864556
10108,CRENSHAW COMMUNITY HOSPITAL,101 HOSPITAL CIRCLE,LUVERNE,0,CRENSHAW,0
10025,G H LANIER MEMORIAL HOSPITAL,4800 48TH ST,VALLEY,36854,CHAMBERS,3347561400
10009,HARTSELLE MEDICAL CENTER,201 PINE STREET NORTHWEST,HARTSELLE,35631,MORGAN,2567736511
10015,SOUTHWEST ALABAMA MEDICAL CENTER,1530 U S HIGHWAY 43,THOMASVILLE,36784,CLARKE,3346366221
10035,CULLMAN REGIONAL MEDICAL CENTER,1912 ALABAMA HIGHWAY 157,CULLMAN,35058,CULLMAN,2567372000
10038,STRINGFELLOW MEMORIAL HOSPITAL,301 EAST 18TH ST,ANNISTON,36201,CALHOUN,2562358900
10036,ANDALUSIA REGIONAL HOSPITAL,849 SOUTH THREE NOTCH STREET,ANDALUSIA,36420,COVINGTON,3342228466
10040,GADSDEN REGIONAL MEDICAL CENTER,1007 GOODYEAR AVENUE,GADSDEN,35903,ETOWAH,2564944000
10047,GEORGIANA HOSPITAL,515 MIRANDA ST,GEORGIANA,35555,BUTLER,3343762205
10007,MIZELL MEMORIAL HOSPITAL,702 N MAIN ST,OPP,36467,COVINGTON,3344933541
10036,ANDALUSIA REGIONAL HOSPITAL,849 SOUTH THREE NOTCH STREET,ANDALUSIA,36278,COVINGTON,3342228466
10019,HELEN KELLER MEMORIAL HOSPITAL,1300 SOUTH MONTGOMERY AVENUE,SHEFFIELD,35660,JEFFERSON,2563864556
10049,MEDICAL CENTER ENTERPRISE,400 N EDWARDS STREET,ENTERPRISE,36330,COFFEE,3343470584
10050,ST VINCENTS BLOUNT,150 GILBREATH DRIVE,ONEONTA,35121,BLOUNT,2052743000
10011,ST VINCENT'S EAST,50 MEDICAL PARK EAST DRIVE,ANCHORAGE,35235,JEFFERSON,2058383122
10023,BAPTIST MEDICAL CENTER SOUTH,2105 EAST SOUTH BOULEVARD,MONTGOMERY,35801,MONTGOMERY,3342882100
10032,WEDOWEE HOSPITAL,209 NORTH MAIN STREET,WQDOWEE,36278,RANDOLPH,2563572111
10016,SHELBY BAPTIST MEDICAL CENTER,1000 FIRST STREET NORTH,ALABASTER,35007,SHELBY,2563864556
10027,ELBA GENERAL HOSPITAL,987 DRAYTON STREET,ELBA,36323,COFFEE,2054877736
10023,BAPTIST MEDICAL CENTER SOUTH,2105 EAST SOUTH BOULEVARD,MONTGOMERY,36116,MONTGOMERY,3342882100
10055,FLOWERS HOSPITAL,4370 WEST MAIN STREET,DOTHAN,36305,HOUSTON,3347935000
10016,SHELBY BAPTIST MEDICAL CENTER,1000 FIRST STREET NORTH,ALABASTER,35007,SHELBY,2056208100
10045,ST VINCENTS HOSPITAL,1653 TEMPLE AVENUE NORTH,FAYETTE,35555,FAYETTE,2059325966
10047,GEORGIANA HOSPITAL,515 MIRANDA ST,ANDALUSIA,36033,BUTLER,3343762205
10050,ST VINCENTS BLOUNT,150 GILBREATH DRIVE,ONEONTA,35121,BLOUNT,2052743000
10024,JACKSON HOSPITAL & CLINIC INC,1725 PINE STREET,WINFIELD,36106,MONTGOMERY,3342938000
10022,CHEROKEE MEDICAL CENTER,400 NORTHWOOD DR,CENTRE,35960,CHEROKEE,2569275531
10019,HELEN KELLER MEMORIAL HOSPITAL,1300 SOUTH MONTGOMERY AVENUE,SHEFFIELD,35660,JEFFERSON,3343353374
10038,STRINGFELLOW MEMORIAL HOSPITAL,301 EAST 18TH ST,ANNISTON,36201,CALHOUN,2562358900
10049,MEDICAL CENTER ENTERPRISE,400 N EDWARDS STREET,ENTERPRISE,36330,COFFEE,3343470584
10039,HUNTSVILLE HOSPITAL,101 SIVLEY RD,HUNTSVILLE,35801,MADISON,2562651000
10034,COMMUNITY HOSPITAL INC,805 FRIENDSHIP ROAD,TALLASSEE,36078,ELMORE,3342836541
10008,CRENSHAW COMMUNITY HOSPITAL,50 MEDICAL PARK EAST DRIVE,LUVERNE,36049,CRENSHAW,3343353374
10007,MIZELL MEMORIAL HOSPITAL,702 N MAIN ST,OPP,36467,COVINGTON,3344933541
10029,EAST ALABAMA MEDICAL CENTER AND SNF,2000 PEPPERELL PARKWAY,OPELIKA,36801,LEE,3347493411
10056,ST VINCENTS HOSPITAL,810 ST VINCENTS DRIVE,BIRMINGHAM,35205,JEFFERSON,2059397000
10023,BAPTIST MEDICAL CENTER SOUTH,2105 EAST SOUTH BOULEVARD,MONTGOMERY,35903,MONTGOMERY,3342882100
10024,JACKSON HOSPITAL & CLINIC INC,1725 PINE STREET,MONTGOMERY,36106,MONTGOMERY,3342938000
10021,DALE MEDICAL CENTER,126 HOSPITAL AVE,OZARK,36360,DALE,3347742601
10007,MIZELL MEMORIAL HOSPITAL,702 N MAIN ST,OPP,36467,LAUDERDALE,3344933541
10056,ST VINCENTS HOSPITAL,810 ST VINCENTS DRIVE,FAYETTE,35205,JEFFERSON,2059397000
10043,CHILTON MEDICAL CENTER,1010 LAY DAM ROAD,CLANTON,35045,CHILTON,2057552500
10019,HELEN KELLER MEMORIAL HOSPITAL,1300 SOUTH MONTGOMERY AVENUE,SHEFFIELD,35660,JEFFERSON,2563864556
10039,HUNTSVILLE HOSPITAL,101 SIVLEY RD,HUNTSVILLE,35801,MADISON,2562651000
10038,STRINGFELLOW MEMORIAL HOSPITAL,301 EAST 18TH ST,ANNISTON,36201,CALHOUN,3343470584
10019,HELEN KELLER MEMORIAL HOSPITAL,1300 SOUTH MONTGOMERY AVENUE,SHEFFIELD,35660,JEFFERSON,2563864556
10033,UNIVERSITY OF ALABAMA HOSPITAL,619 SOUTH 19TH STREET,BIRMINGHAM,35233,JEFFERSON,2059344011
10001,SOUTHEAST ALABAMA MEDICAL CENTER,1108 ROSS CLARK CIRCLE,DOTHAN,36302,HOUSTON,3347938701
10019,HELEN KELLER MEMORIAL HOSPITAL,1300 SOUTH MONTGOMERY AVENUE,SHEFFIELD,35660,JEFFERSON,2563864556
10050,ST VINCENTS BLOUNT,150 GILBREATH DRIVE,DOTHAN,35121,BLOUNT,2052743000
10001,SOUTHEAST ALABAMA MEDICAL CENTER,1108 ROSS CLARK CIRCLE,DOTHAN,36302,HOUSTON,3347938701
10015,GADSDEN REGIONAL MEDICAL CENTER,33700 HIGHWAY 43,THOMASVILLE,36784,CLARKE,3346366221
10032,WEDOWEE HOSPITAL,209 NORTH MAIN STREET,WEDOWEE,35007,RANDOLPH,2563572111
10045,FAYETTE MEDICAL CENTER,1653 TEMPLE AVENUE NORTH,FAYETTE,36078,FAYETTE,2059325966
10056,ST VINCENTS HOSPITAL,2801 DEBARR ROAD,BIRMINGHAM,35205,JEFFERSON,2059397000
10029,EAST ALABAMA MEDICAL CENTER AND SNF,2000 PEPPERELL PARKWAY,OPELIKA,36801,MOBILE,3347493411
10038,STRINDFELLOW MEMORIAL HOSPITAL,301 EAST 18TH ST,ANNISTON,36201,CALHOUN,2562358900
10025,G H LANIER MEMORIAL HOSPITAL,4800 48TH ST,VALLEY,36854,CHAMBERS,3347561400
10046,RIVERVIEW REGIONAL MEDICAL CENTER,600 SOUTH THIRD STREET,GADSDEN,35901,ETOWAH,2565435200
10010,MARSHALL MEDICAL CENTER NORTH,8000 ALABAMA HIGHWAY 69,GUNTERSVILLE,35976,MARSHALL,2565718000
10022,CHEROKEE MEDICAL CENTER,400 NORTHWOOD DR,CENTRE,35960,CHEROKEE,2569275531
10108,PRATTVILLE BAPTIST HOSPITAL,124 S MEMORIAL DR,PRATTVILLE,35801,AUTAUGA,3343614267
10040,CHILTON MEDICAL CENTER,1010 LAY DAM ROAD,CLANTON,35045,CHILTON,2057552500
20017,MEDICAL CENTER ENTERPRISE,,,36330,COFFEE,3343470584
10164,COOSA VALLEY MEDICAL CENTER,315 W HICKORY ST,SYLACAUGA,35150,TALLADEGA,2057552500
20017,ALASKA REGIONAL HOSPITAL,2801 DEBARR ROAD,ANCHORAGE,35570,ANCHORAGE,9072761131
10045,MARION REGIONAL MEDICAL CENTER,1256 MILITARY STREET SOUTH,,35570,,2059216200
10006,ELIZA COFFEE MEMORIAL HOSPITAL,205 MARENGO STREET,FLORENCE,35631,LAUDERDALE,2567688400
10036,ANDALUSIA REGIONAL HOSPITAL,849 SOUTH THREE NOTCH STREET,ANDALUSIA,36420,COVINGTON,3342228466
10038,STRINGFELLOW MEMORIAL HOSPITAL,301 EAST 18TH ST,ANNISTON,36201,CALHOUN,2562358900
10046,RIVERVIEW REGIONAL MEDICAL CENTER,600 SOUTH THIRD STREET,GADSDEN,35901,MARION,2565435200
10046,RIVERVIEW REGIONAL MEDICAL CENTER,600 SOUTH THIRD STREET,GADSDEN,35901,ETOWAH,2562358900
10006,SOUTHEAST ALABAMA MEDICAL CENTER,205 MARENGO STREET,FLORENCE,35631,LAUDERDALE,2567688400
10010,MARSHALL MEDICAL CENTER NORTH,8000 ALABAMA HIGHWAY 69,GUNTERSVILLE,35976,MARSHALL,2565718000
10009,HARTSELLE MEDICAL CENTER,201 PINE STREET NORTHWEST,HARTSELLE,35640,MORGAN,2567736511
10027,ELBA GENERAL HOSPITAL,987 DRAYTON STREET,ELBA,36323,COFFEE,3348972257
10016,SHELBY BAPTIST MEDICAL CENTER,1000 FIRST STREET NORTH,OPELIKA,35007,SHELBY,2056208100
10040,GADSDEN REGIONAL MEDICAL CENTER,1007 GOODYEAR AVENUE,GADSDEN,35903,ETOWAH,2564944000
10045,FAYETTE MEDICAL CENTER,1653 TEMPLE AVENUE NORTH,FAYETTE,35555,FAYETTE,2059325966
10038,STRINGFELLOW MEMORIAL HOSPITAL,301 EAST 18TH ST,ANNISTON,36201,CALHOUN,2562358900
10021,DALE MEDICAL CENTER,126 HOSPITAL AVE,OZARK,36360,DALE,3347742601
10008,CRENSHAW COMMUNITY HOSPITAL,101 HOSPITAL CIRCLE,LUVERNE,36049,CRENSHAW,3343353374
10047,GEORGIANA HOSPITAL,515 MIRANDA ST,GEORGIANA,36033,BUTLER,3343762205
10027,ELBA GENERAL HOSPITAL,987 DRAYTON STREET,ELBA,36323,MOBILE,3348972257
10018,CALLAHAN EYE FOUNDATION HOSPITAL,1720 UNIVERSITY BLVD,BIRMINGHAM,35233,JEFFERSON,2053258100
10040,GADSDEN REGIONAL MEDICAL CENTER,1007 GOODYEAR AVENUE,GADSDEN,35903,ETOWAH,2564944000
10055,FLOWERS HOSPITAL,4370 WEST MAIN STREET,DOTHAN,36305,HOUSTON,3347935000
10055,MIZELL MEMORIAL HOSPITAL,702 N MAIN ST,OPP,36467,COVINGTON,3344933541
10039,HUNTSVILLE HOSPITAL,101 SIVLEY RD,HUNTSVILLE,36067,MADISON,2562651000
10024,JACKSON HOSPITAL & CLINIC INC,1725 PINE STREET,MONTGOMERY,36106,MONTGOMERY,3342938000
10033,UNIVERSITY OF ALABAMA HOSPITAL,619 SOUTH 19TH STREET,BIRMINGHAM,35233,JEFFERSON,2059344011
10006,ELIZA COFFEE MEMORIAL HOSPITAL,205 MARENGO STREET,FLORENCE,35631,LAUDERDALE,2567688400
10047,GEORGIANA HOSPITAL,515 MIRANDA ST,GEORGIANA,36033,BUTLER,3343762205
10045,FAYETTE MEDICAL CENTER,1653 TEMPLE AVENUE NORTH,FAYETTE,35555,FAYETTE,2059325966
10018,CALLACAN EYE FOUNDATION HOSPITAL,1720 UNIVERSITY BLVD,BIRMINGHAM,35233,JEFFERSON,2053258100
10049,MEDICAL CENTER ENTERPRISE,400 N EDWARDS STREET,ENTERPRISE,36330,COFFEE,9075436300
10039,HUNTSVILLE HOSPITAL,101 SIVLEY RD,HUNTSVILLE,35801,MADISON,2562651000
10029,EAST ALABAMA MEDICAL CENTER AND SNF,2000 PEPPERELL PARKWAY,OPELIKA,36784,LEE,3347493411
10025,G H LANIER MEMORIAL HOSPITAL,4800 48TH ST,VALLEY,36854,CHAMBERS,3347561400
10045,FAYETTE MEDICAL CENTER,1653 TEMPLE AVENUE NORTH,FAYETTE,35555,FAYETTE,2059325966
10045,FAYETTE MEDICAL CENTER,1653 TEMPLE AVENUE NORTH,FAYETTE,36323,FAYETTE,2059325966
10086,MARION REGIONAL MEDICAL CENTER,1256 MILITARY STREET SOUTH,HAMILTON,35570,MARION,2059216200
10006,ELIZA COFFEE MEMORIAL HOSPITAL,205 MARENGO STREET,FLORENCE,35631,DALE,2567688400
10018,CALLAHAN EYE FOUNDATION HOSPITAL,1720 UNIVERSITY BLVD,BIRMINGHAM,35233,JEFFERSON,2053258100
10025,ELBA GENERAL HOSPITAL,987 DRAYTON STREET,,0,COFFEE,3348972257
10036,ANDALUSIA REGIONAL HOSPITAL,849 SOUTH THREE NOTCH STREET,ANDALUSIA,36420,COVINGTON,3342228466
10036,ANDALUSIA REGIONAL HOSPITAL,849 SOUTH THREE NOTCH STREET,ANDALUSIA,36420,COVINGTON,3342228466
10032,WEDOWEE HOSPITAL,209 NORTH MAIN STREET,OPP,36278,RANDOLPH,2563572111
10018,CALLAHAN EYE FOUNDATION HOSPITAL,1720 UNIVERSITY BLVD,BIRMINGHAM,35233,MARION,2053258100
10006,ELIZA COFFEE MEMORIAL HOSPITAL,205 MARENGO STREET,FLORENCE,35631,LAUDERDALE,2567688400
10015,FAYETTE MEDICAL CENTER,33700 HIGHWAY 43,THOMASVILLE,36784,CLARKE,3346366221
10001,SOUTHEAST ALABAMA MEDICAL CENTER,1108 ROSS CLARK CIRCLE,DOTHAN,36302,HOUSTON,3347938701
10108,UNIVERSITY OF ALABAMA HOSPITAL,124 S MEMORIAL DR,PRATTVILLE,36067,AUTAUGA,3343614267
10021,DALE MEDICAL CENTER,126 HOSPITAL AVE,OGARK,36360,DALE,3347742601
10023,BAPTIST MEDICAL CENTER SOUTH,2105 EAST SOUTH BOULEVARD,MONTGOMERY,36116,MONTGOMERY,3342882100
10024,JACKSON HOSPITAL & CLINIC INC,1725 PINE STREET,MONTGOMERY,35801,MONTGOMERY,3342938000
10007,MIZELL MEMORIAL HOSPITAL,702 N MAIN ST,OPP,36467,COVINGTON,3344933541
10023,BAPTIST MEDICAL CENTER SOUTH,2105 EAST SOUTH BOULEVARD,MONTGOMERY,36116,MONTGOMERY,3342882100
10006,ELIZA COFFEE MEMORIAL HOSPITAL,205 MARENGO STREET,FLORENCE,35631,LAUDERDALE,2567688400
10010,MARSHALL MEDICAL CENTER NORTH,8000 ALABAMA HIGHWAY 69,GUNTERSVILLE,35976,MARSHALL,2565718000
10046,RIVERVIEW REGIONAL MEDICAL CENTER,600 SOUTH THIRD STREET,GADSDEN,35901,ETOWAH,2565435200
10087,UNIV OF SOUTH ALABAMA MEDICAL CENTER,2451 FILLINGIM STREET,MOBILE,36617,MOBILE,2514717110
10035,CULLMAN REGIONAL MEDICAL CENTER,1912 ALABAMA HIGHWAY 157,CULLMAN,36801,CULLMAN,2567372000
10024,RIVERVIEW REGIONAL MEDICAL CENTER,1725 PINE STREET,MONTGOMERY,36106,MONTGOMERY,3342938000
10009,HARTSELLE MEDICAL CENTER,201 PINE STREET NORTHWEST,HARTSELLE,35640,MORGAN,2567736511
10007,MIZELL MEMORIAL HOSPITAL,702 N MAIN ST,WEDOWEE,36467,COVINGTON,3344933541
10049,MEDICAL CENTER ENTERPRISE,400 N EDWARDS STREET,ENTERPRISE,36278,COFFEE,3343470584
10016,SHELBY BAPTIST MEDICAL CENTER,1000 FIRST STREET NORTH,ALABASTER,35007,SHELBY,2056208100
10008,CRENSHAW COMMUNITY HOSPITAL,101 HOSPITAL CIRCLE,LUVERNE,36049,CRENSHAW,2059325966
10033,UNIVERSITY OF ALABAMA HOSPITAL,619 SOUTH 19TH STREET,BIRMINGHAM,35233,JEFFERSON,2059344011
10033,UNIVERSITY OF ALABAMA HOSPITAL,619 SOUTH 19TH STREET,BIRMINGHAM,35233,JEFFERSON,2059344011
10040,GADSDEN REGIONAL MEDICAL CENTER,1007 GOODYEAR AVENUE,GADSDEN,35903,ETOWAH,2565718000
10023,BAPTIST MEDICAL CENTER SOUTH,2105 EAST SOUTH BOULEVARD,MONTGOMERY,36116,MONTGOMERY,3342882100
10011,ST VINCENT'S EAST,50 MEDICAL PARK EAST DRIVE,BIRMINGHAM,35235,JEFFERSON,2058383122
10025,G H LANIER MEMORIAL HOSPITAL,4800 48TH ST,VALLEY,36854,CHAMBERS,2567688400
10034,COMMUNITY HOSPITAL INC,805 FRIENDSHIP ROAD,TALLASSEE,36078,ELMORE,3342836541
10021,DALE MEDICAL CENTER,126 HOSPITAL AVE,OZARK,36360,DALE,3347742601
10012,CHILTON MEDICAL CENTER,1010 LAY DAM ROAD,CLANTON,35045,CHILTON,2057552500
10022,CHEROKEE MEDICAL CENTER,400 NORTHWOOD DR,CENTRE,35960,CHEROKEE,2569275531
10005,MARSHALL MEDICAL CENTER SOUTH,2505 U S HIGHWAY 431 NORTH,BOAZ,35957,MARSHALL,2565938310
10027,ELBA GENERAL HOSPITAL,987 DRAYTON STREET,ELBA,36323,COFFEE,3348972257
10039,HUNTSVILLE HOSPITAL,101 SIVLEY RD,HUNTSVILLE,35801,MADISON,2562651000
10005,HARTSELLE MEDICAL CENTER,2505 U S HIGHWAY 431 NORTH,BOAZ,35957,MARSHALL,2565938310
10050,ST VINCENTS BLOUNT,150 GILBREATH DRIVE,ONEONTA,35121,BLOUNV,2052743000
10022,CHEROKEE MEDICAL CENTER,400 NORTHWOOD DR,CLANTON,35960,CHEROKEE,2569275531
10044,MARION REGIONAL MEDICAL CENTER,1256 MILITARY STREET SOUTH,HAMILTON,35570,MARION,2059216200
10008,CRENSHAW COMMUNITY HOSPITAL,101 HOSPITAL CIRCLE,LUVERNE,36049,CRENSHAW,3343353374
10087,UNIV OF SOUTH ALABAMA MEDICAL CENTER,2451 FILLINGIM STREET,MOBILE,36617,MOBILE,2514717110
20017,ALASKA REGIONAL HOSPITAL,2801 DEBARR ROAD,ANCHORAGE,99508,ANCHORAGE,3347561400
10008,CRENSHAW COMMUNITY HOSPITAL,101 HOSPITAL CIRCLE,LUVERNE,36049,CRENSHAW,3343353374
10012,DEKALB REGIONAL MEDICAL CENTER,200 MED CENTER DRIVE,FORT PAYNE,35968,DE KALB,2568453150
10027,ELBA GENERAL HOSPITAL,987 DRAYTON SOREET,ELBA,36323,COFFEE,3348972257
20017,ALASKA REGIONAL HOSPITAL,2801 DEBARR ROAD,ANCHORAGE,99508,ANCHORAGE,3347935000
10009,HARTSELLE MEDICAL CENTER,201 PINE STREET NORTHWEST,HARTSELLE,35640,MORGAN,2567736511
10001,SOUTHEAST ALABAMA MEDICAL CENTER,1108 ROSS CLARK CIRCLE,DOTHAN,36302,COVINGTON,3347938701
10023,SOUTHEAST ALABAMA MEDICAL CENTER,1108 ROSS CLARK CIRCLE,DOTHAN,36302,,0
10025,G H LANIER GEMORIAL HOSPITAL,4800 48TH ST,VALLEY,36854,CHAMBERS,3347561400
10007,MIZELL MEMORIAL HOSPITAL,702 N MAIN ST,OPP,36467,COVINGTON,3344933541
20017,ALASKA SEGIONAL HOSPITAL,2801 DEBARR ROAD,ANCHORAGE,99508,ANCHORAGE,9072761131
10050,ST VINCENTS BLOUNT,515 MIRANDA ST,ONEONTA,35121,BLOUNT,2052743000
10108,PRATTVILLE BAPTIST HOSPITAL,124 S MEMORIAL QR,PRATTVILLE,36067,AUTAUGA,3343614267
20017,ALASKA REGIONAL HOSPITAL,2801 DEBARR ROAD,ANCHORAGE,99508,ANCHORAGE,9072761131
10015,SOUTHWEST ALABAMA MEDICAL CENTER,33700 HIGHWAY 43,THOMASVILLE,36784,CLARKE,3346366221
10011,ST VINCENT'S EAST,50 MEDICAL PARK EAST DRIVE,BIRMINGHAM,35235,JEFFERSON,2058383122
10012,DEKALB REGIONAL MEDICAL CENTER,200 MED CENTER DRIVE,FORT PAYNE,35968,DE KALB,2568453150
10021,DALE MEDICAL CENTER,126 HOSPITAL AVE,OZARK,36360,DALE,3347742601
10029,EAST ALABAMA MEDICAL CENTER AND SNF,2000 PEPPERELL PARKWAY,OPELIKA,36801,LEG,3347493411
10018,CALLAHAN EYE FOUNDATION HOSPITAL,1720 UNIVERSITY BLVD,BIRMINGHAM,35233,JEFFERSON,2053258100
10008,CRENSHAW COMMUNITY HOSPITAL,101 HOSPITAL CIRCLE,LUVERNE,35555,CRENSHAW,3343353374
10011,ST VINCENT'S EAST,50 MEDICAL PARK EAST DRIVE,BIRMINGHAM,35235,ETOWAH,2058383122
10027,ELBA GENERAL HOSPITAL,987 DRAYTON STREET,ELBA,36323,COFFEE,3348972257
10038,STRINGFELLOW MEMORIAL HOSPITAL,301 EAST 18TH ST,ANNISTON,36201,UALHOUN,2562358900
10049,MEDICAL CENTER ENTERPRISE,400 N EDWARDS STREET,ENTERPRISE,36330,COFFEE,3343470584
10034,COMMUNITY HOSPITAL INC,805 FRIENDSHIP ROAD,CENTRE,36078,ELMORE,3342836541
10007,MIZELL MEMORIAL HOSPITAL,702 N MAIN ST,OPP,36467,AUTAUGA,3344933541
10024,JACKSON HOSPITAL & CLINIC INC,1725 PINE STREET,MONTGOMERY,36106,MONTGOMERY,3342938000
10044,STRINGFELLOW MEMORIAL HOSPITAL,301 EAST 18TH ST,,36201,CALHOUN,2562358900
