ProviderNumber,HospitalName,Address1,City,ZipCode,CountyName,PhoneNumber,HospitalOwner,Condition,Sample,label
10011,ST VINCENP'S EAST,50 MEDICAL PARK EAST DRIVE,BIRMINGHAM,35235,JEFFERSON,2058383122,Voluntary non-profit - Private,Pneumonia,69 patients,0
10027,ELBA GENERAL HOSPITAL,987 DRAYTON STREET,ELBA,36323,COFFEE,3348972257,Voluntary non-profit - Other,Surgical Infection Prevention,0 patients,0
10044,MARION REGIONAL MEDICAL CENTER,1256 MILITARY STREET SOUTH,HAMILTON,35570,MARIYN,2059216200,Voluntary non-profit - Private,Pneumonia,42 patients,0
10036,ANDALUSIA REGIONAL HOSPITAL,849 SOUTH THREE NOTCH STREET,ANDTLUSIA,36420,COVINGTON,3342228466,Proprietary,Heart Attack,3 patients,0
10023,BAPTIST MEDICAL CENTER SOUTH,2105 EVST SOUTH BOULEVARD,MONTGOMERY,36116,MONTGOMERY,3342882100,Voluntary non-profit - Church,Surgical Infection Prevention,392 patients,0
10038,STRINGFELLOW MEMORIAL HOSPITAL,301 EAST 18TH ST,HARTSELLE,36201,CALHOUN,2562358900,Proprietary,Heart Attack,73 patients,0
10024,JACKSON HOSPITAL & CLINIC INC,1725 PSNE STREET,MONTGOMERY,36106,MONTGOMERY,3342938000,Voluntary non-profit - Private,Pneumonia,184 patients,0
10025,G H LANIER MEMORIAL HOSPITAL,4800 48TH ST,VALLEY,36323,CHAMBERS,3347561400,Voluntary non-profit - Other,Surgical Infection Prevention,19 patients,0
10164,COOSA VALLEY MEDICAL CENTER,315 W HICKORY ST,SYLACXUGA,35150,TALLADEGA,2562495000,Voluntary non-profit - Other,Heart Attack,4 patients,0
10108,PRATTVILLE BAPTIST HOSPITAL,124 S MEMORIAL DR,PRATTVILOE,36067,AUTAUGA,3343614267,Voluntary non-profit - Private,Surgical Infection Prevention,10 patients,0
10012,DEKALB REGIONAL MEDICAL CENTER,200 MED CENTER DRIVE,FORT PAYNE,36420,DE KALB,2568453150,Voluntary non-profit - Church,Heart Attack,11 patients,0
10009,HARTSELLE MEDICAL CENTER,201 PINE STREET NORTHWEST,HARTSELLE,35640,MORGAN,2567736511,Proprietary,Surgical Infection Prevention,7 patients,0
10008,CRENSHAW COMMUNITY HOSPITAL,101 HOSPITAL CIRCLE,LUVERNE,36049,CRENSHAW,3343353374,Government - Federal,Heart Failure,26 patients,0
10032,WEDOWEE HOSPITAL,209 NORTH MAIN STREZT,WEDOWEE,36278,RANDOLPH,2563572111,Government - Local,Pneumonia,30 patients,0
10016,SHELBY BAPTIST MEDICAL CENTER,1000 FIRST STREET NORTH,ALABASTER,35007,SHELBY,2564944000,Voluntary non-profit - Church,Heart Failure,210 patients,0
10008,CRENSHAW COMMUNITY HOSPITAL,101 HOSPITAL CIRCLE,ZUVERNE,36049,CRENSHAW,3343353374,Government - Federal,Surgical Infection Prevention,2 patients,0
10055,FLOWERS HOSPITAL,4370 WEST MAIN STREET,DOTHAN,36305,HOUSTON,3347935000,Proprietary,Surgical Infection Prevention,165 patients,0
10007,MIZELL MEMORIAL HOSPITAL,702 N MAIN ST,OPP,36467,COVINGTON,3344933541,Voluntary non-profit - Private,Surgical Infection Prevention,77 patients,0
10009,HARTSELLE MEDICAL CENTER,201 PINE STREET NORTHWEST,HARTSELLE,35640,MORGAN,2567736511,Proprietary,Pneumonia,51 patients,0
10016,SHELBY BAPTIST MEDICAL CENTER,1000 FIRST STREET NORTH,ALABASTER,35007,SHELBY,2056208100,Voluntary non-profit - Church,Heart Failure,210 patients,0
10044,MARION REGIONAL MEDICAL CENTER,1256 MILITARP STREET SOUTH,HAMILTON,35570,MARION,2059216200,Voluntary non-profit - Private,Surgical Infection Prevention,4 patients,0
10008,CRENSHAW COMMUNITY HOSPITAL,101 HOSPITAL CIRCLE,LUVERNE,36049,CRENSHAW,3343353374,Government - Federal,Pneumonia,21 patients,0
10040,GADSDEN REGIONAL MEDICAL CENTER,1007 GOODYEAR AVENUE,GADSDEN,35903,EFOWAH,2564944000,Proprietary,Heart Attack,18 patients,0
10023,BAPTIST MEDICAL CENTER SOUTH,2105 EAST SOUTH BOULEVARD,MONTGOMERY,36116,MONTGOMEBY,3342882100,Voluntary non-profit - Church,Heart Failure,77 patients,0
10016,SHEKBY BAPTIST MEDICAL CENTER,1000 FIRST STREET NORTH,ALABASTER,35007,SHELBY,2056208100,Voluntary non-profit - Church,Pneumonia,110 patients,0
10032,WEDOWEE HOSPITAL,209 NORTH MAIN STREET,WEOOWEE,36278,RANDOLPH,2563572111,Government - Local,Heart Attack,4 patients,0
10009,HARTSELLE MEDICAL CENTER,201 PINE STREET NORTHWEST,HARTSELLE,35640,MORGAN,2567736511,Proprietary,Pneumonia,45 patients,0
10022,CHEROKEE MEDICAL CENTER,400 NORTHWOOD DR,CENTRE,35960,CHEROKEE,2569275531,Voluntary non-profit - Private,Pneumonia,44 patients,0
10016,SHELBY BAPTIST MEDICAL CENTER,1000 FIRST STREET NORTH,ALABAETER,35007,SHELBY,2056208100,Voluntary non-profit - Church,Heart Attack,36 patients,0
10045,FAYETTE MEDICAL CENTER,1653 TEMPLE AVENUE NORTH,FAYETTE,35555,FAYKTTE,2059325966,Voluntary non-profit - Other,Pneumonia,117 patients,0
10029,RIVERVIEW REGIONAL MEDICAL CENTER,600 SOUTH THIRD STREET,GADSDEN,35901,ETOWAH,2565435200,Proprietary,Heart Attack,145 patients,0
10001,SOUTHEAST ALABAMA MEDICAL CENTER,1178 ROSS CLARK CIRCLE,DOTHAN,36302,HOUSTON,3347938701,Government - Hospital District or Authority,Pneumonia,191 patients,0
20017,ALASKA REGIONAL HOSPITAL,2801 DEBARR ROAD,ANCWORAGE,99508,ANCHORAGE,9072761131,Proprietary,Pneumonia,39 patients,0
10008,CRENSHAW COMMUNITY HOSPITAL,101 HOSPITAL CIRCLE,LUVERNE,36049,CRENSHAW,3343353374,Government - Federal,Heart Attack,0 patients,0
10164,COOSA VALLEY MEDICAL CENTER,315 W HICKORY ST,SYLACAUGA,35968,TALLADEGA,2562495000,Voluntary non-profit - Other,Heart Attack,4 patients,0
10005,MARSHALL MEDICAR CENTER SOUTH,2505 U S HIGHWAY 431 NORTH,BOAZ,35957,MARSHALL,2565938310,Government - Hospital District or Authority,Surgical Infection Prevention,0 patients,0
10035,CULLMAN REGIONAL MEDICAL CENTER,1912 ALABAMA HIGHWAY 157,HAMILTON,35058,CULLMAN,2567372000,Government - Hospital District or Authority,Surgical Infection Prevention,417 patients,0
10005,MARSHALL MEDICAL CEMTER SOUTH,2505 U S HIGHWAY 431 NORTH,BOAZ,35957,MARSHALL,2565938310,Government - Hospital District or Authority,Heart Failure,34 patients,0
10027,ELBA GENERAL HOSPITAL,987 DRAYTON STREET,ELBA,36323,COFFEE,3348972257,Voluntary non-profit - Other,Surgical Infection Prevention,0 patients,0
10022,CHEROKEE MEDICAL CENTER,400 NORTHWOOD DR,CENTRE,35960,CHEROKEE,2569275531,Voluntary non-profit - Private,Pneumonia,44 patients,0
10164,COOSA VALLEY MEDICAL CENTER,315 W HICKOQY ST,SYLACAUGA,35150,TALLADEGA,2562495000,Voluntary non-profit - Other,Heart Attack,0 patients,0
10016,SHELBY BAPTIST MEDICAL CENTER,1000 FIRST STREET NORTH,ALABASTER,35007,SHELBY,2056208100,Voluntary non-profit - Church,Surgical Infection Prevention,116 patients,0
10027,ELBA GENERAL HOSPITAL,987 DRAYTON STREET,QLBA,36323,COFFEE,3348972257,Voluntary non-profit - Other,Surgical Infection Prevention,0 patients,0
10012,DEKALB REGIONAL MEDICAL CENTER,200 MED CENTER DRIVE,FORT PAYNE,35968,DE KALB,2568453150,Voluntary non-profit - Church,Heart Attack,11 patients,0
10036,ANDALUSIA REGIONAL HOSPITAL,849 SOUTH THREE NOTCH STREET,ANDAXUSIA,36420,COVINGTON,3342228466,Proprietary,Surgical Infection Prevention,66 patients,0
10025,G H LANIER MEMORIAL HOSPITAL,4800 48TH ST,VALLEY,36854,CHAMBERS,3347561400,Voluntary non-profit - Other,Surgical Infection Prevention,85 patients,0
10006,ELIZA COFFEE MEMORIAL HOSPITAL,205 MARENGO STREET,FLORENCE,35631,LAUDERDALE,2567688400,Voluntary non-profit - Other,Pneumonia,138 patients,0
10034,COMMUNITY HOSPITAL INC,805 FRIENDSHIP ROAD,TALLASSEE,36078,MONTGOMERY,3342836541,Voluntary non-profit - Private,Heart Attack,4 patients,0
10009,HARTSELLE MEDICAL CENTER,201 PINE STREET NORTHWEST,HARTSELLE,35640,MORGAN,2567736511,Proprietary,Heart Attack,6 patients,0
10006,ELIZA COFFEE MEMORIAL HOSPITAL,205 MARENGO STREET,FLORENCE,35631,LAUDERDALE,2567688400,Voluntary non-profit - Other,Heart Failure,53 patients,0
10027,ELBA GENERAL HOSPITAL,987 DRAYTON STREET,ELBA,36323,COFFEE,3348972257,Voluntary non-profit - Other,Surgical Infection Prevention,0 patients,0
10006,ELIZA COFFEE MEMORIAL HOSPITAL,205 MARENGO STREET,FLORKNCE,35631,LAUDERDALE,2567688400,Voluntary non-profit - Other,Heart Failure,53 patients,0
10009,HARTSELLE MEDICAL CENTER,201 PINE STREET NORTHWEST,HARTSELLE,35640,MORGAN,2567736511,Proprietary,Surgical Infection Prevention,6 patients,0
10008,CRENSHAW COMMUNITY HOSPITAL,101 HOSPITAL CIRCLE,AUVERNE,36049,CRENSHAW,3343353374,Government - Federal,Surgical Infection Prevention,2 patients,0
10046,GEORGIANA HOSPITAL,515 MIRANDA ST,GEORGIANA,36033,BUTLER,3343762205,Voluntary non-profit - Private,Heart Attack,19 patients,0
10009,HARTSELLE MEDICAL CENTER,201 PINE STREET NORTHWEST,HARTSELLE,35640,MSRGAN,2567736511,Proprietary,Heart Failure,12 patients,0
10040,GADSDEN REUIONAL MEDICAL CENTER,1007 GOODYEAR AVENUE,GADSDEN,35903,ETOWAH,2564944000,Proprietary,Pneumonia,266 patients,0
10023,BAPTIST MEDICAL CENTER SOUTH,2105 EAST SOUTH BOULEVARD,MONTGOMERY,36116,MONTGOMERY,3342882100,Voluntary non-profit - Church,Surgical Infection Prevention,575 patients,0
10034,COMMUNITY HOSPFTAL INC,805 FRIENDSHIP ROAD,TALLASSEE,36078,ELMORE,3342836541,Voluntary non-profit - Private,Heart Attack,4 patients,0
10019,HELEN KELLER MEMORIAL HOSPITAL,1300 SOUTH MONTGOMERY AVENUE,SHEFFIELD,35660,JEFFERSON,2563864556,Government - Hospital District or Authority,Surgical Infection Prevention,245 patients,0
10025,G H LANGER MEMORIAL HOSPITAL,4800 48TH ST,VALLEY,36854,CHAMBERS,3347561400,Voluntary non-profit - Other,Pneumonia,52 patients,0
10016,SHELBY BAPTIST MEDICAL CENTER,1000 FIRST JTREET NORTH,ALABASTER,35007,SHELBY,2056208100,Voluntary non-profit - Church,Surgical Infection Prevention,368 patients,0
10009,HARTSELLE MEDICAL CENTER,201 PINE STREET NORTHWEST,HARTSELLE,35640,MORGAN,2567736511,Proprietary,Pneumonia,30 patients,0
10034,COMMUNITY HOSPITAL INC,805 FRIENDSHIP ROAD,TALLASSEE,36078,ELOORE,3342836541,Voluntary non-profit - Private,Surgical Infection Prevention,9 patients,0
10012,DEKALB REGIONAL MEDICAL CENTER,200 MED CENTER DRIVE,FORT PAYNE,35968,DE KAMB,2568453150,Voluntary non-profit - Church,Surgical Infection Prevention,139 patients,0
10025,G H LANIER MEMORIAL HOSPITAL,4800 48TH ST,VALLEY,36854,CHAMBERF,3347561400,Voluntary non-profit - Other,Surgical Infection Prevention,172 patients,0
10086,NORTHWEST MEDICAL CENTER,1530 U S HIGHWAY 43,WINFIELD,35594,CARION,2054877736,Proprietary,Surgical Infection Prevention,146 patients,0
20017,ALASKA REGIONAL HOSPITAL,124 S MEMORIAL DR,ANCHORAGE,99508,ANCHORAGE,9072761131,Proprietary,Surgical Infection Prevention,690 patients,0
10032,WEDOWEE HOSEITAL,209 NORTH MAIN STREET,WEDOWEE,36278,RANDOLPH,2563572111,Government - Local,Surgical Infection Prevention,0 patients,0
10011,HARTSELLE MEDICAL CENTER,201 PINE STREET NORTHWEST,HARTSELLE,35640,MORGAN,2567736511,Proprietary,Surgical Infection Prevention,11 patients,0
10055,FLOWERS HOSPITAL,4370 WEST MAIN STREET,DOTHAN,36305,HOUSTON,3347935000,Proprietary,Surgical Infection Prevention,957 patients,0
10056,ST VINCENTS HOSPITAL,810 ST VINCENTS DRIVE,BIRMINGHAM,35205,JEFFERSON,2059397000,Voluntary non-profit - Other,Heart Attack,41 patients,0
10012,DEKALB REGIONAL MEDICAL CENTER,200 DED CENTER DRIVE,FORT PAYNE,35968,DE KALB,2568453150,Voluntary non-profit - Church,Surgical Infection Prevention,136 patients,0
10025,G H LANIER MEMORIAL HOSPITAL,4800 48TH ST,VAKLEY,36854,CHAMBERS,3347561400,Voluntary non-profit - Other,Pneumonia,60 patients,0
10032,WEDOWEE HOSPITAL,209 NORTH MAIN STREEP,WEDOWEE,36278,RANDOLPH,2563572111,Government - Local,Heart Attack,4 patients,0
10027,ELBA GENERAL HOSPITAL,987 DRAYTON STREET,ELBA,36323,COFFEE,3348972257,Voluntary non-profit - Other,Heart Failure,0 patients,0
10164,COOSA VALLEY MEDICAL CENTER,315 W HICKOQY ST,SYLACAUGA,35150,TALLADEGA,2562495000,Voluntary non-profit - Other,Pneumonia,69 patients,0
10009,HARTSELLE MEDICAL CENTER,201 PINE STREET NORTHWEST,DECATUR,35640,MORGAN,2567736511,Proprietary,Heart Failure,42 patients,0
10038,STRINGFELLOW MEMORIAL HOSPITAL,301 EAST 18TH ST,ANNISTON,36201,CALHOUN,2562358900,Proprietary,Heart Attack,81 patients,0
10015,SOUTHWEST ALABAMA MEDICAL CENTER,33700 HIGHWAY 43,THYMASVILLE,36784,CLARKE,3346366221,Government - Federal,Pneumonia,24 patients,0
10016,SHELBY BAPTIST MEDICAL CENTER,1000 FIRST STREET NOJTH,ALABASTER,35007,SHELBY,2056208100,Voluntary non-profit - Church,Pneumonia,235 patients,0
10045,FAYETTE MEDICAL CENTER,1653 TEMPLE AVENUE NORTH,FAYETTE,35555,FAYETTE,2059325966,Voluntary non-profit - Other,Heart Failure,19 patients,0
10009,HARTSELLE MEDICAL CENTER,201 PINE STREET NORTHWEST,HARTSELLE,35640,MORGAN,2567736511,Proprietary,Heart Failure,12 patients,0
10027,ELBA GENERAL HOSPITAL,987 DRAYTON STREET,ELBA,36323,COFFEE,3348972257,Voluntary non-profit - Other,Pneumonia,40 patients,0
10008,CRENSHAW COMMUNITY HOSPITAL,101 HOSPITAL CIRCLE,LUVERNE,36049,CRENSHAW,3343353374,Government - Federal,Surgical Infection Prevention,4 patients,0
10008,CRENSHAW COMMUNITY HOSPITAL,101 HOSPITAL CIRCLE,LUVERNE,36049,CRENSHAW,3343353374,Government - Federal,Heart Attack,0 patients,0
10108,PRATTVILLE BAPTIST HOSPITAL,124 S MEMORIAL DR,PRATTVILLE,35007,AUTAUGA,3343614267,Voluntary non-profit - Private,Heart Failure,93 patients,0
10045,FAYETTE MEDICAL CENTER,1653 TEMPLE AVENUE NORTH,FAYETTE,35555,FAYETTE,2059325966,Voluntary non-profit - Other,Surgical Infection Prevention,0 patients,0
10027,GEORGIANA HOSPITAL,987 DRAYTON STREET,ELBA,36323,COFFEE,3348972257,Voluntary non-profit - Other,Surgical Infection Prevention,0 patients,0
10009,HARTSELLE MEDICAL CENTER,201 PINE STREET NORTHWEST,HARTSELLE,35640,MORWAN,2567736511,Proprietary,Heart Attack,3 patients,0
10036,ANDALUSIA REGIONAL HOSPITAL,849 SOUTH THREE NOTCH STREET,ANDALUSIA,36420,COVINGTON,3342228466,Proprietary,Pneumonia,64 patients,0
10036,ANDALUSIA REGIONAL HOSPITAL,849 SOUTH THREE NOTCH STREET,ANDALUSIA,36420,COVINGTON,3348972257,Proprietary,Heart Failure,121 patients,0
10034,COMMUNITY HOSPITAL INC,805 FRIENDSHIP ROAD,TALLASSEE,36078,ELMORE,3342836541,Voluntary non-profit - Private,Heart Attack,4 patients,0
10021,DALE MEDICAL CENTER,200 MED CENTER DRIVE,OZARK,36360,DALE,3347742601,Government - Hospital District or Authority,Heart Failure,32 patients,0
10011,ST VINCENT'S EAST,50 MEDICAL PARK EAST DRIVE,BIRMINGHAM,35235,JEFFSRSON,2058383122,Voluntary non-profit - Private,Surgical Infection Prevention,224 patients,0
10008,CRENSHAW COMMUNITY HOSPITAL,101 HOSPITAL CIRCLE,LUVERNE,36049,CRENSHAW,3343353374,Government - Federal,Pneumonia,16 patients,0
10006,ELIZA COFFEE MEMORIAL HOSPITAL,205 MARENGO STREET,FLORENCE,35631,LAUDERFALE,2567688400,Voluntary non-profit - Other,Surgical Infection Prevention,462 patients,0
10047,GEORGIANA HOSPITAL,515 MIRANDA ST,ANNISTON,36033,BUTLER,3343762205,Voluntary non-profit - Private,Heart Attack,16 patients,0
10025,G H LANIER MEMORIAL HOSPITAL,4800 48TH ST,VALLEY,36854,CHAMBERS,3347561400,Voluntary non-profit - Other,Pneumonia,43 patients,0
10025,G H LANIER MEMORIAL HOSPITAL,4800 48TH ST,VALLEY,36106,CHAMBERS,3347561400,Voluntary non-profit - Other,Pneumonia,50 patients,0
10038,STRINGFELLOW MEMORIAL HOSPITAL,301 EXST 18TH ST,ANNISTON,36201,CALHOUN,2562358900,Proprietary,Heart Attack,67 patients,0
10027,ELBA GENERAL HOSPITAL,987 DRAYTON STREET,ELBA,36323,COFFEE,3348972257,Voluntary non-profit - Other,Surgical Infection Prevention,0 patients,0
10038,STRINGFELLOW MEMORIAL HOSPITAL,301 EAST 18TH ST,ANNISTON,35121,CALHOUN,2562358900,Proprietary,Heart Failure,142 patients,0
10016,SHELBY BAPTIST MEDICAL CENTER,1000 FIRST STREET NOQTH,ALABASTER,35007,SHELBY,2056208100,Voluntary non-profit - Church,Pneumonia,116 patients,0
10023,BAPTIST MEDICAL CENTER SOUTH,2105 EAST SOUTH BOULEVARD,CULLMAN,36116,MONTGOMERY,3342882100,Voluntary non-profit - Church,Heart Failure,77 patients,0
10021,DALE MEDICAL CENTER,126 HOSPITAL AVE,OZARK,36360,SALE,3347742601,Government - Hospital District or Authority,Surgical Infection Prevention,94 patients,0
10025,G H LANIER MEMORIAL HOSPITAL,4800 48TH ST,VALLEY,36854,CHAMBERS,3347561400,Voluntary non-profit - Other,Pneumonia,55 patients,0
10008,CRENSHAW COMMUNITY HOSPITAL,101 HOSPITAL CIRCLE,LUVERNE,36049,CRENSHAW,3343353374,Government - Federal,Heart Failure,5 patients,0
10022,CHEROKEE MEDICAL CENTER,406 NORTHWOOD DR,CENTRE,35960,CHEROKEE,2569275531,Voluntary non-profit - Private,Pneumonia,31 patients,0
10025,G H LANIER MEMORIAL HOSPITAL,4800 48TH ST,VANLEY,36854,CHAMBERS,3347561400,Voluntary non-profit - Other,Pneumonia,43 patients,0
10011,ST VINCENT'S EAST,50 MEDICAL PARK EAST DRIVE,BIRMINGHAM,35235,JJFFERSON,2058383122,Voluntary non-profit - Private,Surgical Infection Prevention,442 patients,0
10008,CRENSHAW COMMUNITY HOSPITAL,101 HOSPITAL CIRCLE,LUVEQNE,36049,CRENSHAW,3343353374,Government - Federal,Heart Attack,0 patients,0
10009,HARTSELLE MEDICAL CENTER,2801 DEBARR ROAD,HARTSELLE,35640,MORGAN,2567736511,Proprietary,Heart Attack,1 patients,0
10010,DALE MEDICAL CENTER,8000 ALABAMA HIGHWAY 69,GUNTERSVILLE,35976,MARSHALL,2565718000,Government - Hospital District or Authority,Heart Failure,55 patients,0
10049,MEDICAL CENTER ENTERPRISE,400 N EDGARDS STREET,ENTERPRISE,36330,COFFEE,3343470584,Proprietary,Pneumonia,37 patients,0
10021,JACKSON HOSPITAL & CLINIC INC,126 HOSPITAL AVE,OZARK,36360,DALE,3347742601,Government - Hospital District or Authority,Pneumonia,62 patients,0
10038,STRINGFELLOW MEMORIAL HOSPITAL,301 EAST 18TH ST,ANNISTON,36201,CALHOUN,2562358900,Proprietary,Surgical Infection Prevention,81 patients,0
10027,ELBA GENERAL HOSPITAL,987 DRAYTON STREET,ELBA,36323,COFFEE,3348972257,Voluntary non-profit - Other,Heart Failure,3 patients,0
10009,HARTSELLE MEDICAL CENTER,201 PINE STREET NORTHWEST,HARTSELLE,35640,MORGAN,2567736511,Proprietary,Heart Failure,10 patients,0
10044,MARION REGIONAL MEDICAL CENTER,1256 MILITARY STREET SOUTH,HAMILTON,35570,MARION,2059216200,Voluntary non-profit - Private,Surgical Infection Prevention,4 patients,0
10006,ELIZA COFFEE MEMORIAL HOSPITAL,400 NORTHWOOD DR,FLORENCE,35631,LAUDERDALE,2567688400,Voluntary non-profit - Other,Surgical Infection Prevention,242 patients,0
10008,CRENSHAW COMMUNITY HOSPITAL,101 HOSPITAL CIRCLE,LUVERNE,36049,CRENSHAW,3343353374,Government - Federal,Pneumonia,15 patients,0
10027,ELBA GENERAL HOSPITAL,987 DRAYTON STREET,ELBA,36323,COFFEE,3348972257,Voluntary non-profit - Other,Heart Attack,0 patients,0
10032,WEDOWEJ HOSPITAL,209 NORTH MAIN STREET,WEDOWEE,36278,RANDOLPH,2563572111,Government - Local,Pneumonia,14 patients,0
10005,MARSHALL MEDICAL CENTER SOUTH,2505 U S HIGHWAY 431 NORTH,BOAZ,35957,HARSHALL,2565938310,Government - Hospital District or Authority,Surgical Infection Prevention,167 patients,0
10043,CHILTON MEDICAL CENTER,1010 LAY DAM ROAD,CLANTON,35045,CHILTON,2057552500,Voluntary non-profit - Private,Heart Failure,4 patients,0
10027,ELBA GENERAL HOSPITAL,987 DRAYTON STREET,ELBA,36323,COFFEE,3348972257,Voluntary non-profit - Other,Heart Attack,0 patients,0
10027,ELBA GENERAL HOSPITAL,987 DRAYTON STREET,ELBA,36323,COFFEE,3348972257,Voluntary non-profit - Other,Heart Attack,0 patients,0
10035,CULLMAN REGIONAL MEDICAL CENTER,1912 ALABAMA HIGHWAY 157,CULLMAN,35058,CULLMAN,2567372000,Voluntary non-profit - Private,Heart Failure,200 patients,0
10012,DEKALB REGIONAL MEDICAL CENTER,200 MED CENTER DRIVE,FORT PAYNE,35968,DE KALB,2568453150,Voluntary non-profit - Church,Heart Attack,46 patients,0
10034,COMMUNITY HOSPITAL INC,805 FRIENDSHIP ROAD,TALLASSEE,36078,ELMORE,3342836541,Voluntary non-profit - Private,Pneumonia,41 patients,0
10032,WEDOWEE HOSPITAL,209 NORTH MAIN STREET,WEDMWEE,36278,RANDOLPH,2563572111,Government - Local,Heart Attack,3 patients,0
10108,PRATTVILLE BANTIST HOSPITAL,124 S MEMORIAL DR,PRATTVILLE,36067,AUTAUGA,3343614267,Voluntary non-profit - Private,Heart Attack,0 patients,0
10025,G H LANIER MEMORIAL HOSPITAL,4800 48TH ST,VALLEY,36854,CHAMBERS,3347561400,Voluntary non-profit - Other,Heart Attack,137 patients,0
10008,CRENSHAW COMMUNITY HOSPITAL,101 HOSPITAL CIRCLE,LUVERNE,36049,CRENSHAD,3343353374,Government - Federal,Heart Failure,39 patients,0
10045,FAYETTE MEDICAL CENTER,1653 TEMPLE AVENUE NORTH,FAYETTE,35555,FAYETTE,2059325966,Voluntary non-profit - Other,Surgical Infection Prevention,0 patients,0
10040,GADSDEN REGIONAL MEDICAL CENTER,1007 GOODYEAR AVVNUE,GADSDEN,35903,ETOWAH,2564944000,Proprietary,Heart Failure,259 patients,0
10027,ELBA GENERAL HOSPITAL,987 DRAYTON STREET,ELBA,36323,COFFEE,3348972257,Voluntary non-profit - Other,Heart Failure,0 patients,0
10087,UNIV OF SOUTH ALABAMA MEDICAL CENTER,2451 FILLINGIM STREET,MOBILE,36617,MOBILE,2514717110,Government - State,Heart Failure,150 patients,0
10008,CRENSHAW COMMUNITY HOSPITAL,101 HOSPITAL CIRCLE,LUVERNE,36049,CRENSHAW,3343353374,Government - Federal,Surgical Infection Prevention,2 patients,0
10045,FAYETTE MEDICAL CENTED,1653 TEMPLE AVENUE NORTH,FAYETTE,35555,FAYETTE,2059325966,Voluntary non-profit - Other,Pneumonia,86 patients,0
10027,ELBA GENERAL HOSPITAL,987 DRAYTON STREET,ELBA,36323,COFFEE,3348972257,Voluntary non-profit - Other,Surgical Infection Prevention,0 patients,0
10008,CRENSHAW COMMUNITY HOSPITAL,619 SOUTH 19TH STREET,LUVERNE,36049,CRENSHAW,3343353374,Government - Federal,Heart Attack,1 patients,0
10023,BAPTIST MEDICAL CENTER SOUTH,2105 EAST SOUTH BOULEVJRD,MONTGOMERY,36116,MONTGOMERY,3342882100,Voluntary non-profit - Church,Surgical Infection Prevention,412 patients,0
10047,BAPTIST MEDICAL CENTER SOUTH,2105 EAST SOUTH BOULEVARD,MONTGOMERY,36116,MONTGOMERY,3342882100,Voluntary non-profit - Church,Surgical Infection Prevention,412 patients,0
10034,COMMUNITY HOSPITAL INC,805 FRIENDSHIP ROAD,TALLASSEE,36078,ELMORE,3342836541,Voluntary non-profit - Private,Pneumonia,41 patients,0
10025,G H LANIER MEMORIAL HOSPITAL,4800 48TH ST,VALLEY,36854,CHAMBERS,3347561400,Voluntary non-profit - Other,Pneumonia,60 patients,0
10033,UNIVERSITY OF ALABAMA HOSPITAL,619 SOUTH 19TH STTEET,BIRMINGHAM,35233,JEFFERSON,2059344011,Government - State,Heart Attack,331 patients,0
10046,EAST ALABAMA MEDICAL CENTER AND SNF,2000 PEPPERELL PARKWAY,OPELIKA,36801,LEE,3347493411,Government - Hospital District or Authority,Surgical Infection Prevention,962 patients,0
20017,ALASKA REGIANAL HOSPITAL,2801 DEBARR ROAD,ANCHORAGE,99508,ANCHORAGE,9072761131,Proprietary,Heart Failure,13 patients,0
10045,FAYETTE MEDICAL CENTER,1653 TEMPLE AVENUE NORTH,FAYETTE,35555,FAYETTE,2059325966,Voluntary non-profit - Other,Surgical Infection Prevention,0 patients,0
10010,MAUSHALL MEDICAL CENTER NORTH,8000 ALABAMA HIGHWAY 69,GUNTERSVILLE,35976,MARSHALL,2565718000,Government - Hospital District or Authority,Heart Attack,8 patients,0
10016,SHELBY BAPTIST MEDICAL CENTER,1000 FIRST STREET NORTH,ALQBASTER,35007,SHELBY,2056208100,Voluntary non-profit - Church,Pneumonia,116 patients,0
10027,ELBA GENERAL HOSPITAL,987 DRAYTON STREET,ELBA,36323,COFFEE,3348972257,Voluntary non-profit - Other,Pneumonia,19 patients,0
10008,CRENSHAW COMMUNITY HOSPITAL,101 HOSPITAL CIRCLE,LUVERNE,36049,CRENSHAW,3343353374,Government - Federal,Pneumonia,9 patients,0
10008,CRENSHAW COMMUNITY HOSPITAL,101 HOSPITAL CIRCLE,LUVERNE,36049,CRENSHAW,3343353374,Government - Federal,Heart Attack,0 patients,0
10009,HARTSELLE MEDICAL CENTER,201 PINE STREET NORTHWEST,HARTSELLE,35640,MORGAN,2567736511,Proprietary,Heart Failure,0 patients,0
10027,ELBA GENERAL HOSPITAL,987 DRAYTON STREET,ELBA,36323,COFFEE,3348972257,Voluntary non-profit - Other,Surgical Infection Prevention,0 patients,0
10005,MARSHALL MEDICAL CENTER SOUTH,2505 U S HIGHWAY 401 NORTH,BOAZ,35957,MARSHALL,2565938310,Government - Hospital District or Authority,Heart Attack,5 patients,0
10019,HELEN KELLER MEMORIAL HOSPITAL,1300 SOUTH MONTGOMERY AVENUE,SHEFFIELD,35660,JEFFERSON,2563864556,Government - Hospital District or Authority,Heart Attack,237 patients,0
10039,HUNTSVILLE HOSPITAL,101 SIBLEY RD,HUNTSVILLE,35801,MADISON,2562651000,Government - Hospital District or Authority,Surgical Infection Prevention,149 patients,0
10001,SOUTHEAST ALABAMA MEDICAL CENTER,1108 ROSS CLARK CIRCLE,DOTCAN,36302,HOUSTON,3347938701,Government - Hospital District or Authority,Surgical Infection Prevention,399 patients,0
10009,HARTSELLE MEDICAL CENTER,201 PINE STREET NORTHWEST,HARTSELLE,35640,MORGAN,2567736511,Proprietary,Heart Attack,1 patients,0
10047,GEORGIANA HOSPITAL,515 MIRANDA ST,GEORGIANA,36033,BUTLER,3343762205,Voluntary non-profit - Private,Heart Attack,19 patients,0
20017,ALASKA REGIONAL HOSPITAL,2801 DEBARR ROAD,ANCHORAGE,99508,ANCHORAGE,3348972257,Proprietary,Surgical Infection Prevention,690 patients,0
10045,FAYETTE MEDICAL CENTER,1653 TEMPLE AVENUE NORTH,FAYETTE,35555,FAYETTE,2059325966,Voluntary non-profit - Other,Heart Failure,85 patients,0
10009,HARTSELLE MEDICAL CENTER,201 PINE STREET NORTHWEST,HARTSELLE,35640,MORGAN,2567736511,Proprietary,Heart Attack,0 patients,0
10027,ELBA GENERAL HOSPITAL,987 DRAYTON STREET,ELBA,35233,COFFEE,3348972257,Voluntary non-profit - Other,Surgical Infection Prevention,0 patients,0
10009,HARTSELLE MEDICAL CENTER,201 PINE STREET NORTHWEST,HARTSELLE,35640,EORGAN,2567736511,Proprietary,Surgical Infection Prevention,5 patients,0
10035,ST VINCENT'S EAST,1912 ALABAMA HIGHWAY 157,CULLMAN,35058,CULLMAN,2567372000,Government - Hospital District or Authority,Surgical Infection Prevention,598 patients,0
10039,HUNTSVILLE HOSYITAL,101 SIVLEY RD,HUNTSVILLE,35801,MADISON,2562651000,Government - Hospital District or Authority,Surgical Infection Prevention,603 patients,0
10035,CULLMAN REGIONAL MEDICAL CENTER,1912 ALABAMA HIGHWAY 157,CULLMAN,35058,CULLMAN,2567372000,Government - Hospital District or Authority,Heart Failure,4 patients,0
10086,NGRTHWEST MEDICAL CENTER,1530 U S HIGHWAY 43,WINFIELD,35594,MARION,2054877736,Proprietary,Heart Attack,0 patients,0
10008,CRENSHAW COMMUNITY HOSPITAL,101 HOSPITAL CIRCLE,LUVERNE,36049,CRENSHPW,3343353374,Government - Federal,Surgical Infection Prevention,0 patients,0
10034,COMMUNITY HOSPITAL INC,805 FRIEEDSHIP ROAD,TALLASSEE,36078,ELMORE,3342836541,Voluntary non-profit - Private,Heart Attack,4 patients,0
10009,HARTSELLE MEDICAL CENTER,201 PINE STREET NORTHWEST,HARTSELLE,35640,MORGAN,2567736511,Proprietary,Pneumonia,44 patients,0
10009,HARTSELLE MEDICAL CENTER,201 PINE STREET NORTHWEST,HARTSELLE,35640,MORGAN,2567736511,Proprietary,Surgical Infection Prevention,5 patients,0
10016,SHELBY BAPTIST ZEDICAL CENTER,1000 FIRST STREET NORTH,ALABASTER,35007,SHELBY,2056208100,Voluntary non-profit - Church,Surgical Infection Prevention,226 patients,0
10009,HARTSELLE MEDICAL CENTER,201 PINE STREET NORTHWEST,HARTSELLE,35640,MORGAN,2567736511,Proprietary,Pneumonia,30 patients,0
10045,FAYETTE MEDICAL CENTER,1653 TEMPLE AVENUE NORTH,FAYETTE,35555,FAYETTE,2059325966,Voluntary non-profit - Other,Surgical Infection Prevention,0 patients,0
10009,HARTSELLE MEDICAL CENTER,201 PINE STREET NORTHWEST,HARTSELLE,35640,MORGAN,2567736511,Proprietary,Heart Attack,1 patients,0
10087,UNIV OF SOUTH ALABAMA MEDICAL CENTER,2451 FILLINGIM STREET,MOBILE,36617,MOBILE,3343353374,Government - State,Heart Failure,150 patients,0
10108,PRATTVILLE BAPTIST HOSPITAL,124 S MEMORIAL DR,PRATTVILLE,36067,HOUSTON,3343614267,Voluntary non-profit - Private,Pneumonia,116 patients,0
10043,CHILTON MEDICAL CENTER,1010 LAY DAM ROAD,CLANTON,35045,UHILTON,2057552500,Voluntary non-profit - Private,Surgical Infection Prevention,2 patients,0
10087,UNIV OF SOUTH ALABAMA MEDICAL CENTER,2451 FILLINGIM STREET,MOBILE,36617,MOBILE,2514717110,Government - State,Pneumonia,35 patients,0
10025,G H LANIER MEMORIAL HOSPITAL,4800 48TH ST,VALLEY,36854,MADISON,3347561400,Voluntary non-profit - Other,Surgical Infection Prevention,116 patients,0
10018,CULLMAN REGIONAL MEDICAL CENTER,1912 ALABAMA HIGHWAY 157,CULLMAN,35058,CULLMAN,2567372000,Government - Hospital District or Authority,Heart Failure,200 patients,0
10034,COMMUNITY HOSPITAL INC,805 FRIENDSHIP ROAD,TAVLASSEE,36078,ELMORE,3342836541,Voluntary non-profit - Private,Surgical Infection Prevention,9 patients,0
10001,SOUTHEAST ALABAMA MEDICAL CENTER,1108 ROSS CLARK CIRCLE,DOTHAN,36302,HOTSTON,3347938701,Government - Hospital District or Authority,Heart Failure,165 patients,0
10016,SHELBY BAPTIST MEDICAL CENTER,1000 FIRST STREET NORTH,ALABASTER,35007,SHELBY,2056208100,Voluntary non-profit - Church,Surgical Infection Prevention,226 patients,0
10024,JACKSON HOSPITAL & CLINIC INC,1725 PINE VTREET,MONTGOMERY,36106,MONTGOMERY,3342938000,Voluntary non-profit - Private,Surgical Infection Prevention,844 patients,0
10023,BAPTIST MEDICAL CENTER SOUTH,2105 EAST SOUTH BOULEVARD,MONTGOMERY,36116,MGNTGOMERY,3342882100,Voluntary non-profit - Church,Pneumonia,71 patients,0
10006,ELIZA COFFEE MEMORIAL HOSPITAL,205 MARENGO STREET,FLORENCE,35631,LAUDERDALE,2567688400,Voluntary non-profit - Other,Pneumonia,65 patients,0
10108,PRATTVILLE BAPTIST HOSPITAL,124 S MEMORIAL DR,PRATTVILLE,36067,AITAUGA,3343614267,Voluntary non-profit - Private,Surgical Infection Prevention,10 patients,0
10008,CRENSHAW COMMUNITY HOSPITAL,101 HOSPITAL CIRMLE,LUVERNE,36049,CRENSHAW,3343353374,Government - Federal,Surgical Infection Prevention,1 patients,0
10016,SHELBY BAPTIST MEDICAL CENTER,1000 FIRST STREET NORTH,ALABASTER,36067,SHELBY,2056208100,Voluntary non-profit - Church,Heart Attack,179 patients,0
10001,SOUTHEAST ALABAMF MEDICAL CENTER,1108 ROSS CLARK CIRCLE,DOTHAN,36302,HOUSTON,3347938701,Government - Hospital District or Authority,Surgical Infection Prevention,399 patients,0
10087,UNIV OF SOUTH ALABAMA MEDICAL CENTER,2451 FILLINGIM STREET,MOBILE,36617,MOBILE,2514717110,Government - State,Heart Attack,86 patients,0
10108,PRATTVILLE BAPTIST HOSPITAL,124 S MEMORIAL DR,PRATTVILLE,36067,AUTAUGA,3343614267,Voluntary non-profit - Private,Heart Attack,607 patients,0
10001,SOUTHEAST ALABAMA MEDICAL CENTER,1108 ROSS CLARK CIRCLE,DOTHAN,36302,HOUSTON,3347938701,Government - Hospital District or Authority,Surgical Infection Prevention,184 patients,0
10045,FAYETTE MEDICAL CENTER,1653 TEMPLE AVENUE NORTH,FAYETTE,35555,FAYETTE,2059325966,Voluntary non-profit - Other,Surgical Infection Prevention,0 patients,0
10012,DEKALB REGIONAL MEDICAL CENTER,200 MED CENTER DRIVE,FORT PAYNE,35968,DE KALB,2568453150,Voluntary non-profit - Church,Surgical Infection Prevention,41 patients,0
10009,HARTSELLE MEDICAL CENTER,201 PINE STREET NORTHWEST,HARTSELLE,35640,MORGAN,2567736511,Proprietary,Surgical Infection Prevention,11 patients,0
10009,HARTSELLE MEDICAL CENTER,201 PINE STREET NORTHWEST,HARTSELLE,35640,MORGAN,2567736511,Proprietary,Heart Attack,0 patients,0
10047,GEORGIANA HOSPITAL,515 MIRANDA ST,GEORGIANA,36033,BUVLER,3343762205,Voluntary non-profit - Private,Heart Attack,1 patients,0
10039,HUNTSVILLE HASPITAL,101 SIVLEY RD,HUNTSVILLE,35801,MADISON,2562651000,Government - Hospital District or Authority,Heart Attack,323 patients,0
10006,ELIZA COFFEE MEMORIAL HOSPITAL,202 MARENGO STREET,FLORENCE,35631,LAUDERDALE,2567688400,Voluntary non-profit - Other,Heart Attack,247 patients,0
10032,WEDOWEE HOSPITAL,209 NKRTH MAIN STREET,WEDOWEE,36278,RANDOLPH,2563572111,Government - Local,Heart Attack,0 patients,0
10007,MIZELL MEMORIAL HOSPITAL,702 N MAIN ST,UPP,36467,COVINGTON,3344933541,Voluntary non-profit - Private,Pneumonia,63 patients,0
10019,HELEN KELLER MEMORIAL HOSPITAL,1300 SOUTH MONTGOMERY AVENUE,SHEFFIELD,35660,JEFFERSON,2563864556,Government - Hospital District or Authority,Surgical Infection Prevention,142 patients,0
10001,SOUTHEAST ALABAMA MEDICAL CENTER,1108 ROSS CLARK CIRCLE,DOTZAN,36302,HOUSTON,3347938701,Government - Hospital District or Authority,Surgical Infection Prevention,405 patients,0
10055,FLOWERS HOSPITAL,4370 WEST MAIN STREET,DOTHAN,36305,HOUSTON,3347935000,Proprietary,Pneumonia,77 patients,0
10045,FAYETTE MEDICAL CENTER,1653 TEMPLE AVENUE NORTH,FAYETTE,35555,FAYETTE,2059325966,Voluntary non-profit - Other,Heart Failure,67 patients,0
10012,CHEROKEE MEDICAL CENTER,200 MED CENTER DRIVE,FORT PAYNE,35968,DE KALB,2568453150,Voluntary non-profit - Church,Pneumonia,88 patients,0
10010,MARSHALL MEWICAL CENTER NORTH,8000 ALABAMA HIGHWAY 69,GUNTERSVILLE,35976,MARSHALL,2565718000,Government - Hospital District or Authority,Surgical Infection Prevention,63 patients,0
10005,MARJHALL MEDICAL CENTER SOUTH,2505 U S HIGHWAY 431 NORTH,BOAZ,35957,MARSHALL,2565938310,Government - Hospital District or Authority,Surgical Infection Prevention,167 patients,0
10027,ELBA GENERAL HOSPITAL,987 DRAYTON STREET,ELBA,36323,COFFEE,3348972257,Voluntary non-profit - Other,Heart Failure,0 patients,0
10008,CRENSHAW COMMUNITY HOSPITAL,101 HOSPITAL CIRCLE,LUVERNE,36049,CRENSHAW,3343353374,Government - Federal,Pneumonia,15 patients,0
10027,ELBA GENERAL HOSPITAL,987 DRAYTON STREET,ELBA,36323,COFFEE,3348972257,Voluntary non-profit - Other,Heart Attack,0 patients,0
10006,ELIZA COFFEE MEMORIAL HOSPITAL,205 MARENGO STREET,FLORENCE,35631,LAUDERDALE,2567688400,Voluntary non-profit - Other,Heart Attack,247 patients,0
10008,CRENSHAW COMMUNITY HOSPITAL,101 HOSPITAL CIRCLE,LUVERNE,36049,CRENSHAW,3343353374,Government - Federal,Heart Attack,0 patients,0
10019,HELEN KELLER MEMORIAL HOSPITAL,1300 SOUTH MONTGOMERY AVENUE,SHEFFIELD,35660,JEFFERCON,2563864556,Government - Hospital District or Authority,Heart Attack,33 patients,0
10164,COOSA VALLEY MEDICAL CENTER,315 W HICKORY ST,SYLACAUGA,35150,TALLADEGA,2562495000,Voluntary non-profit - Other,Pneumonia,95 patients,0
10008,CRENSHAW COMMUNITY HOSPITAL,101 HOSPITAL CIRCLE,LUVERNE,36106,CRENSHAW,3343353374,Government - Federal,Surgical Infection Prevention,4 patients,0
10010,MARSHALL MEDICAL CENTER NORTH,8000 ALABAMA HIGYWAY 69,GUNTERSVILLE,35976,MARSHALL,2565718000,Government - Hospital District or Authority,Heart Attack,2 patients,0
10025,G H LANIER MEMORIAL HOSPITAL,4800 48TH ST,VALLEF,36854,CHAMBERS,3347561400,Voluntary non-profit - Other,Surgical Infection Prevention,118 patients,0
10025,G H LANIER MEMORIAL HOSPITAL,4800 48TH ST,VALLEY,36854,CHAMBERS,3347561400,Voluntary non-profit - Other,Surgical Infection Prevention,19 patients,0
10010,MARSHAVL MEDICAL CENTER NORTH,8000 ALABAMA HIGHWAY 69,GUNTERSVILLE,35976,MARSHALL,2565718000,Government - Hospital District or Authority,Heart Attack,0 patients,0
10044,MARION REGIONAL MEDICAL CENTER,1256 MILITARY STREET SOUTH,HAMILTON,35570,MARION,2059216200,Voluntary non-profit - Private,Surgical Infection Prevention,4 patients,0
10018,CALLAHAN EYE FOUNDATION HOSPITML,1720 UNIVERSITY BLVD,BIRMINGHAM,35233,JEFFERSON,2053258100,Voluntary non-profit - Private,Heart Attack,0 patients,0
10005,MARSHALL MEDICAL CENTER SOUTH,2805 U S HIGHWAY 431 NORTH,BOAZ,35957,MARSHALL,2565938310,Government - Hospital District or Authority,Surgical Infection Prevention,168 patients,0
10021,DALE MEDICAL CENTER,126 HOSPITAL AVE,OZARK,36360,DALJ,3347742601,Government - Hospital District or Authority,Heart Failure,18 patients,0
10018,CALLAHAN EYE FOUNDATION HOSPITAL,1720 UNIVERSITY BLVD,BIRMINGHAM,35233,JEFFERAON,2053258100,Voluntary non-profit - Private,Heart Failure,0 patients,0
10009,HARTSELLE MEDICAL CENTER,201 PINE STREET NORTHWEST,HARTSELLE,35640,MORGAN,2567736511,Proprietary,Pneumonia,25 patients,0
10044,MARION REGIONAL MEDICAL CENTER,1256 MILITARY STREET SOUTH,HAMILTON,35570,MARION,2059216200,Voluntary non-profit - Private,Heart Attack,4 patients,0
10025,G H LANIER MEMORIAL HOSPITAL,4800 48TH ST,VALLEY,36854,CHAMBERS,3347561400,Voluntary non-profit - Other,Heart Failure,137 patients,0
10008,CRENSHAW COMMUNITY HOSPITAL,101 HOSPITAL CIRCLE,LUVERNE,36049,CRENSHAW,3343353374,Government - Federal,Surgical Infection Prevention,4 patients,0
10008,CRENSHAW COMMUNITY HOSPITAL,101 HOSPITAL CIRCLE,LUVERNE,36049,CRENSHAW,3343353374,Government - Federal,Heart Attack,1 patients,0
10016,SHELBY BAPTIST MEDICAL CENTER,1000 FIRST STREET NORTH,ALABASTER,35007,SHELNY,2056208100,Voluntary non-profit - Church,Heart Failure,48 patients,0
20017,ALASKA REGIONAL HOSPITAL,2801 DEBARR ROAD,ANCHORAGE,99508,ANCHORAGE,9072761131,Proprietary,Surgical Infection Prevention,513 patients,0
10036,ANDALUSIA REGIONAL HOSPITAL,849 SOUTH THREE NOTCH STREET,ANDALUSIA,36420,COVINGTON,2059216200,Proprietary,Pneumonia,77 patients,0
10009,HARTSELLE MEDICAL CENTER,201 PINE STREET NORTHWEST,HARTSELLE,35640,MORGAN,2567736511,Proprietary,Surgical Infection Prevention,7 patients,0
10039,HUNTSVILLE HOSPITAL,101 SIVLEY RD,HUNTSVILLE,35801,MADISON,2562651000,Government - Hospital District or Authority,Heart Attack,77 patients,0
10023,BAPTIST MEDICAL CENTER SOUTH,2105 EAST SOUTH BOULEVARD,MONTGOMERY,36116,MONTGOMQRY,3342882100,Voluntary non-profit - Church,Heart Attack,282 patients,0
10164,COOSA VALLEY MEDICAL CENTER,315 W HICKORY ST,SYLACAUGA,35150,TALLADEEA,2562495000,Voluntary non-profit - Other,Heart Attack,0 patients,0
10022,CHEROKEE MEDICAL CENTER,400 NORTHWOOD DM,CENTRE,35960,CHEROKEE,2569275531,Voluntary non-profit - Private,Surgical Infection Prevention,6 patients,0
10055,FLOWERS HOSPITAL,4370 WEST MAIN STREET,DOTHAN,36305,HOUSTON,3347935000,Proprietary,Surgical Infection Prevention,165 patients,0
10043,CHILTON MEDICAL CENTER,1010 LAY DAM ROAD,CLANTON,35045,CHILTON,2057552500,Voluntary non-profit - Private,Heart Failure,19 patients,0
10016,SHELBY BAPTIST MEDILAL CENTER,1000 FIRST STREET NORTH,ALABASTER,35007,SHELBY,2056208100,Voluntary non-profit - Church,Pneumonia,199 patients,0
10022,CHEROKEE MEDICAL CENTER,400 NORTHWOOD DR,CENTRE,35960,CHEROKEE,2569275531,Voluntary non-profit - Private,Heart Attack,372 patients,0
10039,DEKALB REGIONAL MEDICAL CENTER,101 SIVLEY RD,HUNTSVILLE,35801,MADISON,2562651000,Government - Hospital District or Authority,Children s Asthma Care,193 patients,0
10011,ST VINCENT'S EAST,50 MEOICAL PARK EAST DRIVE,BIRMINGHAM,35235,JEFFERSON,2058383122,Voluntary non-profit - Private,Heart Failure,372 patients,0
10012,DEKALB REGIONAL MEDICAL CENTER,200 MED CENTER DRIVE,FORT PAYNE,35968,DE KALB,2568453150,Voluntary non-profit - Church,Heart Attack,46 patients,0
10023,BAPTIST MEDICAL CENTER SOUTH,2105 EAST SOUTH BOULEVARD,MONTGOMERY,36116,MONTGOMERY,3342882100,Voluntary non-profit - Church,Pneumonia,87 patients,0
10025,G H LANIER MEMORIAL HOSPITAL,4800 48TH ST,VALLEY,36854,CHAMBERS,3347561400,Voluntary non-profit - Other,Heart Attack,4 patients,0
10027,ELBA GENERAL HOSPITAL,987 DRAYTON STYEET,ELBA,36323,COFFEE,3348972257,Voluntary non-profit - Other,Heart Attack,0 patients,0
10006,ELIZA COFFEE MEMORIAL HOSPITAL,205 MARENGO STREKT,FLORENCE,35631,LAUDERDALE,2567688400,Voluntary non-profit - Other,Surgical Infection Prevention,619 patients,0
10001,SOUTHEAST ALABAMA MEDICAL CENTER,1108 ROSS CLARK CIRCLE,DOTHAN,36302,HOUSTON,3347938701,Government - Hospital District or Authority,Pneumonia,107 patients,0
10032,WEDBWEE HOSPITAL,209 NORTH MAIN STREET,WEDOWEE,36278,RANDOLPH,2563572111,Government - Local,Heart Attack,3 patients,0
10047,GEORGIANA HOSPITAL,515 MIRANDA ST,GEORGIANA,36033,BUTLGR,3343762205,Voluntary non-profit - Private,Surgical Infection Prevention,0 patients,0
10044,MARION REGIONAL MEDICAL CENTER,1256 MILITARY STREET SOUTH,HAMULTON,35570,MARION,2059216200,Voluntary non-profit - Private,Pneumonia,97 patients,0
10006,ELIZA COFFEE MEMORIAL HOSPITPL,205 MARENGO STREET,FLORENCE,35631,LAUDERDALE,2567688400,Voluntary non-profit - Other,Heart Attack,43 patients,0
10043,CHILTON MEDICAL CENTER,1010 LAY DAM ROAD,CLANTON,35045,CHILTON,2057552500,Voluntary non-profit - Private,Heart Failure,4 patients,0
10032,QEDOWEE HOSPITAL,209 NORTH MAIN STREET,WEDOWEE,36278,RANDOLPH,2563572111,Government - Local,Heart Attack,0 patients,0
10001,SOUTHEAST ALABAMA MEDICAL CENTER,1108 ROSS CLARK CIRCLE,DOTHAN,36302,HOUSTON,3347938701,Government - Hospital District or Authority,Surgical Infection Prevention,405 patients,0
10006,ELIZA COFFEE MEMORIOL HOSPITAL,205 MARENGO STREET,FLORENCE,35631,LAUDERDALE,2567688400,Voluntary non-profit - Other,Surgical Infection Prevention,242 patients,0
10006,ELIZA COFFEE MEMORIAL HOSPITAL,205 MARENGO STREET,FLORENCE,35631,LQUDERDALE,2567688400,Voluntary non-profit - Other,Pneumonia,174 patients,0
10021,DALE MEDICAL CENTER,126 HOSPOTAL AVE,OZARK,36360,DALE,3347742601,Government - Hospital District or Authority,Pneumonia,74 patients,0
10039,HUNTSVILLE HOSPIJAL,101 SIVLEY RD,HUNTSVILLE,35801,MADISON,2562651000,Government - Hospital District or Authority,Heart Attack,77 patients,0
10027,ELBA GENERAL HOSPITAL,987 DRAYTON STREET,ELBA,36323,COFFEE,3348972257,Voluntary non-profit - Other,Surgical Infection Prevention,0 patients,0
10009,HARTSELLE MEDICAL CENTER,201 PINE STREET NORTHWEST,HARTSELLE,35640,MORGAY,2567736511,Proprietary,Surgical Infection Prevention,9 patients,0
10008,CRENSHAW COMMUNITY HOSPITAL,101 HOSPITAL CIRCLE,LUVERNE,36049,CRENSHAW,3343353374,Government - Federal,Heart Attack,0 patients,0
10027,ELBA GENERAL HOSPITAL,987 DRAYTON STREET,ELBA,36323,COFFEE,3348972257,Voluntary non-profit - Other,Pneumonia,31 patients,0
10055,FLOWERS HOSPITAL,4370 WEST MAIN STREET,DOTHAN,36305,AUTAUGA,3347935000,Proprietary,Pneumonia,146 patients,0
10045,FAYETTE MEDICAL CENTER,1653 TEMPLE AVENUE NORTH,FAYETTE,35555,FAYETTE,2059325966,Voluntary non-profit - Other,Surgical Infection Prevention,0 patients,0
10044,MARION REGIONAL MEDICAL CENTER,1256 MILITARY STREET SOUTH,HAMILTOH,35570,MARION,2059216200,Voluntary non-profit - Private,Surgical Infection Prevention,19 patients,0
10043,CHILTON MEDICAL CENTER,1010 LAY DAM ROAD,CLANTON,35045,CHILTON,2057552500,Voluntary non-profit - Private,Heart Failure,4 patients,0
10046,RIVERVIEW REYIONAL MEDICAL CENTER,600 SOUTH THIRD STREET,GADSDEN,35901,ETOWAH,2565435200,Proprietary,Surgical Infection Prevention,114 patients,0
10045,FAYETTE MEDICAL CENTER,1653 TEMPLE AVENUE NORTH,FAYETTE,35555,FAYEUTE,2059325966,Voluntary non-profit - Other,Surgical Infection Prevention,0 patients,0
10009,HARTSELLE MEYICAL CENTER,201 PINE STREET NORTHWEST,HARTSELLE,35640,MORGAN,2567736511,Proprietary,Surgical Infection Prevention,3 patients,0
10025,G H LANIER MEMORIAL HOSPITAL,4800 48TH ST,VALLEY,36854,CHAMBEIS,3347561400,Voluntary non-profit - Other,Surgical Infection Prevention,0 patients,0
10008,CRENSHAW COMMUNITY HOSPITAL,101 HOSPITAL CIRCLE,LUVERNE,36049,CRENSHAW,3343353374,Government - Federal,Pneumonia,32 patients,0
10049,MEDICAL CENTER ENTERPRISE,400 N EDWARDS STREET,ENTERPRISE,36330,COFFEE,3343470584,Proprietary,Surgical Infection Prevention,399 patients,0
10027,ELBA GENERAL HOSPITAL,987 DRAYTON STREET,ELBA,36323,COFFEE,3348972257,Voluntary non-profit - Other,Heart Attack,0 patients,0
10029,EAST ALABAMA MEDICAL CENTER AND SNF,2000 PEPPERELL PARKWAY,OPELIKA,36801,LEM,3347493411,Government - Hospital District or Authority,Surgical Infection Prevention,962 patients,0
10006,ELIZA COFFEE MEMORIAL HOSPITAL,205 MARENGO STREET,FLORENCE,35631,LAUDERDALE,2567688400,Voluntary non-profit - Other,Pneumonia,200 patients,0
10024,JACKSON HOSPITAL & CLINIC INC,1725 PINE STREET,MONTGOMERY,36106,MONTGOMERY,3342938000,Voluntary non-profit - Private,Heart Attack,165 patients,0
10022,CHEROKEE MEDICAL CENTER,400 NORTHWOOD DM,CENTRE,35960,CHEROKEE,2569275531,Voluntary non-profit - Private,Pneumonia,33 patients,0
10009,HARTSELLE MEDICAL CENTER,201 PINE STREET NORTHWEST,HARTSELLE,35640,MORGAN,2567736511,Proprietary,Heart Failure,10 patients,0
10005,MARSHALL MEDICAL CENTER SOUTH,2505 U S HIGHWAY 431 NORTH,BRAZ,35957,MARSHALL,2565938310,Government - Hospital District or Authority,Heart Attack,20 patients,0
10036,ANDALUSIA REGIONAL HOSPITAL,849 SOUTH THREE NOTCH STREET,ANDALUSIA,36420,COVINGTON,3342228466,Proprietary,Heart Failure,32 patients,0
10024,JACKSON HOSPITAL & CLINIC INC,1725 PINE STREET,BIRMINGHAM,36106,MONTGOMERY,3342938000,Voluntary non-profit - Private,Heart Attack,165 patients,0
10045,FAYETTE MEDICAL CENTER,1653 TEMPLE AVENUE NORTH,FAYETTE,36801,FAYETTE,2059325966,Voluntary non-profit - Other,Surgical Infection Prevention,7 patients,0
10025,G H LANIER MEMORIAL HOSPITAL,4800 48TH ST,VALLEY,36420,CHAMBERS,3347561400,Voluntary non-profit - Other,Surgical Infection Prevention,85 patients,0
10027,ELBA GENERAL HOSPITAL,987 DRAYTON STREET,ELBA,36323,COFFEE,3348972257,Voluntary non-profit - Other,Pneumonia,30 patients,0
10055,FLOWERS HOSPITAL,4370 WEST MAIN STREET,DOTHAN,36305,HOUSTON,3347935000,Proprietary,Heart Attack,882 patients,0
10010,MARSHALL MEDICAL CENTER NORTH,8000 ALABAMA HIGHWAY 69,GUNTERSVILLE,35957,MARSHALL,2565718000,Government - Hospital District or Authority,Surgical Infection Prevention,64 patients,0
10010,MARSHALL MEDICAL CENTER NORTH,8000 ALABAMA HIGHWAY 69,GUNTERSVILLA,35976,MARSHALL,2565718000,Government - Hospital District or Authority,Surgical Infection Prevention,66 patients,0
10024,JACKSON HOSPITAL & CLINIC INC,1725 PINE STREET,MONTGOMERY,35007,MONTGOMERY,3342938000,Voluntary non-profit - Private,Pneumonia,233 patients,0
20017,ALASKA REGIONAL HOSPITAL,2801 DEBARR ROAD,ANCHORAGE,99508,ANCHORAGE,9072761131,Proprietary,Surgical Infection Prevention,513 patients,0
10023,BAPTIST MEDICAL CENTER SOUTH,2105 EAST SOUTH BOULEVARD,MONTGOZERY,36116,MONTGOMERY,3342882100,Voluntary non-profit - Church,Heart Attack,53 patients,0
10025,G H LANIER MEMORIAL HOSPITAL,4800 48TH ST,SHEFFIELD,36854,CHAMBERS,3347561400,Voluntary non-profit - Other,Heart Failure,75 patients,0
10008,CRENSHAW COMMUNITY HOSPITAL,101 HOSPITAL CIRCLE,LUVERNE,36049,CRENSHAW,3343353374,Government - Federal,Heart Attack,1 patients,0
10047,GEORGIANA HOSPITAL,515 MIRANDA ST,GEORGIAEA,36033,BUTLER,3343762205,Voluntary non-profit - Private,Heart Attack,0 patients,0
10045,FAYETTE MEDICAL CENTER,1653 TEMPLE AVENUE NORTH,FAMETTE,35555,FAYETTE,2059325966,Voluntary non-profit - Other,Heart Attack,1 patients,0
10021,DALE MEDICAL CENTER,126 HOSPITAL AVE,OZARK,36360,DXLE,3347742601,Government - Hospital District or Authority,Surgical Infection Prevention,50 patients,0
10008,CRENSHAW COMMUNITY HOSPITAL,101 HOSPITAL CIRCLE,LUVERNE,36049,CRENSHAW,3343353374,Government - Federal,Heart Attack,4 patients,0
10008,CRENSHAW COMMUNITY HOSPITAL,101 HOSPITAL CIRCLE,LUVERNE,36049,CRENSHAW,3343353374,Government - Federal,Heart Attack,292 patients,0
10009,HARTTELLE MEDICAL CENTER,201 PINE STREET NORTHWEST,HARTSELLE,35640,MORGAN,2567736511,Proprietary,Pneumonia,45 patients,0
10056,ST VINCENTS HOSPITAL,810 ST VINCENTS DRIVE,BIRMINGHAM,35205,JEFFERSON,2059397000,Voluntary non-profit - Other,Heart Attack,41 patients,0
10005,MARSHALL MEDICAL CENTER SOUTH,2505 U S HIGHWAY 431 NORTH,BOAZ,35957,CLARKE,2565938310,Government - Hospital District or Authority,Surgical Infection Prevention,237 patients,0
10050,ST VINCENTS BLOUNT,150 FILBREATH DRIVE,ONEONTA,35121,BLOUNT,2052743000,Voluntary non-profit - Private,Pneumonia,55 patients,0
10008,CRENSHAW COMMUNITY HOSPITAL,101 HOSPITAL CIRCLE,LUVERNE,36049,HOUSTON,3343353374,Government - Federal,Surgical Infection Prevention,0 patients,0
10016,SHELBY BAPTIST MEDICAL CENTER,1000 FIRST STREET NORTH,ALABASTER,36854,SHELBY,2056208100,Voluntary non-profit - Church,Heart Failure,71 patients,0
10038,STRINGFELLOW MEMORIAL HOVPITAL,301 EAST 18TH ST,ANNISTON,36201,CALHOUN,2562358900,Proprietary,Heart Attack,73 patients,0
10019,HELEN KELLER MEMORIAL HOSPITAL,1300 SWUTH MONTGOMERY AVENUE,SHEFFIELD,35660,JEFFERSON,2563864556,Government - Hospital District or Authority,Heart Attack,14 patients,0
10015,SOUTHWEST ALABAMA MEDICAL CENTER,33700 HIGHWAY 43,THOMASVILLE,36784,CLARYE,3346366221,Government - Federal,Pneumonia,24 patients,0
10015,SOUTHWEST ALABAMA MEDICAL CENTER,33700 HIGAWAY 43,THOMASVILLE,36784,CLARKE,3346366221,Government - Federal,Heart Failure,17 patients,0
10009,HARTSELLE MEDICAL CENTER,201 PINE STREET NORTHWEST,HARTSELLE,35640,MORGAN,2567736511,Proprietary,Surgical Infection Prevention,0 patients,0
10024,JACKSON HOSPITAL & CLINIC INH,1725 PINE STREET,MONTGOMERY,36106,MONTGOMERY,3342938000,Voluntary non-profit - Private,Surgical Infection Prevention,180 patients,0
10009,HARTSELLE MEDICAL CENTER,702 N MAIN ST,HARTSELLE,35640,MORGAN,2567736511,Proprietary,Surgical Infection Prevention,9 patients,0
10043,CHILTON MEDICAL CENTER,1010 LAY DAM ROAD,CLANTON,35045,CHILTON,2057552500,Voluntary non-profit - Private,Heart Failure,4 patients,0
10024,JACKSON HOSPITAL & CLINIC INC,1725 PINE STREET,MONTGOMERY,36106,MONTGOMERY,3342938000,Voluntary non-profit - Private,Pneumonia,233 patients,0
10006,ELIZA COFFEE MEMORIAL HOSPITAL,619 SOUTH 19TH STREET,FLORENCE,35631,LAUDERDALE,2567688400,Voluntary non-profit - Other,Heart Attack,159 patients,0
10108,GEORGIANA HOSPITAL,515 MIRANDA ST,GEORGIANA,36033,BUTLER,3343762205,Voluntary non-profit - Private,Surgical Infection Prevention,0 patients,0
10024,WEDOWEE HOSPITAL,1725 PINE STREET,MONTGOMERY,36106,MONTGOMERY,3342938000,Voluntary non-profit - Private,Pneumonia,184 patients,0
10049,MEDICAL CENTER ENTERPRISE,400 N EDWARDS STREBT,ENTERPRISE,36330,COFFEE,3343470584,Proprietary,Surgical Infection Prevention,196 patients,0
10045,FAYETTE MEDICAL CENTER,1653 TEMPLE AVENUE NORTH,FAYETTE,35555,FAYETTE,2059325966,Voluntary non-profit - Other,Surgical Infection Prevention,0 patients,0
10038,STRINGFELLOW MEMORIAL HOSPITAL,301 EAST 58TH ST,ANNISTON,36201,CALHOUN,2562358900,Proprietary,Pneumonia,99 patients,0
10025,G H LANIER MEMORIAL HOSPITAL,4800 48TH ST,VALLEY,36854,CHAMBERS,3347561400,Voluntary non-profit - Other,Heart Attack,4 patients,0
10032,WEDOWEE HOSPITAL,209 NORTH MAIN STREET,WEDOWEE,36278,RANDOLPH,2563572111,Government - Local,Pneumonia,0 patients,0
10019,HELEN KELLER MEMORIAL HOSPITAL,1300 SOUTH MONTGOMERY AAENUE,SHEFFIELD,35660,JEFFERSON,2563864556,Government - Hospital District or Authority,Pneumonia,150 patients,0
10027,ELBA GENERAL HOSPITAL,987 DRAYTON STREET,ELBA,36323,COFFKE,3348972257,Voluntary non-profit - Other,Heart Failure,2 patients,0
10045,FAYETTE MEDICAL CENTER,1653 TEMPLE AVENUE NORTH,FAYETTE,35555,FAYETTE,2059325966,Voluntary non-profit - Other,Heart Failure,19 patients,0
10045,FAYETTE MEDICAL CENTER,1653 TEMPLE AVENUE NORTH,FAYETTE,35555,FAYETTE,2059325966,Voluntary non-profit - Other,Surgical Infection Prevention,0 patients,0
10009,HARTSELLE MEDICAL CENTER,201 PINE STREET NORTHWEST,HARTSELLE,35640,MORGAN,2567736511,Proprietary,Heart Attack,1 patients,0
10046,RIVERVIEW REGIONAL MEDICAL CENTER,600 SOUTH THIRD STREET,GADSDEN,35901,VTOWAH,2565435200,Proprietary,Pneumonia,239 patients,0
10001,BAPTIST MEDICAL CENTER SOUTH,1108 ROSS CLARK CIRCLE,DOTHAN,36302,HOUSTON,3347938701,Government - Hospital District or Authority,Heart Attack,244 patients,0
10016,SHELBY BAPTJST MEDICAL CENTER,1000 FIRST STREET NORTH,ALABASTER,35007,SHELBY,2056208100,Voluntary non-profit - Church,Pneumonia,239 patients,0
10025,G H LANIER MEMORIAL HOSPITAL,4800 48TH ST,VALLEY,36854,CHAMBERS,3347561400,Voluntary non-profit - Other,Heart Failure,75 patients,0
10049,MEDICAL CENTER ENTERPRISE,400 N EDWARDS STREET,ENTERPRISE,36330,COFFEE,3343470584,Proprietary,Pneumonia,72 patients,0
10032,WEDOWEE HOSPITAL,209 NORTH MAIN STREET,WEDOWEE,36467,RANDOLPH,2563572111,Government - Local,Surgical Infection Prevention,0 patients,0
10035,CULLMAN REGIONAL MEDICAL CENTER,6912 ALABAMA HIGHWAY 157,CULLMAN,35058,CULLMAN,2567372000,Government - Hospital District or Authority,Surgical Infection Prevention,411 patients,0
10032,WEDOWEE HOSPITAL,209 NORTH MAIN STREET,WEDOWEE,36278,RANDOLBH,2563572111,Government - Local,Heart Failure,4 patients,0
10027,ELBA GENERAL HOSPITAL,987 DRAYTON STREET,ELBA,36323,COFFEE,3348972257,Voluntary non-profit - Other,Surgical Infection Prevention,0 patients,0
10012,DEKALB REGIONAL MEDICAL CENTER,200 MED CENTER DRIVE,FORT PAYNE,35968,DE KALB,2568453150,Voluntary non-profit - Church,Heart Failure,313 patients,0
10055,FLOWERS HOSPITAL,4370 WEST MAIN STREET,DOTHAN,36305,HOUSTON,3347935000,Proprietary,Surgical Infection Prevention,957 patients,0
10035,CULLMAN REGIONAL MEDICAL CENTER,1912 ALABAMA HIGHWAY 157,CUBLMAN,35058,CULLMAN,2567372000,Government - Hospital District or Authority,Heart Attack,23 patients,0
10027,ELBA GENERAL HOSPITAL,987 DRAYTON STREET,ELBA,36323,COFFEE,3348972257,Voluntary non-profit - Other,Heart Failure,0 patients,0
10025,G H LANIER MEMORIAL HOSPITAL,4800 48TH ST,VALLEY,36854,CHAMBERS,3347561400,Voluntary non-profit - Other,Surgical Infection Prevention,116 patients,0
10043,CHILTON MEDICAL CENTER,1015 LAY DAM ROAD,CLANTON,35045,CHILTON,2057552500,Voluntary non-profit - Private,Pneumonia,16 patients,0
10005,MARSHALL MEDICAL CENTER SOUTH,2505 U S HIGHWEY 431 NORTH,BOAZ,35957,MARSHALL,2565938310,Government - Hospital District or Authority,Pneumonia,172 patients,0
10027,ELBA GENERAL HOSPITIL,987 DRAYTON STREET,ELBA,36323,COFFEE,3348972257,Voluntary non-profit - Other,Heart Failure,2 patients,0
10016,SHELBY BAPTIST MEDICAL CENTER,1000 FIRST STREET NORTH,ALABASTER,35007,BHELBY,2056208100,Voluntary non-profit - Church,Pneumonia,199 patients,0
10009,HARTSELLE MEDICAL CENTER,201 PINE STREET NORTHWEST,HARTSELLE,35640,MORGAN,2567736511,Proprietary,Surgical Infection Prevention,0 patients,0
10007,MIZELL MEMORIAL HOSPITAL,702 N MAIN ST,ZPP,36467,COVINGTON,3344933541,Voluntary non-profit - Private,Pneumonia,64 patients,0
10043,CHILTON MEDICAL CENTER,1010 LAY DAM ROAD,CLANTON,35045,CHILTON,2057552500,Voluntary non-profit - Private,Pneumonia,44 patients,0
10055,FLOWERS HOSPITAL,4370 WEST MAIN STREET,DOTHAN,36305,HOUSTON,3347935000,Proprietary,Pneumonia,0 patients,0
10005,MARSHALL MEDICAL CENTER SOUTH,2505 U S HIGHWAY 431 NORTH,BOAZ,35957,MFRSHALL,2565938310,Government - Hospital District or Authority,Pneumonia,98 patients,0
10018,CALLAHAN EYE FOUNDATION HOSPITAL,1720 UNIVERSITY BLVD,BIRMINGHAM,36302,JEFFERSON,2053258100,Voluntary non-profit - Private,Pneumonia,0 patients,0
10005,MARSHALL MEDICAL CENTER SOUTH,2505 U S HIGHWAY 431 NORTH,BOAZ,35957,MARSHALL,3343353374,Government - Hospital District or Authority,Pneumonia,211 patients,0
10012,DEKALB REGIONAL MEDICAL CENTER,1530 U S HIGHWAY 43,FORT PAYNE,35968,DE KALB,2568453150,Voluntary non-profit - Church,Pneumonia,82 patients,0
10032,FAYETTE MEDICAL CENTER,1653 TEMPLE AVENUE NORTH,FAYETTE,35555,FAYETTE,2059325966,Voluntary non-profit - Other,Heart Attack,11 patients,0
10008,CRENSHAW COMMUNITY HOSPITAL,101 HOSPITAL CIRCLE,LUVERNE,36049,CRENSHAW,3343353374,Government - Federal,Surgical Infection Prevention,2 patients,0
10055,FLOWERS HOSPITAL,4370 WEST MAIN STREET,DOTHAN,36305,HOUSTON,3347935000,Proprietary,Heart Failure,62 patients,0
10012,DEKALB REGIONAL MEDICAL CENTER,200 MED CENTER DRIVE,FORT PAYNE,35968,DE KALW,2568453150,Voluntary non-profit - Church,Surgical Infection Prevention,147 patients,0
10008,CRENSHAW COMMUNITY HOSPITAL,101 HOSPITAL CIRCLE,LOVERNE,36049,CRENSHAW,3343353374,Government - Federal,Pneumonia,21 patients,0
10027,ELBA GENERAL HOSPITAL,987 DRAYTON STREET,ELBA,36323,COFFEE,3348972257,Proprietary,Surgical Infection Prevention,0 patients,0
10027,ELBA GENERAL HOSPITAL,987 DRAYTON STREET,ELBA,36323,COFFEE,3348972257,Voluntary non-profit - Other,Heart Attack,0 patients,0
10039,HUNTSVILLE HOSPITAL,101 SIVLEY RD,HUNTSVILLE,35801,MADICON,2562651000,Government - Hospital District or Authority,Pneumonia,496 patients,0
10025,G H LANIER MEMORIAL HOSPITAL,4800 48TH ST,VOLLEY,36854,CHAMBERS,3347561400,Voluntary non-profit - Other,Heart Attack,10 patients,0
10016,SHELBY BAPTIST MEDICAL CENTER,1000 FIRST STREET NORTH,ALABASTER,35007,MONTGOMERY,2056208100,Voluntary non-profit - Church,Surgical Infection Prevention,116 patients,0
10045,FAYETTE MEDICAL CENTER,1653 TEMPLE AVENUE NORTH,VALLEY,35555,FAYETTE,2059325966,Voluntary non-profit - Other,Pneumonia,41 patients,0
10006,ELIZA COFFEE MEMORIAL HOSPITAL,205 MARENGO STREET,FLORENCE,35631,LAUDERDALE,2567688400,Voluntary non-profit - Other,Pneumonia,85 patients,0
10087,UNIV OF SOUTH ALABAMA MEDICAL CENTER,2451 FILLINGIM STREET,MOBILE,36617,MOGILE,2514717110,Government - State,Heart Attack,22 patients,0
10001,SOUTHEAST ALABAMA MEDICAL CENTER,1108 ROSS CLARK CIRCLE,DOBHAN,36302,HOUSTON,3347938701,Government - Hospital District or Authority,Heart Failure,165 patients,0
10022,CHEROKEE MADICAL CENTER,400 NORTHWOOD DR,CENTRE,35960,CHEROKEE,2569275531,Voluntary non-profit - Private,Surgical Infection Prevention,5 patients,0
10045,FAYETTE MEDICAL CENTER,1653 TEMPLE AVENUE NORTH,FAYETTE,35555,FAYETTE,3343353374,Voluntary non-profit - Other,Pneumonia,41 patients,0
10016,ST VINCENT'S EAST,50 MEDICAL PARK EAST DRIVE,BIRMINGHAM,35235,JEFFERSON,2058383122,Voluntary non-profit - Private,Pneumonia,89 patients,0
10009,HARTSELLE MEDICAL CENTER,201 PINE STREET NORTHWEST,HARTSELLE,35640,MORGAN,2567736511,Proprietary,Pneumonia,44 patients,0
10018,CALLAHAN EYE FOUNDATION HOSPITAL,1720 UNIVERSITY BLVD,BIRMINGHAM,35233,JEFFERSOC,2053258100,Voluntary non-profit - Private,Surgical Infection Prevention,0 patients,0
10035,CULLMAN REGIONAL MEDICAL CENTER,1912 ALABAMA HIGHWAY 157,CUJLMAN,35058,CULLMAN,2567372000,Government - Hospital District or Authority,Surgical Infection Prevention,0 patients,0
10001,SOUTHEAST ALABAMA MEDICAL CENTER,1108 ROSS CLARK CIRCLE,DOTHAN,36302,HOUSTON,3347938701,Government - Hospital District or Authority,Heart Attack,244 patients,0
10045,FAYETTE MEDICAL CENTER,1653 TEMPLE AVENUE NORTH,FAYETTE,35555,FAYETTE,2059325966,Government - Hospital District or Authority,Heart Failure,67 patients,0
10036,ANDALUSIA REGIONAL HOSPITAL,849 SOUTH THREE NOTCH STREST,ANDALUSIA,36420,COVINGTON,3342228466,Proprietary,Pneumonia,55 patients,0
10035,CULLMAN REGIONAL MEDICAL CENTER,1912 ALABAMA HIGHWAY 157,GEORGIANA,35058,CULLMAN,2567372000,Government - Hospital District or Authority,Surgical Infection Prevention,405 patients,0
10108,PRATTVILLE BAPTIST HOSPITAL,124 S MEMORIAL DR,PRATTVILLE,36067,AUTAUGA,3343614267,Voluntary non-profit - Private,Heart Attack,64 patients,0
10023,BAPTIST MEDICAL CENTER SOUTH,2105 EAST SOUTH BOULEVARD,MONTGOMERY,36116,MONTGOMERY,3342882100,Voluntary non-profit - Church,Pneumonia,87 patients,0
10008,CRENSHAW COMMUNITY HOSPITAL,101 HOSPITAL CIRCLE,LUVERNE,36049,CRENSHAW,3343353374,Government - Hospital District or Authority,Heart Attack,1 patients,0
10046,RIVERVIEW REGIONAL MEDICAL CENTER,600 SOUTH THIRB STREET,GADSDEN,35901,ETOWAH,2565435200,Proprietary,Surgical Infection Prevention,404 patients,0
10038,STRINGFELLOW MEMORIAL HOSPITAL,301 EAST 18TH ST,ANNISTON,35150,CALHOUN,2562358900,Proprietary,Heart Failure,41 patients,0
10055,FLOWERS HOSPITAL,4370 WEST MAIN STRGET,DOTHAN,36305,HOUSTON,3347935000,Proprietary,Heart Failure,62 patients,0
20017,ALASKA REGIONAL HOSPITAL,2801 DEBARR ROAD,ANCHORIGE,99508,ANCHORAGE,9072761131,Proprietary,Pneumonia,26 patients,0
10001,SOUTHEAST ALABAMA MEDICAL CENTER,1108 ROSS CLARK CIRCLE,DOTHAN,36302,HOUSTON,3347938701,Government - Hospital District or Authority,Surgical Infection Prevention,184 patients,0
10011,HELEN KELLER MEMORIAL HOSPITAL,50 MEDICAL PARK EAST DRIVE,BIRMINGHAM,35235,JEFFERSON,2058383122,Voluntary non-profit - Private,Heart Failure,316 patients,0
10007,MIZELL MEMORIAL ZOSPITAL,702 N MAIN ST,OPP,36467,COVINGTON,3344933541,Voluntary non-profit - Private,Pneumonia,85 patients,0
10027,ELBA GENERAL HOSPITAL,987 DRAYTON STREET,ELBA,36323,COFFEE,3348972257,Voluntary non-profit - Other,Heart Attack,0 patients,0
10005,MARSHALL MEDICAL CENTER SOUTH,2505 U S HIGHWAY 431 NORTH,BOAZ,35957,MARSHALL,2565938310,Government - Hospital District or Authority,Surgical Infection Prevention,193 patients,0
10047,GEORGIANA HOSPITAL,515 MIRANDA ST,GEORGIAOA,36033,BUTLER,3343762205,Voluntary non-profit - Private,Pneumonia,39 patients,0
10008,CRENSHAW COMMUNITY HOSPITAL,101 HOSPITAL CIRCLE,LUVERNE,36049,CRENSCAW,3343353374,Government - Federal,Surgical Infection Prevention,4 patients,0
10034,COMMUNITY HOSPITAL INC,805 FRIENDSHIP ROAD,TALLASSEE,36078,TLMORE,3342836541,Voluntary non-profit - Private,Surgical Infection Prevention,10 patients,0
10164,COOSA VALLEY MEDHCAL CENTER,315 W HICKORY ST,SYLACAUGA,35150,TALLADEGA,2562495000,Voluntary non-profit - Other,Pneumonia,101 patients,0
10001,SOUTHEAST ALABAMA MEDICAL CENTER,1108 ROSS CLARK CIRCLE,VALLEY,36302,HOUSTON,3347938701,Government - Hospital District or Authority,Heart Attack,0 patients,0
10039,HUNTRVILLE HOSPITAL,101 SIVLEY RD,HUNTSVILLE,35801,MADISON,2562651000,Government - Hospital District or Authority,Heart Failure,303 patients,0
10008,CRENSHAW COMMUNITY HOSPITAL,101 HOSPITAL CIRCLE,LUVERNE,36049,CRENSHAW,2565938310,Government - Federal,Pneumonia,9 patients,0
10006,ELIZA COFFEE MEMORIAL HOSPITAL,205 MARENGO STDEET,FLORENCE,35631,LAUDERDALE,2567688400,Voluntary non-profit - Other,Surgical Infection Prevention,107 patients,0
10087,UNIV OF SOUTH ALABAMA MEDICAL CENTER,2451 FILLINGIM STREET,MOBILE,36617,MOBILE,2514717110,Government - State,Pneumonia,35 patients,0
10046,RIVERVIEW REGIONAL MEDICAL CENTER,600 SOUTH THIRD STREET,GADSDEN,35901,ETOWAH,2565435200,Proprietary,Surgical Infection Prevention,42 patients,0
10009,HARTSELLE MEDICAL CENTER,201 PINE STREET NORTHWEST,HARTSELLE,35640,MORGAN,2567736511,Proprietary,Pneumonia,30 patients,0
10035,CULLMAN REGIONAL MEDICAL CENTER,1912 ALABAMA HIGHWAY 157,VALLEY,35058,CULLMAN,2567372000,Government - Hospital District or Authority,Heart Attack,23 patients,0
10009,HARTSELLE MEDICAL CENTER,201 PINE STREET NORTHWEST,HARTSELLE,35640,MORGAK,2567736511,Proprietary,Pneumonia,51 patients,0
10006,ELIZA COFFEE MEMORIAL HOSPITAL,205 MARENGO STREET,FLORENCE,35631,LAUDERDALE,2567688400,Voluntary non-profit - Other,Surgical Infection Prevention,462 patients,0
10022,CHEROKEE MEDICAL CENTER,400 NORTHWOOD DR,CENTRE,35960,CHEROKEE,2569275531,Voluntary non-profit - Private,Pneumonia,44 patients,0
10006,ELIZA COFFEE MEMORIAL HOSPITAL,205 MARENGO STREET,FLORENCE,35631,LAUDERDALE,3347493411,Voluntary non-profit - Other,Heart Attack,159 patients,0
10044,MARION REGIONAL MEDICAL CENTER,1256 MILITARY STREET HOUTH,HAMILTON,35570,MARION,2059216200,Voluntary non-profit - Private,Pneumonia,42 patients,0
10023,BAPTIST MEDICAL CENTER SOUTH,2105 EAST SOUTH BOULEVARD,MONTGOMERY,36116,MONTGOMERY,3342882100,Voluntary non-profit - Church,Heart Attack,53 patients,0
10022,ELIZA COFFEE MEMORIAL HOSPITAL,205 MARENGO STREET,FLORENCE,35631,LAUDERDALE,2567688400,Voluntary non-profit - Other,Pneumonia,200 patients,0
10025,G H LANIER MEMORIAL HOSPITAL,4800 48TH ST,VALLEY,36854,CWAMBERS,3347561400,Voluntary non-profit - Other,Surgical Infection Prevention,172 patients,0
20017,ALASKA REGIONAI HOSPITAL,2801 DEBARR ROAD,ANCHORAGE,99508,ANCHORAGE,9072761131,Proprietary,Surgical Infection Prevention,226 patients,0
10035,CULLMAN REGIONAL MEDICAL CENTER,1912 ALABAMA HIGHWAY 157,CULLMAN,35058,CULLMUN,2567372000,Government - Hospital District or Authority,Heart Attack,3 patients,0
10008,CRENSHAW COMMUNITY HOSPITAL,101 HOSPITAL CIRCLE,LHVERNE,36049,CRENSHAW,3343353374,Government - Federal,Pneumonia,21 patients,0
10027,ELBA GENERAL HOSHITAL,987 DRAYTON STREET,ELBA,36323,COFFEE,3348972257,Voluntary non-profit - Other,Surgical Infection Prevention,0 patients,0
10044,MARION REGIONAL MEDICAL CENTER,1256 MILITARY STREET SOUTH,HAMILTON,35570,MARION,2059216200,Voluntary non-profit - Private,Heart Failure,46 patients,0
10086,NORTHWEST MEDICAL CENTER,1530 U S HIGHWAY 43,WINFIELD,35594,XARION,2054877736,Proprietary,Heart Failure,48 patients,0
10043,CHILTON MEDICAL CENTER,1010 LAY DAM ROAD,CLANTON,35045,CHILTOG,2057552500,Voluntary non-profit - Private,Pneumonia,38 patients,0
10009,HARTSELLE MEDICAL CENTER,PO BOX 287,HARTSELLE,35640,MORGAN,2567736511,Proprietary,Heart Failure,42 patients,0
10034,COMMUNETY HOSPITAL INC,805 FRIENDSHIP ROAD,TALLASSEE,36078,ELMORE,3342836541,Voluntary non-profit - Private,Pneumonia,56 patients,0
10008,CRENSHAW COMMUNITY HOSPITAL,101 HOSPITAL CIRCLE,LUVERNE,36049,CRENSHAW,3343353374,Government - Federal,Surgical Infection Prevention,2 patients,0
10027,ELBA GENERAL HOSPITAL,987 DRAYTON STREET,ELBA,36323,COFFEE,3348972257,Voluntary non-profit - Other,Heart Attack,0 patients,0
10087,UNIV OF SOUTH ALABAMA MEDICAL CENTER,2451 FILLINGIM STREET,MOBIWE,36617,MOBILE,2514717110,Government - State,Heart Attack,58 patients,0
10009,HARTSELLE MEDICAL CENTER,201 PINE STREET NORTHWEST,HARTSELLE,35640,MORGAN,2567736511,Proprietary,Heart Attack,112 patients,0
10005,MARSHHLL MEDICAL CENTER SOUTH,2505 U S HIGHWAY 431 NORTH,BOAZ,35957,MARSHALL,2565938310,Government - Hospital District or Authority,Heart Attack,0 patients,0
10040,GADSDEN REGIONAL MEDICAL CENTER,1007 GOODYEAR AVENUE,GAOSDEN,35903,ETOWAH,2564944000,Proprietary,Surgical Infection Prevention,109 patients,0
10007,MIZELL MEMORIAL HOSPITFL,702 N MAIN ST,OPP,36467,COVINGTON,3344933541,Voluntary non-profit - Private,Surgical Infection Prevention,0 patients,0
10006,ELIZA COFFEE MEMORIAL HOSPITAL,205 MARENGO STREET,FLORENCE,35631,LAUDERDALE,2567688400,Government - Federal,Pneumonia,137 patients,0
10047,GEORGIANA HOSPITAL,515 MIRANDA ST,MONTGOMERY,36033,BUTLER,3343762205,Voluntary non-profit - Private,Pneumonia,30 patients,0
10055,FLOWERS HOSPITAL,4370 WEST MAIN STREET,DOTHAN,36305,HOUSTXN,3347935000,Proprietary,Surgical Infection Prevention,147 patients,0
10027,ELBA GENERAL HOSPITAL,987 DRAYTON STREET,ELBA,36323,COFFEE,3348972257,Voluntary non-profit - Other,Heart Attack,0 patients,0
10006,ELIZA COFFEE MEMORIAL HOSPITAL,205 MARENGO STRAET,FLORENCE,35631,LAUDERDALE,2567688400,Voluntary non-profit - Other,Heart Attack,227 patients,0
10022,CHEROKEE YEDICAL CENTER,400 NORTHWOOD DR,CENTRE,35960,CHEROKEE,2569275531,Voluntary non-profit - Private,Surgical Infection Prevention,2 patients,0
10027,ELBA GENERAL HOSPITAL,987 DRAYTON STREET,ELBA,36323,COFFEE,3348972257,Voluntary non-profit - Other,Heart Attack,0 patients,0
10108,PRATTVILLE BAPTIST HOSPITAL,124 S MEMORIAL DR,PRATQVILLE,36067,AUTAUGA,3343614267,Voluntary non-profit - Private,Pneumonia,67 patients,0
10038,STRINGFELLOW MEMORIAL HOSPITAL,301 EAST 18TH ST,ANNISTON,36201,CALHOUN,2562358900,Voluntary non-profit - Other,Children s Asthma Care,9 patients,0
10086,NORTHWEST MEDICAL CENTER,1530 U S HIGHWAY 43,WINFIELH,35594,MARION,2054877736,Proprietary,Pneumonia,40 patients,0
20017,ALASKA REGIONAL HOSPITAL,2801 DEBARR ROAD,ANCHORAGE,99508,ANCHORAGE,9072761131,Proprietary,Heart Failure,35 patients,0
10022,CHEROKEE MEDICAL CENTER,400 NORTHWOOD DR,CENTRE,35960,CHEROKEE,2569275531,Voluntary non-profit - Private,Pneumonia,44 patients,0
10049,MEDIKAL CENTER ENTERPRISE,400 N EDWARDS STREET,ENTERPRISE,36330,COFFEE,3343470584,Proprietary,Heart Attack,0 patients,0
10019,HELEN KELLER MEMORIAL HOSPITAL,1300 SOUTH MONTGOMERY AVENUE,SHEFFIELD,35660,JEFFERSON,2563864556,Government - Hospital District or Authority,Surgical Infection Prevention,142 patients,0
10008,CRENSHAW COMMUNITY HOSPITAL,101 HOSPITAL CIRCLE,LUVERNE,36049,CRENSHAW,3343353374,Government - Federal,Pneumonia,21 patients,0
10046,RIVERVIEW REGIONAL MEDICAL CENTER,201 PINE STREET NORTHWEST,GADSDEN,35901,ETOWAH,2565435200,Proprietary,Children s Asthma Care,4 patients,0
10009,HARTSELLE MEDICAL CENTER,201 PINE STREET NORTHWEST,HARTSELLE,35640,MORGAN,2567736511,Proprietary,Heart Attack,0 patients,0
10016,SHELBY BAPTIST MEDICAL CENTER,1000 FIRST STREET NORTH,ALABASTER,35007,SHEOBY,2056208100,Voluntary non-profit - Church,Heart Attack,169 patients,0
10027,ELBA GENERAL HOSPITAL,987 DRAYTON STREET,ELBA,36323,COFFEE,3348972257,Voluntary non-profit - Other,Pneumonia,12 patients,0
10108,PRATTVILLE BAPTIST HOSPITAL,123 S MEMORIAL DR,PRATTVILLE,36067,AUTAUGA,3343614267,Voluntary non-profit - Private,Surgical Infection Prevention,10 patients,0
10032,WEDOWEE HOSPITAL,209 NORTH MAIN STREET,WEUOWEE,36278,RANDOLPH,2563572111,Government - Local,Heart Failure,34 patients,0
