ProviderNumber,HospitalName,Address1,City,State,ZipCode,CountyName,PhoneNumber,HospitalType,label
10018,CALLAHAN EYE FOUNDATION HOSPITAL,1720 UNIVERSITY BLVD,BIRMINGHAM,AL,35233,JEFFERSON,2053258100,Acute Care Hospitals,1.0
10018,CALLAHAN EYE FOUNDATION HOSPITAL,1720 UNIVERSITY BLVD,BIRMINGHAM,AL,35233,JEFFERSON,2053258100,Acute Care Hospitals,1.0
10018,CALLAHAN EYE FOUNDATION HOSPITAL,1720 UNIVERSITY BLVD,BIRMINGHAM,AL,35233,JEFFERSON,2053258100,Acute Care Hospitals,1.0
10018,CALLAHAN EYE FOUNDATION HOSPITAL,1720 UNIVERSITY BLVD,BIRMINGHAM,AL,35233,JEFFERSON,2053258100,Acute Care Hospitals,1.0
10019,HELEN KELLER MEMORIAL HOSPITAL,1300 SOUTH MONTGOMERY AVENUE,SHEFFIELD,AL,35660,JEFFERSON,2563864556,Acute Care Hospitals,1.0
10019,HELEN KELLER MEMORIAL HOSPITAL,1300 SOUTH MONTGOMERY AVENUE,SHEFFIELD,AL,35660,JEFFERSON,2563864556,Acute Care Hospitals,1.0
10019,HELEN KELLER MEMORIAL HOSPITAL,1300 SOUTH MONTGOMERY AVENUE,SHEFFIELD,AL,35660,JEFFERSON,2563864556,Acute Care Hospitals,1.0
10019,HELEN KELLER MEMORIAL HOSPITAL,1300 SOUTH MONTGOMERY AVENUE,SHEFFIELD,AL,35660,JEFFERSON,2563864556,Acute Care Hospitals,1.0
10001,SOUTHEAST ALABAMA MEDICAL CENTER,1108 ROSS CLARK CIRCLE,DOTHAN,AL,36302,HOUSTON,3347938701,Acute Care Hospitals,1.0
10001,SOUTHEAST ALABAMA MEDICAL CENTER,1108 ROSS CLARK CIRCLE,DOTHAN,AL,36302,HOUSTON,3347938701,Acute Care Hospitals,1.0
10001,SOUTHEAST ALABAMA MEDICAL CENTER,1108 ROSS CLARK CIRCLE,DOTHAN,AL,36302,HOUSTON,3347938701,Acute Care Hospitals,1.0
10001,SOUTHEAST ALABAMA MEDICAL CENTER,1108 ROSS CLARK CIRCLE,DOTHAN,AL,36302,HOUSTON,3347938701,Acute Care Hospitals,1.0
10001,SOUTHEAST ALABAMA MEDICAL CENTER,1108 ROSS CLARK CIRCLE,DOTHAN,AL,36302,HOUSTON,3347938701,Acute Care Hospitals,1.0
10001,SOUTHEAST ALABAMA MEDICAL CENTER,1108 ROSS CLARK CIRCLE,DOTHAN,AL,36302,HOUSTON,3347938701,Acute Care Hospitals,1.0
10001,SOUTHEAST ALABAMA MEDICAL CENTER,1108 ROSS CLARK CIRCLE,DOTHAN,AL,36302,HOUSTON,3347938701,Acute Care Hospitals,1.0
10001,SOUTHEAST ALABAMA MEDICAL CENTER,1108 ROSS CLARK CIRCLE,DOTHAN,AL,36302,HOUSTON,3347938701,Acute Care Hospitals,1.0
10001,SOUTHEAST ALABAMA MEDICAL CENTER,1108 ROSS CLARK CIRCLE,DOTHAN,AL,36302,HOUSTON,3347938701,Acute Care Hospitals,1.0
10001,SOUTHEAST ALABAMA MEDICAL CENTER,1108 ROSS CLARK CIRCLE,DOTHAN,AL,36302,HOUSTON,3347938701,Acute Care Hospitals,1.0
10001,SOUTHEAST ALABAMA MEDICAL CENTER,1108 ROSS CLARK CIRCLE,DOTHAN,AL,36302,HOUSTON,3347938701,Acute Care Hospitals,1.0
10001,SOUTHEAST ALABAMA MEDICAL CENTER,1108 ROSS CLARK CIRCLE,DOTHAN,AL,36302,HOUSTON,3347938701,Acute Care Hospitals,1.0
10001,SOUTHEAST ALABAMA MEDICAL CENTER,1108 ROSS CLARK CIRCLE,DOTHAN,AL,36302,HOUSTON,3347938701,Acute Care Hospitals,1.0
10001,SOUTHEAST ALABAMA MEDICAL CENTER,1108 ROSS CLARK CIRCLE,DOTHAN,AL,36302,HOUSTON,3347938701,Acute Care Hospitals,1.0
10001,SOUTHEAST ALABAMA MEDICAL CENTER,1108 ROSS CLARK CIRCLE,DOTHAN,AL,36302,HOUSTON,3347938701,Acute Care Hospitals,1.0
10005,MARSHALL MEDICAL CENTER SOUTH,2505 U S HIGHWAY 431 NORTH,BOAZ,AL,35957,MARSHALL,2565938310,Acute Care Hospitals,1.0
10005,MARSHALL MEDICAL CENTER SOUTH,2505 U S HIGHWAY 431 NORTH,BOAZ,AL,35957,MARSHALL,2565938310,Acute Care Hospitals,1.0
10005,MARSHALL MEDICAL CENTER SOUTH,2505 U S HIGHWAY 431 NORTH,BOAZ,AL,35957,MARSHALL,2565938310,Acute Care Hospitals,1.0
10005,MARSHALL MEDICAL CENTER SOUTH,2505 U S HIGHWAY 431 NORTH,BOAZ,AL,35957,MARSHALL,2565938310,Acute Care Hospitals,1.0
10005,MARSHALL MEDICAL CENTER SOUTH,2505 U S HIGHWAY 431 NORTH,BOAZ,AL,35957,MARSHALL,2565938310,Acute Care Hospitals,1.0
10005,MARSHALL MEDICAL CENTER SOUTH,2505 U S HIGHWAY 431 NORTH,BOAZ,AL,35957,MARSHALL,2565938310,Acute Care Hospitals,1.0
10005,MARSHALL MEDICAL CENTER SOUTH,2505 U S HIGHWAY 431 NORTH,BOAZ,AL,35957,MARSHALL,2565938310,Acute Care Hospitals,1.0
10005,MARSHALL MEDICAL CENTER SOUTH,2505 U S HIGHWAY 431 NORTH,BOAZ,AL,35957,MARSHALL,2565938310,Acute Care Hospitals,1.0
10005,MARSHALL MEDICAL CENTER SOUTH,2505 U S HIGHWAY 431 NORTH,BOAZ,AL,35957,MARSHALL,2565938310,Acute Care Hospitals,1.0
10005,MARSHALL MEDICAL CENTER SOUTH,2505 U S HIGHWAY 431 NORTH,BOAZ,AL,35957,MARSHALL,2565938310,Acute Care Hospitals,1.0
10005,MARSHALL MEDICAL CENTER SOUTH,2505 U S HIGHWAY 431 NORTH,BOAZ,AL,35957,MARSHALL,2565938310,Acute Care Hospitals,1.0
10005,MARSHALL MEDICAL CENTER SOUTH,2505 U S HIGHWAY 431 NORTH,BOAZ,AL,35957,MARSHALL,2565938310,Acute Care Hospitals,1.0
10005,MARSHALL MEDICAL CENTER SOUTH,2505 U S HIGHWAY 431 NORTH,BOAZ,AL,35957,MARSHALL,2565938310,Acute Care Hospitals,1.0
10005,MARSHALL MEDICAL CENTER SOUTH,2505 U S HIGHWAY 431 NORTH,BOAZ,AL,35957,MARSHALL,2565938310,Acute Care Hospitals,1.0
10006,ELIZA COFFEE MEMORIAL HOSPITAL,205 MARENGO STREET,FLORENCE,AL,35631,LAUDERDALE,2567688400,Acute Care Hospitals,1.0
10006,ELIZA COFFEE MEMORIAL HOSPITAL,205 MARENGO STREET,FLORENCE,AL,35631,LAUDERDALE,2567688400,Acute Care Hospitals,1.0
10006,ELIZA COFFEE MEMORIAL HOSPITAL,205 MARENGO STREET,FLORENCE,AL,35631,LAUDERDALE,2567688400,Acute Care Hospitals,1.0
10006,ELIZA COFFEE MEMORIAL HOSPITAL,205 MARENGO STREET,FLORENCE,AL,35631,LAUDERDALE,2567688400,Acute Care Hospitals,1.0
10006,ELIZA COFFEE MEMORIAL HOSPITAL,205 MARENGO STREET,FLORENCE,AL,35631,LAUDERDALE,2567688400,Acute Care Hospitals,1.0
10006,ELIZA COFFEE MEMORIAL HOSPITAL,205 MARENGO STREET,FLORENCE,AL,35631,LAUDERDALE,2567688400,Acute Care Hospitals,1.0
10006,ELIZA COFFEE MEMORIAL HOSPITAL,205 MARENGO STREET,FLORENCE,AL,35631,LAUDERDALE,2567688400,Acute Care Hospitals,1.0
10006,ELIZA COFFEE MEMORIAL HOSPITAL,205 MARENGO STREET,FLORENCE,AL,35631,LAUDERDALE,2567688400,Acute Care Hospitals,1.0
10006,ELIZA COFFEE MEMORIAL HOSPITAL,205 MARENGO STREET,FLORENCE,AL,35631,LAUDERDALE,2567688400,Acute Care Hospitals,1.0
10006,ELIZA COFFEE MEMORIAL HOSPITAL,205 MARENGO STREET,FLORENCE,AL,35631,LAUDERDALE,2567688400,Acute Care Hospitals,1.0
10006,ELIZA COFFEE MEMORIAL HOSPITAL,205 MARENGO STREET,FLORENCE,AL,35631,LAUDERDALE,2567688400,Acute Care Hospitals,1.0
10006,ELIZA COFFEE MEMORIAL HOSPITAL,205 MARENGO STREET,FLORENCE,AL,35631,LAUDERDALE,2567688400,Acute Care Hospitals,1.0
10007,MIZELL MEMORIAL HOSPITAL,702 N MAIN ST,OPP,AL,36467,COVINGTON,3344933541,Acute Care Hospitals,1.0
10007,MIZELL MEMORIAL HOSPITAL,702 N MAIN ST,OPP,AL,36467,COVINGTON,3344933541,Acute Care Hospitals,1.0
10007,MIZELL MEMORIAL HOSPITAL,702 N MAIN ST,OPP,AL,36467,COVINGTON,3344933541,Acute Care Hospitals,1.0
10007,MIZELL MEMORIAL HOSPITAL,702 N MAIN ST,OPP,AL,36467,COVINGTON,3344933541,Acute Care Hospitals,1.0
10007,MIZELL MEMORIAL HOSPITAL,702 N MAIN ST,OPP,AL,36467,COVINGTON,3344933541,Acute Care Hospitals,1.0
10007,MIZELL MEMORIAL HOSPITAL,702 N MAIN ST,OPP,AL,36467,COVINGTON,3344933541,Acute Care Hospitals,1.0
10007,MIZELL MEMORIAL HOSPITAL,702 N MAIN ST,OPP,AL,36467,COVINGTON,3344933541,Acute Care Hospitals,1.0
10007,MIZELL MEMORIAL HOSPITAL,702 N MAIN ST,OPP,AL,36467,COVINGTON,3344933541,Acute Care Hospitals,1.0
10007,MIZELL MEMORIAL HOSPITAL,702 N MAIN ST,OPP,AL,36467,COVINGTON,3344933541,Acute Care Hospitals,1.0
10007,MIZELL MEMORIAL HOSPITAL,702 N MAIN ST,OPP,AL,36467,COVINGTON,3344933541,Acute Care Hospitals,1.0
10007,MIZELL MEMORIAL HOSPITAL,702 N MAIN ST,OPP,AL,36467,COVINGTON,3344933541,Acute Care Hospitals,1.0
10008,CRENSHAW COMMUNITY HOSPITAL,101 HOSPITAL CIRCLE,LUVERNE,AL,36049,CRENSHAW,3343353374,Acute Care Hospitals,1.0
10008,CRENSHAW COMMUNITY HOSPITAL,101 HOSPITAL CIRCLE,LUVERNE,AL,36049,CRENSHAW,3343353374,Acute Care Hospitals,1.0
10008,CRENSHAW COMMUNITY HOSPITAL,101 HOSPITAL CIRCLE,LUVERNE,AL,36049,CRENSHAW,3343353374,Acute Care Hospitals,1.0
10008,CRENSHAW COMMUNITY HOSPITAL,101 HOSPITAL CIRCLE,LUVERNE,AL,36049,CRENSHAW,3343353374,Acute Care Hospitals,1.0
10008,CRENSHAW COMMUNITY HOSPITAL,101 HOSPITAL CIRCLE,LUVERNE,AL,36049,CRENSHAW,3343353374,Acute Care Hospitals,1.0
10008,CRENSHAW COMMUNITY HOSPITAL,101 HOSPITAL CIRCLE,LUVERNE,AL,36049,CRENSHAW,3343353374,Acute Care Hospitals,1.0
10008,CRENSHAW COMMUNITY HOSPITAL,101 HOSPITAL CIRCLE,LUVERNE,AL,36049,CRENSHAW,3343353374,Acute Care Hospitals,1.0
10008,CRENSHAW COMMUNITY HOSPITAL,101 HOSPITAL CIRCLE,LUVERNE,AL,36049,CRENSHAW,3343353374,Acute Care Hospitals,1.0
10008,CRENSHAW COMMUNITY HOSPITAL,101 HOSPITAL CIRCLE,LUVERNE,AL,36049,CRENSHAW,3343353374,Acute Care Hospitals,1.0
10008,CRENSHAW COMMUNITY HOSPITAL,101 HOSPITAL CIRCLE,LUVERNE,AL,36049,CRENSHAW,3343353374,Acute Care Hospitals,1.0
10008,CRENSHAW COMMUNITY HOSPITAL,101 HOSPITAL CIRCLE,LUVERNE,AL,36049,CRENSHAW,3343353374,Acute Care Hospitals,1.0
10008,CRENSHAW COMMUNITY HOSPITAL,101 HOSPITAL CIRCLE,LUVERNE,AL,36049,CRENSHAW,3343353374,Acute Care Hospitals,1.0
10009,HARTSELLE MEDICAL CENTER,201 PINE STREET NORTHWEST,HARTSELLE,AL,35640,MORGAN,2567736511,Acute Care Hospitals,1.0
10009,HARTSELLE MEDICAL CENTER,201 PINE STREET NORTHWEST,HARTSELLE,AL,35640,MORGAN,2567736511,Acute Care Hospitals,1.0
10009,HARTSELLE MEDICAL CENTER,201 PINE STREET NORTHWEST,HARTSELLE,AL,35640,MORGAN,2567736511,Acute Care Hospitals,1.0
10009,HARTSELLE MEDICAL CENTER,201 PINE STREET NORTHWEST,HARTSELLE,AL,35640,MORGAN,2567736511,Acute Care Hospitals,1.0
10009,HARTSELLE MEDICAL CENTER,201 PINE STREET NORTHWEST,HARTSELLE,AL,35640,MORGAN,2567736511,Acute Care Hospitals,1.0
10009,HARTSELLE MEDICAL CENTER,201 PINE STREET NORTHWEST,HARTSELLE,AL,35640,MORGAN,2567736511,Acute Care Hospitals,1.0
10009,HARTSELLE MEDICAL CENTER,201 PINE STREET NORTHWEST,HARTSELLE,AL,35640,MORGAN,2567736511,Acute Care Hospitals,1.0
10009,HARTSELLE MEDICAL CENTER,201 PINE STREET NORTHWEST,HARTSELLE,AL,35640,MORGAN,2567736511,Acute Care Hospitals,1.0
10009,HARTSELLE MEDICAL CENTER,201 PINE STREET NORTHWEST,HARTSELLE,AL,35640,MORGAN,2567736511,Acute Care Hospitals,1.0
10009,HARTSELLE MEDICAL CENTER,201 PINE STREET NORTHWEST,HARTSELLE,AL,35640,MORGAN,2567736511,Acute Care Hospitals,1.0
10009,HARTSELLE MEDICAL CENTER,201 PINE STREET NORTHWEST,HARTSELLE,AL,35640,MORGAN,2567736511,Acute Care Hospitals,1.0
10009,HARTSELLE MEDICAL CENTER,201 PINE STREET NORTHWEST,HARTSELLE,AL,35640,MORGAN,2567736511,Acute Care Hospitals,1.0
10009,HARTSELLE MEDICAL CENTER,201 PINE STREET NORTHWEST,HARTSELLE,AL,35640,MORGAN,2567736511,Acute Care Hospitals,1.0
10010,MARSHALL MEDICAL CENTER NORTH,8000 ALABAMA HIGHWAY 69,GUNTERSVILLE,AL,35976,MARSHALL,2565718000,Acute Care Hospitals,1.0
10010,MARSHALL MEDICAL CENTER NORTH,8000 ALABAMA HIGHWAY 69,GUNTERSVILLE,AL,35976,MARSHALL,2565718000,Acute Care Hospitals,1.0
10010,MARSHALL MEDICAL CENTER NORTH,8000 ALABAMA HIGHWAY 69,GUNTERSVILLE,AL,35976,MARSHALL,2565718000,Acute Care Hospitals,1.0
10010,MARSHALL MEDICAL CENTER NORTH,8000 ALABAMA HIGHWAY 69,GUNTERSVILLE,AL,35976,MARSHALL,2565718000,Acute Care Hospitals,1.0
10010,MARSHALL MEDICAL CENTER NORTH,8000 ALABAMA HIGHWAY 69,GUNTERSVILLE,AL,35976,MARSHALL,2565718000,Acute Care Hospitals,1.0
10010,MARSHALL MEDICAL CENTER NORTH,8000 ALABAMA HIGHWAY 69,GUNTERSVILLE,AL,35976,MARSHALL,2565718000,Acute Care Hospitals,1.0
10010,MARSHALL MEDICAL CENTER NORTH,8000 ALABAMA HIGHWAY 69,GUNTERSVILLE,AL,35976,MARSHALL,2565718000,Acute Care Hospitals,1.0
10010,MARSHALL MEDICAL CENTER NORTH,8000 ALABAMA HIGHWAY 69,GUNTERSVILLE,AL,35976,MARSHALL,2565718000,Acute Care Hospitals,1.0
10010,MARSHALL MEDICAL CENTER NORTH,8000 ALABAMA HIGHWAY 69,GUNTERSVILLE,AL,35976,MARSHALL,2565718000,Acute Care Hospitals,1.0
10010,MARSHALL MEDICAL CENTER NORTH,8000 ALABAMA HIGHWAY 69,GUNTERSVILLE,AL,35976,MARSHALL,2565718000,Acute Care Hospitals,1.0
10011,ST VINCENT'S EAST,50 MEDICAL PARK EAST DRIVE,BIRMINGHAM,AL,35235,JEFFERSON,2058383122,Acute Care Hospitals,1.0
10011,ST VINCENT'S EAST,50 MEDICAL PARK EAST DRIVE,BIRMINGHAM,AL,35235,JEFFERSON,2058383122,Acute Care Hospitals,1.0
10011,ST VINCENT'S EAST,50 MEDICAL PARK EAST DRIVE,BIRMINGHAM,AL,35235,JEFFERSON,2058383122,Acute Care Hospitals,1.0
10011,ST VINCENT'S EAST,50 MEDICAL PARK EAST DRIVE,BIRMINGHAM,AL,35235,JEFFERSON,2058383122,Acute Care Hospitals,1.0
10011,ST VINCENT'S EAST,50 MEDICAL PARK EAST DRIVE,BIRMINGHAM,AL,35235,JEFFERSON,2058383122,Acute Care Hospitals,1.0
10011,ST VINCENT'S EAST,50 MEDICAL PARK EAST DRIVE,BIRMINGHAM,AL,35235,JEFFERSON,2058383122,Acute Care Hospitals,1.0
10011,ST VINCENT'S EAST,50 MEDICAL PARK EAST DRIVE,BIRMINGHAM,AL,35235,JEFFERSON,2058383122,Acute Care Hospitals,1.0
10011,ST VINCENT'S EAST,50 MEDICAL PARK EAST DRIVE,BIRMINGHAM,AL,35235,JEFFERSON,2058383122,Acute Care Hospitals,1.0
10011,ST VINCENT'S EAST,50 MEDICAL PARK EAST DRIVE,BIRMINGHAM,AL,35235,JEFFERSON,2058383122,Acute Care Hospitals,1.0
10011,ST VINCENT'S EAST,50 MEDICAL PARK EAST DRIVE,BIRMINGHAM,AL,35235,JEFFERSON,2058383122,Acute Care Hospitals,1.0
10011,ST VINCENT'S EAST,50 MEDICAL PARK EAST DRIVE,BIRMINGHAM,AL,35235,JEFFERSON,2058383122,Acute Care Hospitals,1.0
10011,ST VINCENT'S EAST,50 MEDICAL PARK EAST DRIVE,BIRMINGHAM,AL,35235,JEFFERSON,2058383122,Acute Care Hospitals,1.0
10011,ST VINCENT'S EAST,50 MEDICAL PARK EAST DRIVE,BIRMINGHAM,AL,35235,JEFFERSON,2058383122,Acute Care Hospitals,1.0
10011,ST VINCENT'S EAST,50 MEDICAL PARK EAST DRIVE,BIRMINGHAM,AL,35235,JEFFERSON,2058383122,Acute Care Hospitals,1.0
10012,DEKALB REGIONAL MEDICAL CENTER,200 MED CENTER DRIVE,FORT PAYNE,AL,35968,DE KALB,2568453150,Acute Care Hospitals,1.0
10012,DEKALB REGIONAL MEDICAL CENTER,200 MED CENTER DRIVE,FORT PAYNE,AL,35968,DE KALB,2568453150,Acute Care Hospitals,1.0
10012,DEKALB REGIONAL MEDICAL CENTER,200 MED CENTER DRIVE,FORT PAYNE,AL,35968,DE KALB,2568453150,Acute Care Hospitals,1.0
10012,DEKALB REGIONAL MEDICAL CENTER,200 MED CENTER DRIVE,FORT PAYNE,AL,35968,DE KALB,2568453150,Acute Care Hospitals,1.0
10012,DEKALB REGIONAL MEDICAL CENTER,200 MED CENTER DRIVE,FORT PAYNE,AL,35968,DE KALB,2568453150,Acute Care Hospitals,1.0
10012,DEKALB REGIONAL MEDICAL CENTER,200 MED CENTER DRIVE,FORT PAYNE,AL,35968,DE KALB,2568453150,Acute Care Hospitals,1.0
10012,DEKALB REGIONAL MEDICAL CENTER,200 MED CENTER DRIVE,FORT PAYNE,AL,35968,DE KALB,2568453150,Acute Care Hospitals,1.0
10012,DEKALB REGIONAL MEDICAL CENTER,200 MED CENTER DRIVE,FORT PAYNE,AL,35968,DE KALB,2568453150,Acute Care Hospitals,1.0
10012,DEKALB REGIONAL MEDICAL CENTER,200 MED CENTER DRIVE,FORT PAYNE,AL,35968,DE KALB,2568453150,Acute Care Hospitals,1.0
10012,DEKALB REGIONAL MEDICAL CENTER,200 MED CENTER DRIVE,FORT PAYNE,AL,35968,DE KALB,2568453150,Acute Care Hospitals,1.0
10012,DEKALB REGIONAL MEDICAL CENTER,200 MED CENTER DRIVE,FORT PAYNE,AL,35968,DE KALB,2568453150,Acute Care Hospitals,1.0
10015,SOUTHWEST ALABAMA MEDICAL CENTER,33700 HIGHWAY 43,THOMASVILLE,AL,36784,CLARKE,3346366221,Acute Care Hospitals,1.0
10015,SOUTHWEST ALABAMA MEDICAL CENTER,33700 HIGHWAY 43,THOMASVILLE,AL,36784,CLARKE,3346366221,Acute Care Hospitals,1.0
10015,SOUTHWEST ALABAMA MEDICAL CENTER,33700 HIGHWAY 43,THOMASVILLE,AL,36784,CLARKE,3346366221,Acute Care Hospitals,1.0
10015,SOUTHWEST ALABAMA MEDICAL CENTER,33700 HIGHWAY 43,THOMASVILLE,AL,36784,CLARKE,3346366221,Acute Care Hospitals,1.0
10015,SOUTHWEST ALABAMA MEDICAL CENTER,33700 HIGHWAY 43,THOMASVILLE,AL,36784,CLARKE,3346366221,Acute Care Hospitals,1.0
10015,SOUTHWEST ALABAMA MEDICAL CENTER,33700 HIGHWAY 43,THOMASVILLE,AL,36784,CLARKE,3346366221,Acute Care Hospitals,1.0
10015,SOUTHWEST ALABAMA MEDICAL CENTER,33700 HIGHWAY 43,THOMASVILLE,AL,36784,CLARKE,3346366221,Acute Care Hospitals,1.0
10015,SOUTHWEST ALABAMA MEDICAL CENTER,33700 HIGHWAY 43,THOMASVILLE,AL,36784,CLARKE,3346366221,Acute Care Hospitals,1.0
10015,SOUTHWEST ALABAMA MEDICAL CENTER,33700 HIGHWAY 43,THOMASVILLE,AL,36784,CLARKE,3346366221,Acute Care Hospitals,1.0
10015,SOUTHWEST ALABAMA MEDICAL CENTER,33700 HIGHWAY 43,THOMASVILLE,AL,36784,CLARKE,3346366221,Acute Care Hospitals,1.0
10015,SOUTHWEST ALABAMA MEDICAL CENTER,33700 HIGHWAY 43,THOMASVILLE,AL,36784,CLARKE,3346366221,Acute Care Hospitals,1.0
10015,SOUTHWEST ALABAMA MEDICAL CENTER,33700 HIGHWAY 43,THOMASVILLE,AL,36784,CLARKE,3346366221,Acute Care Hospitals,1.0
10015,SOUTHWEST ALABAMA MEDICAL CENTER,33700 HIGHWAY 43,THOMASVILLE,AL,36784,CLARKE,3346366221,Acute Care Hospitals,1.0
10015,SOUTHWEST ALABAMA MEDICAL CENTER,33700 HIGHWAY 43,THOMASVILLE,AL,36784,CLARKE,3346366221,Acute Care Hospitals,1.0
10015,SOUTHWEST ALABAMA MEDICAL CENTER,33700 HIGHWAY 43,THOMASVILLE,AL,36784,CLARKE,3346366221,Acute Care Hospitals,1.0
10016,SHELBY BAPTIST MEDICAL CENTER,1000 FIRST STREET NORTH,ALABASTER,AL,35007,SHELBY,2056208100,Acute Care Hospitals,1.0
10016,SHELBY BAPTIST MEDICAL CENTER,1000 FIRST STREET NORTH,ALABASTER,AL,35007,SHELBY,2056208100,Acute Care Hospitals,1.0
10016,SHELBY BAPTIST MEDICAL CENTER,1000 FIRST STREET NORTH,ALABASTER,AL,35007,SHELBY,2056208100,Acute Care Hospitals,1.0
10016,SHELBY BAPTIST MEDICAL CENTER,1000 FIRST STREET NORTH,ALABASTER,AL,35007,SHELBY,2056208100,Acute Care Hospitals,1.0
10016,SHELBY BAPTIST MEDICAL CENTER,1000 FIRST STREET NORTH,ALABASTER,AL,35007,SHELBY,2056208100,Acute Care Hospitals,1.0
10016,SHELBY BAPTIST MEDICAL CENTER,1000 FIRST STREET NORTH,ALABASTER,AL,35007,SHELBY,2056208100,Acute Care Hospitals,1.0
10016,SHELBY BAPTIST MEDICAL CENTER,1000 FIRST STREET NORTH,ALABASTER,AL,35007,SHELBY,2056208100,Acute Care Hospitals,1.0
10016,SHELBY BAPTIST MEDICAL CENTER,1000 FIRST STREET NORTH,ALABASTER,AL,35007,SHELBY,2056208100,Acute Care Hospitals,1.0
10016,SHELBY BAPTIST MEDICAL CENTER,1000 FIRST STREET NORTH,ALABASTER,AL,35007,SHELBY,2056208100,Acute Care Hospitals,1.0
10016,SHELBY BAPTIST MEDICAL CENTER,1000 FIRST STREET NORTH,ALABASTER,AL,35007,SHELBY,2056208100,Acute Care Hospitals,1.0
10016,SHELBY BAPTIST MEDICAL CENTER,1000 FIRST STREET NORTH,ALABASTER,AL,35007,SHELBY,2056208100,Acute Care Hospitals,1.0
10016,SHELBY BAPTIST MEDICAL CENTER,1000 FIRST STREET NORTH,ALABASTER,AL,35007,SHELBY,2056208100,Acute Care Hospitals,1.0
10018,CALLAHAN EYE FOUNDATION HOSPITAL,1720 UNIVERSITY BLVD,BIRMINGHAM,AL,35233,JEFFERSON,2053258100,Acute Care Hospitals,1.0
10018,CALLAHAN EYE FOUNDATION HOSPITAL,1720 UNIVERSITY BLVD,BIRMINGHAM,AL,35233,JEFFERSON,2053258100,Acute Care Hospitals,1.0
10018,CALLAHAN EYE FOUNDATION HOSPITAL,1720 UNIVERSITY BLVD,BIRMINGHAM,AL,35233,JEFFERSON,2053258100,Acute Care Hospitals,1.0
10018,CALLAHAN EYE FOUNDATION HOSPITAL,1720 UNIVERSITY BLVD,BIRMINGHAM,AL,35233,JEFFERSON,2053258100,Acute Care Hospitals,1.0
10018,CALLAHAN EYE FOUNDATION HOSPITAL,1720 UNIVERSITY BLVD,BIRMINGHAM,AL,35233,JEFFERSON,2053258100,Acute Care Hospitals,1.0
10018,CALLAHAN EYE FOUNDATION HOSPITAL,1720 UNIVERSITY BLVD,BIRMINGHAM,AL,35233,JEFFERSON,2053258100,Acute Care Hospitals,1.0
10018,CALLAHAN EYE FOUNDATION HOSPITAL,1720 UNIVERSITY BLVD,BIRMINGHAM,AL,35233,JEFFERSON,2053258100,Acute Care Hospitals,1.0
10018,CALLAHAN EYE FOUNDATION HOSPITAL,1720 UNIVERSITY BLVD,BIRMINGHAM,AL,35233,JEFFERSON,2053258100,Acute Care Hospitals,1.0
10018,CALLAHAN EYE FOUNDATION HOSPITAL,1720 UNIVERSITY BLVD,BIRMINGHAM,AL,35233,JEFFERSON,2053258100,Acute Care Hospitals,1.0
10018,CALLAHAN EYE FOUNDATION HOSPITAL,1720 UNIVERSITY BLVD,BIRMINGHAM,AL,35233,JEFFERSON,2053258100,Acute Care Hospitals,1.0
10038,STRINGFELLOW MEMORIAL HOSPITAL,301 EAST 18TH ST,ANNISTON,AL,36201,CALHOUN,2562358900,Acute Care Hospitals,1.0
10038,STRINGFELLOW MEMORIAL HOSPITAL,301 EAST 18TH ST,ANNISTON,AL,36201,CALHOUN,2562358900,Acute Care Hospitals,1.0
10038,STRINGFELLOW MEMORIAL HOSPITAL,301 EAST 18TH ST,ANNISTON,AL,36201,CALHOUN,2562358900,Acute Care Hospitals,1.0
10038,STRINGFELLOW MEMORIAL HOSPITAL,301 EAST 18TH ST,ANNISTON,AL,36201,CALHOUN,2562358900,Acute Care Hospitals,1.0
10038,STRINGFELLOW MEMORIAL HOSPITAL,301 EAST 18TH ST,ANNISTON,AL,36201,CALHOUN,2562358900,Acute Care Hospitals,1.0
10055,FLOWERS HOSPITAL,4370 WEST MAIN STREET,DOTHAN,AL,36305,HOUSTON,3347935000,Acute Care Hospitals,1.0
10055,FLOWERS HOSPITAL,4370 WEST MAIN STREET,DOTHAN,AL,36305,HOUSTON,3347935000,Acute Care Hospitals,1.0
10055,FLOWERS HOSPITAL,4370 WEST MAIN STREET,DOTHAN,AL,36305,HOUSTON,3347935000,Acute Care Hospitals,1.0
10055,FLOWERS HOSPITAL,4370 WEST MAIN STREET,DOTHAN,AL,36305,HOUSTON,3347935000,Acute Care Hospitals,1.0
10055,FLOWERS HOSPITAL,4370 WEST MAIN STREET,DOTHAN,AL,36305,HOUSTON,3347935000,Acute Care Hospitals,1.0
10055,FLOWERS HOSPITAL,4370 WEST MAIN STREET,DOTHAN,AL,36305,HOUSTON,3347935000,Acute Care Hospitals,1.0
10055,FLOWERS HOSPITAL,4370 WEST MAIN STREET,DOTHAN,AL,36305,HOUSTON,3347935000,Acute Care Hospitals,1.0
10055,FLOWERS HOSPITAL,4370 WEST MAIN STREET,DOTHAN,AL,36305,HOUSTON,3347935000,Acute Care Hospitals,1.0
10055,FLOWERS HOSPITAL,4370 WEST MAIN STREET,DOTHAN,AL,36305,HOUSTON,3347935000,Acute Care Hospitals,1.0
10056,ST VINCENTS HOSPITAL,810 ST VINCENTS DRIVE,BIRMINGHAM,AL,35205,JEFFERSON,2059397000,Acute Care Hospitals,1.0
10086,NORTHWEST MEDICAL CENTER,1530 U S HIGHWAY 43,WINFIELD,AL,35594,MARION,2054877736,Acute Care Hospitals,1.0
10086,NORTHWEST MEDICAL CENTER,1530 U S HIGHWAY 43,WINFIELD,AL,35594,MARION,2054877736,Acute Care Hospitals,1.0
10086,NORTHWEST MEDICAL CENTER,1530 U S HIGHWAY 43,WINFIELD,AL,35594,MARION,2054877736,Acute Care Hospitals,1.0
10086,NORTHWEST MEDICAL CENTER,1530 U S HIGHWAY 43,WINFIELD,AL,35594,MARION,2054877736,Acute Care Hospitals,1.0
10086,NORTHWEST MEDICAL CENTER,1530 U S HIGHWAY 43,WINFIELD,AL,35594,MARION,2054877736,Acute Care Hospitals,1.0
10086,NORTHWEST MEDICAL CENTER,1530 U S HIGHWAY 43,WINFIELD,AL,35594,MARION,2054877736,Acute Care Hospitals,1.0
10086,NORTHWEST MEDICAL CENTER,1530 U S HIGHWAY 43,WINFIELD,AL,35594,MARION,2054877736,Acute Care Hospitals,1.0
10086,NORTHWEST MEDICAL CENTER,1530 U S HIGHWAY 43,WINFIELD,AL,35594,MARION,2054877736,Acute Care Hospitals,1.0
10086,NORTHWEST MEDICAL CENTER,1530 U S HIGHWAY 43,WINFIELD,AL,35594,MARION,2054877736,Acute Care Hospitals,1.0
10086,NORTHWEST MEDICAL CENTER,1530 U S HIGHWAY 43,WINFIELD,AL,35594,MARION,2054877736,Acute Care Hospitals,1.0
10086,NORTHWEST MEDICAL CENTER,1530 U S HIGHWAY 43,WINFIELD,AL,35594,MARION,2054877736,Acute Care Hospitals,1.0
10086,NORTHWEST MEDICAL CENTER,1530 U S HIGHWAY 43,WINFIELD,AL,35594,MARION,2054877736,Acute Care Hospitals,1.0
10086,NORTHWEST MEDICAL CENTER,1530 U S HIGHWAY 43,WINFIELD,AL,35594,MARION,2054877736,Acute Care Hospitals,1.0
10087,UNIV OF SOUTH ALABAMA MEDICAL CENTER,2451 FILLINGIM STREET,MOBILE,AL,36617,MOBILE,2514717110,Acute Care Hospitals,1.0
10087,UNIV OF SOUTH ALABAMA MEDICAL CENTER,2451 FILLINGIM STREET,MOBILE,AL,36617,MOBILE,2514717110,Acute Care Hospitals,1.0
10087,UNIV OF SOUTH ALABAMA MEDICAL CENTER,2451 FILLINGIM STREET,MOBILE,AL,36617,MOBILE,2514717110,Acute Care Hospitals,1.0
10087,UNIV OF SOUTH ALABAMA MEDICAL CENTER,2451 FILLINGIM STREET,MOBILE,AL,36617,MOBILE,2514717110,Acute Care Hospitals,1.0
10087,UNIV OF SOUTH ALABAMA MEDICAL CENTER,2451 FILLINGIM STREET,MOBILE,AL,36617,MOBILE,2514717110,Acute Care Hospitals,1.0
10087,UNIV OF SOUTH ALABAMA MEDICAL CENTER,2451 FILLINGIM STREET,MOBILE,AL,36617,MOBILE,2514717110,Acute Care Hospitals,1.0
10108,PRATTVILLE BAPTIST HOSPITAL,124 S MEMORIAL DR,PRATTVILLE,AL,36067,AUTAUGA,3343614267,Acute Care Hospitals,1.0
10108,PRATTVILLE BAPTIST HOSPITAL,124 S MEMORIAL DR,PRATTVILLE,AL,36067,AUTAUGA,3343614267,Acute Care Hospitals,1.0
10108,PRATTVILLE BAPTIST HOSPITAL,124 S MEMORIAL DR,PRATTVILLE,AL,36067,AUTAUGA,3343614267,Acute Care Hospitals,1.0
10108,PRATTVILLE BAPTIST HOSPITAL,124 S MEMORIAL DR,PRATTVILLE,AL,36067,AUTAUGA,3343614267,Acute Care Hospitals,1.0
10108,PRATTVILLE BAPTIST HOSPITAL,124 S MEMORIAL DR,PRATTVILLE,AL,36067,AUTAUGA,3343614267,Acute Care Hospitals,1.0
10108,PRATTVILLE BAPTIST HOSPITAL,124 S MEMORIAL DR,PRATTVILLE,AL,36067,AUTAUGA,3343614267,Acute Care Hospitals,1.0
10108,PRATTVILLE BAPTIST HOSPITAL,124 S MEMORIAL DR,PRATTVILLE,AL,36067,AUTAUGA,3343614267,Acute Care Hospitals,1.0
10108,PRATTVILLE BAPTIST HOSPITAL,124 S MEMORIAL DR,PRATTVILLE,AL,36067,AUTAUGA,3343614267,Acute Care Hospitals,1.0
10108,PRATTVILLE BAPTIST HOSPITAL,124 S MEMORIAL DR,PRATTVILLE,AL,36067,AUTAUGA,3343614267,Acute Care Hospitals,1.0
10108,PRATTVILLE BAPTIST HOSPITAL,124 S MEMORIAL DR,PRATTVILLE,AL,36067,AUTAUGA,3343614267,Acute Care Hospitals,1.0
10108,PRATTVILLE BAPTIST HOSPITAL,124 S MEMORIAL DR,PRATTVILLE,AL,36067,AUTAUGA,3343614267,Acute Care Hospitals,1.0
10158,RUSSELLVILLE HOSPITAL,15155 HIGHWAY 43,RUSSELLVILLE,AL,35653,FRANKLIN,2563321611,Acute Care Hospitals,1.0
10158,RUSSELLVILLE HOSPITAL,15155 HIGHWAY 43,RUSSELLVILLE,AL,35653,FRANKLIN,2563321611,Acute Care Hospitals,1.0
10164,COOSA VALLEY MEDICAL CENTER,315 W HICKORY ST,SYLACAUGA,AL,35150,TALLADEGA,2562495000,Acute Care Hospitals,1.0
10164,COOSA VALLEY MEDICAL CENTER,315 W HICKORY ST,SYLACAUGA,AL,35150,TALLADEGA,2562495000,Acute Care Hospitals,1.0
10164,COOSA VALLEY MEDICAL CENTER,315 W HICKORY ST,SYLACAUGA,AL,35150,TALLADEGA,2562495000,Acute Care Hospitals,1.0
10164,COOSA VALLEY MEDICAL CENTER,315 W HICKORY ST,SYLACAUGA,AL,35150,TALLADEGA,2562495000,Acute Care Hospitals,1.0
10164,COOSA VALLEY MEDICAL CENTER,315 W HICKORY ST,SYLACAUGA,AL,35150,TALLADEGA,2562495000,Acute Care Hospitals,1.0
10164,COOSA VALLEY MEDICAL CENTER,315 W HICKORY ST,SYLACAUGA,AL,35150,TALLADEGA,2562495000,Acute Care Hospitals,1.0
10164,COOSA VALLEY MEDICAL CENTER,315 W HICKORY ST,SYLACAUGA,AL,35150,TALLADEGA,2562495000,Acute Care Hospitals,1.0
10164,COOSA VALLEY MEDICAL CENTER,315 W HICKORY ST,SYLACAUGA,AL,35150,TALLADEGA,2562495000,Acute Care Hospitals,1.0
10164,COOSA VALLEY MEDICAL CENTER,315 W HICKORY ST,SYLACAUGA,AL,35150,TALLADEGA,2562495000,Acute Care Hospitals,1.0
10164,COOSA VALLEY MEDICAL CENTER,315 W HICKORY ST,SYLACAUGA,AL,35150,TALLADEGA,2562495000,Acute Care Hospitals,1.0
20017,ALASKA REGIONAL HOSPITAL,2801 DEBARR ROAD,ANCHORAGE,AK,99508,ANCHORAGE,9072761131,Acute Care Hospitals,1.0
20017,ALASKA REGIONAL HOSPITAL,2801 DEBARR ROAD,ANCHORAGE,AK,99508,ANCHORAGE,9072761131,Acute Care Hospitals,1.0
20017,ALASKA REGIONAL HOSPITAL,2801 DEBARR ROAD,ANCHORAGE,AK,99508,ANCHORAGE,9072761131,Acute Care Hospitals,1.0
20017,ALASKA REGIONAL HOSPITAL,2801 DEBARR ROAD,ANCHORAGE,AK,99508,ANCHORAGE,9072761131,Acute Care Hospitals,1.0
20017,ALASKA REGIONAL HOSPITAL,2801 DEBARR ROAD,ANCHORAGE,AK,99508,ANCHORAGE,9072761131,Acute Care Hospitals,1.0
20017,ALASKA REGIONAL HOSPITAL,2801 DEBARR ROAD,ANCHORAGE,AK,99508,ANCHORAGE,9072761131,Acute Care Hospitals,1.0
20017,ALASKA REGIONAL HOSPITAL,2801 DEBARR ROAD,ANCHORAGE,AK,99508,ANCHORAGE,9072761131,Acute Care Hospitals,1.0
20017,ALASKA REGIONAL HOSPITAL,2801 DEBARR ROAD,ANCHORAGE,AK,99508,ANCHORAGE,9072761131,Acute Care Hospitals,1.0
20017,ALASKA REGIONAL HOSPITAL,2801 DEBARR ROAD,ANCHORAGE,AK,99508,ANCHORAGE,9072761131,Acute Care Hospitals,1.0
20017,ALASKA REGIONAL HOSPITAL,2801 DEBARR ROAD,ANCHORAGE,AK,99508,ANCHORAGE,9072761131,Acute Care Hospitals,1.0
10019,HELEN KELLER MEMORIAL HOSPITAL,1300 SOUTH MONTGOMERY AVENUE,SHEFFIELD,AL,35660,JEFFERSON,2563864556,Acute Care Hospitals,1.0
10019,HELEN KELLER MEMORIAL HOSPITAL,1300 SOUTH MONTGOMERY AVENUE,SHEFFIELD,AL,35660,JEFFERSON,2563864556,Acute Care Hospitals,1.0
10019,HELEN KELLER MEMORIAL HOSPITAL,1300 SOUTH MONTGOMERY AVENUE,SHEFFIELD,AL,35660,JEFFERSON,2563864556,Acute Care Hospitals,1.0
10019,HELEN KELLER MEMORIAL HOSPITAL,1300 SOUTH MONTGOMERY AVENUE,SHEFFIELD,AL,35660,JEFFERSON,2563864556,Acute Care Hospitals,1.0
10019,HELEN KELLER MEMORIAL HOSPITAL,1300 SOUTH MONTGOMERY AVENUE,SHEFFIELD,AL,35660,JEFFERSON,2563864556,Acute Care Hospitals,1.0
10019,HELEN KELLER MEMORIAL HOSPITAL,1300 SOUTH MONTGOMERY AVENUE,SHEFFIELD,AL,35660,JEFFERSON,2563864556,Acute Care Hospitals,1.0
10021,DALE MEDICAL CENTER,126 HOSPITAL AVE,OZARK,AL,36360,DALE,3347742601,Acute Care Hospitals,1.0
10021,DALE MEDICAL CENTER,126 HOSPITAL AVE,OZARK,AL,36360,DALE,3347742601,Acute Care Hospitals,1.0
10021,DALE MEDICAL CENTER,126 HOSPITAL AVE,OZARK,AL,36360,DALE,3347742601,Acute Care Hospitals,1.0
10021,DALE MEDICAL CENTER,126 HOSPITAL AVE,OZARK,AL,36360,DALE,3347742601,Acute Care Hospitals,1.0
10021,DALE MEDICAL CENTER,126 HOSPITAL AVE,OZARK,AL,36360,DALE,3347742601,Acute Care Hospitals,1.0
10021,DALE MEDICAL CENTER,126 HOSPITAL AVE,OZARK,AL,36360,DALE,3347742601,Acute Care Hospitals,1.0
10021,DALE MEDICAL CENTER,126 HOSPITAL AVE,OZARK,AL,36360,DALE,3347742601,Acute Care Hospitals,1.0
10021,DALE MEDICAL CENTER,126 HOSPITAL AVE,OZARK,AL,36360,DALE,3347742601,Acute Care Hospitals,1.0
10021,DALE MEDICAL CENTER,126 HOSPITAL AVE,OZARK,AL,36360,DALE,3347742601,Acute Care Hospitals,1.0
10021,DALE MEDICAL CENTER,126 HOSPITAL AVE,OZARK,AL,36360,DALE,3347742601,Acute Care Hospitals,1.0
10021,DALE MEDICAL CENTER,126 HOSPITAL AVE,OZARK,AL,36360,DALE,3347742601,Acute Care Hospitals,1.0
10021,DALE MEDICAL CENTER,126 HOSPITAL AVE,OZARK,AL,36360,DALE,3347742601,Acute Care Hospitals,1.0
10021,DALE MEDICAL CENTER,126 HOSPITAL AVE,OZARK,AL,36360,DALE,3347742601,Acute Care Hospitals,1.0
10021,DALE MEDICAL CENTER,126 HOSPITAL AVE,OZARK,AL,36360,DALE,3347742601,Acute Care Hospitals,1.0
10021,DALE MEDICAL CENTER,126 HOSPITAL AVE,OZARK,AL,36360,DALE,3347742601,Acute Care Hospitals,1.0
10022,CHEROKEE MEDICAL CENTER,400 NORTHWOOD DR,CENTRE,AL,35960,CHEROKEE,2569275531,Acute Care Hospitals,1.0
10022,CHEROKEE MEDICAL CENTER,400 NORTHWOOD DR,CENTRE,AL,35960,CHEROKEE,2569275531,Acute Care Hospitals,1.0
10022,CHEROKEE MEDICAL CENTER,400 NORTHWOOD DR,CENTRE,AL,35960,CHEROKEE,2569275531,Acute Care Hospitals,1.0
10022,CHEROKEE MEDICAL CENTER,400 NORTHWOOD DR,CENTRE,AL,35960,CHEROKEE,2569275531,Acute Care Hospitals,1.0
10022,CHEROKEE MEDICAL CENTER,400 NORTHWOOD DR,CENTRE,AL,35960,CHEROKEE,2569275531,Acute Care Hospitals,1.0
10022,CHEROKEE MEDICAL CENTER,400 NORTHWOOD DR,CENTRE,AL,35960,CHEROKEE,2569275531,Acute Care Hospitals,1.0
10022,CHEROKEE MEDICAL CENTER,400 NORTHWOOD DR,CENTRE,AL,35960,CHEROKEE,2569275531,Acute Care Hospitals,1.0
10022,CHEROKEE MEDICAL CENTER,400 NORTHWOOD DR,CENTRE,AL,35960,CHEROKEE,2569275531,Acute Care Hospitals,1.0
10022,CHEROKEE MEDICAL CENTER,400 NORTHWOOD DR,CENTRE,AL,35960,CHEROKEE,2569275531,Acute Care Hospitals,1.0
10022,CHEROKEE MEDICAL CENTER,400 NORTHWOOD DR,CENTRE,AL,35960,CHEROKEE,2569275531,Acute Care Hospitals,1.0
10022,CHEROKEE MEDICAL CENTER,400 NORTHWOOD DR,CENTRE,AL,35960,CHEROKEE,2569275531,Acute Care Hospitals,1.0
10022,CHEROKEE MEDICAL CENTER,400 NORTHWOOD DR,CENTRE,AL,35960,CHEROKEE,2569275531,Acute Care Hospitals,1.0
10022,CHEROKEE MEDICAL CENTER,400 NORTHWOOD DR,CENTRE,AL,35960,CHEROKEE,2569275531,Acute Care Hospitals,1.0
10022,CHEROKEE MEDICAL CENTER,400 NORTHWOOD DR,CENTRE,AL,35960,CHEROKEE,2569275531,Acute Care Hospitals,1.0
10022,CHEROKEE MEDICAL CENTER,400 NORTHWOOD DR,CENTRE,AL,35960,CHEROKEE,2569275531,Acute Care Hospitals,1.0
10022,CHEROKEE MEDICAL CENTER,400 NORTHWOOD DR,CENTRE,AL,35960,CHEROKEE,2569275531,Acute Care Hospitals,1.0
10023,BAPTIST MEDICAL CENTER SOUTH,2105 EAST SOUTH BOULEVARD,MONTGOMERY,AL,36116,MONTGOMERY,3342882100,Acute Care Hospitals,1.0
10023,BAPTIST MEDICAL CENTER SOUTH,2105 EAST SOUTH BOULEVARD,MONTGOMERY,AL,36116,MONTGOMERY,3342882100,Acute Care Hospitals,1.0
10023,BAPTIST MEDICAL CENTER SOUTH,2105 EAST SOUTH BOULEVARD,MONTGOMERY,AL,36116,MONTGOMERY,3342882100,Acute Care Hospitals,1.0
10023,BAPTIST MEDICAL CENTER SOUTH,2105 EAST SOUTH BOULEVARD,MONTGOMERY,AL,36116,MONTGOMERY,3342882100,Acute Care Hospitals,1.0
10023,BAPTIST MEDICAL CENTER SOUTH,2105 EAST SOUTH BOULEVARD,MONTGOMERY,AL,36116,MONTGOMERY,3342882100,Acute Care Hospitals,1.0
10023,BAPTIST MEDICAL CENTER SOUTH,2105 EAST SOUTH BOULEVARD,MONTGOMERY,AL,36116,MONTGOMERY,3342882100,Acute Care Hospitals,1.0
10023,BAPTIST MEDICAL CENTER SOUTH,2105 EAST SOUTH BOULEVARD,MONTGOMERY,AL,36116,MONTGOMERY,3342882100,Acute Care Hospitals,1.0
10023,BAPTIST MEDICAL CENTER SOUTH,2105 EAST SOUTH BOULEVARD,MONTGOMERY,AL,36116,MONTGOMERY,3342882100,Acute Care Hospitals,1.0
10023,BAPTIST MEDICAL CENTER SOUTH,2105 EAST SOUTH BOULEVARD,MONTGOMERY,AL,36116,MONTGOMERY,3342882100,Acute Care Hospitals,1.0
10023,BAPTIST MEDICAL CENTER SOUTH,2105 EAST SOUTH BOULEVARD,MONTGOMERY,AL,36116,MONTGOMERY,3342882100,Acute Care Hospitals,1.0
10023,BAPTIST MEDICAL CENTER SOUTH,2105 EAST SOUTH BOULEVARD,MONTGOMERY,AL,36116,MONTGOMERY,3342882100,Acute Care Hospitals,1.0
10023,BAPTIST MEDICAL CENTER SOUTH,2105 EAST SOUTH BOULEVARD,MONTGOMERY,AL,36116,MONTGOMERY,3342882100,Acute Care Hospitals,1.0
10023,BAPTIST MEDICAL CENTER SOUTH,2105 EAST SOUTH BOULEVARD,MONTGOMERY,AL,36116,MONTGOMERY,3342882100,Acute Care Hospitals,1.0
10023,BAPTIST MEDICAL CENTER SOUTH,2105 EAST SOUTH BOULEVARD,MONTGOMERY,AL,36116,MONTGOMERY,3342882100,Acute Care Hospitals,1.0
10024,JACKSON HOSPITAL & CLINIC INC,1725 PINE STREET,MONTGOMERY,AL,36106,MONTGOMERY,3342938000,Acute Care Hospitals,1.0
10024,JACKSON HOSPITAL & CLINIC INC,1725 PINE STREET,MONTGOMERY,AL,36106,MONTGOMERY,3342938000,Acute Care Hospitals,1.0
10024,JACKSON HOSPITAL & CLINIC INC,1725 PINE STREET,MONTGOMERY,AL,36106,MONTGOMERY,3342938000,Acute Care Hospitals,1.0
10024,JACKSON HOSPITAL & CLINIC INC,1725 PINE STREET,MONTGOMERY,AL,36106,MONTGOMERY,3342938000,Acute Care Hospitals,1.0
10024,JACKSON HOSPITAL & CLINIC INC,1725 PINE STREET,MONTGOMERY,AL,36106,MONTGOMERY,3342938000,Acute Care Hospitals,1.0
10024,JACKSON HOSPITAL & CLINIC INC,1725 PINE STREET,MONTGOMERY,AL,36106,MONTGOMERY,3342938000,Acute Care Hospitals,1.0
10024,JACKSON HOSPITAL & CLINIC INC,1725 PINE STREET,MONTGOMERY,AL,36106,MONTGOMERY,3342938000,Acute Care Hospitals,1.0
10024,JACKSON HOSPITAL & CLINIC INC,1725 PINE STREET,MONTGOMERY,AL,36106,MONTGOMERY,3342938000,Acute Care Hospitals,1.0
10024,JACKSON HOSPITAL & CLINIC INC,1725 PINE STREET,MONTGOMERY,AL,36106,MONTGOMERY,3342938000,Acute Care Hospitals,1.0
10024,JACKSON HOSPITAL & CLINIC INC,1725 PINE STREET,MONTGOMERY,AL,36106,MONTGOMERY,3342938000,Acute Care Hospitals,1.0
10024,JACKSON HOSPITAL & CLINIC INC,1725 PINE STREET,MONTGOMERY,AL,36106,MONTGOMERY,3342938000,Acute Care Hospitals,1.0
10024,JACKSON HOSPITAL & CLINIC INC,1725 PINE STREET,MONTGOMERY,AL,36106,MONTGOMERY,3342938000,Acute Care Hospitals,1.0
10025,G H LANIER MEMORIAL HOSPITAL,4800 48TH ST,VALLEY,AL,36854,CHAMBERS,3347561400,Acute Care Hospitals,1.0
10025,G H LANIER MEMORIAL HOSPITAL,4800 48TH ST,VALLEY,AL,36854,CHAMBERS,3347561400,Acute Care Hospitals,1.0
10025,G H LANIER MEMORIAL HOSPITAL,4800 48TH ST,VALLEY,AL,36854,CHAMBERS,3347561400,Acute Care Hospitals,1.0
10025,G H LANIER MEMORIAL HOSPITAL,4800 48TH ST,VALLEY,AL,36854,CHAMBERS,3347561400,Acute Care Hospitals,1.0
10025,G H LANIER MEMORIAL HOSPITAL,4800 48TH ST,VALLEY,AL,36854,CHAMBERS,3347561400,Acute Care Hospitals,1.0
10025,G H LANIER MEMORIAL HOSPITAL,4800 48TH ST,VALLEY,AL,36854,CHAMBERS,3347561400,Acute Care Hospitals,1.0
10025,G H LANIER MEMORIAL HOSPITAL,4800 48TH ST,VALLEY,AL,36854,CHAMBERS,3347561400,Acute Care Hospitals,1.0
10025,G H LANIER MEMORIAL HOSPITAL,4800 48TH ST,VALLEY,AL,36854,CHAMBERS,3347561400,Acute Care Hospitals,1.0
10025,G H LANIER MEMORIAL HOSPITAL,4800 48TH ST,VALLEY,AL,36854,CHAMBERS,3347561400,Acute Care Hospitals,1.0
10025,G H LANIER MEMORIAL HOSPITAL,4800 48TH ST,VALLEY,AL,36854,CHAMBERS,3347561400,Acute Care Hospitals,1.0
10025,G H LANIER MEMORIAL HOSPITAL,4800 48TH ST,VALLEY,AL,36854,CHAMBERS,3347561400,Acute Care Hospitals,1.0
10025,G H LANIER MEMORIAL HOSPITAL,4800 48TH ST,VALLEY,AL,36854,CHAMBERS,3347561400,Acute Care Hospitals,1.0
10025,G H LANIER MEMORIAL HOSPITAL,4800 48TH ST,VALLEY,AL,36854,CHAMBERS,3347561400,Acute Care Hospitals,1.0
10025,G H LANIER MEMORIAL HOSPITAL,4800 48TH ST,VALLEY,AL,36854,CHAMBERS,3347561400,Acute Care Hospitals,1.0
10025,G H LANIER MEMORIAL HOSPITAL,4800 48TH ST,VALLEY,AL,36854,CHAMBERS,3347561400,Acute Care Hospitals,1.0
10027,ELBA GENERAL HOSPITAL,987 DRAYTON STREET,ELBA,AL,36323,COFFEE,3348972257,Acute Care Hospitals,1.0
10027,ELBA GENERAL HOSPITAL,987 DRAYTON STREET,ELBA,AL,36323,COFFEE,3348972257,Acute Care Hospitals,1.0
10027,ELBA GENERAL HOSPITAL,987 DRAYTON STREET,ELBA,AL,36323,COFFEE,3348972257,Acute Care Hospitals,1.0
10027,ELBA GENERAL HOSPITAL,987 DRAYTON STREET,ELBA,AL,36323,COFFEE,3348972257,Acute Care Hospitals,1.0
10027,ELBA GENERAL HOSPITAL,987 DRAYTON STREET,ELBA,AL,36323,COFFEE,3348972257,Acute Care Hospitals,1.0
10027,ELBA GENERAL HOSPITAL,987 DRAYTON STREET,ELBA,AL,36323,COFFEE,3348972257,Acute Care Hospitals,1.0
10027,ELBA GENERAL HOSPITAL,987 DRAYTON STREET,ELBA,AL,36323,COFFEE,3348972257,Acute Care Hospitals,1.0
10027,ELBA GENERAL HOSPITAL,987 DRAYTON STREET,ELBA,AL,36323,COFFEE,3348972257,Acute Care Hospitals,1.0
10027,ELBA GENERAL HOSPITAL,987 DRAYTON STREET,ELBA,AL,36323,COFFEE,3348972257,Acute Care Hospitals,1.0
10027,ELBA GENERAL HOSPITAL,987 DRAYTON STREET,ELBA,AL,36323,COFFEE,3348972257,Acute Care Hospitals,1.0
10027,ELBA GENERAL HOSPITAL,987 DRAYTON STREET,ELBA,AL,36323,COFFEE,3348972257,Acute Care Hospitals,1.0
10027,ELBA GENERAL HOSPITAL,987 DRAYTON STREET,ELBA,AL,36323,COFFEE,3348972257,Acute Care Hospitals,1.0
10027,ELBA GENERAL HOSPITAL,987 DRAYTON STREET,ELBA,AL,36323,COFFEE,3348972257,Acute Care Hospitals,1.0
10029,EAST ALABAMA MEDICAL CENTER AND SNF,2000 PEPPERELL PARKWAY,OPELIKA,AL,36801,LEE,3347493411,Acute Care Hospitals,1.0
10029,EAST ALABAMA MEDICAL CENTER AND SNF,2000 PEPPERELL PARKWAY,OPELIKA,AL,36801,LEE,3347493411,Acute Care Hospitals,1.0
10029,EAST ALABAMA MEDICAL CENTER AND SNF,2000 PEPPERELL PARKWAY,OPELIKA,AL,36801,LEE,3347493411,Acute Care Hospitals,1.0
10029,EAST ALABAMA MEDICAL CENTER AND SNF,2000 PEPPERELL PARKWAY,OPELIKA,AL,36801,LEE,3347493411,Acute Care Hospitals,1.0
10029,EAST ALABAMA MEDICAL CENTER AND SNF,2000 PEPPERELL PARKWAY,OPELIKA,AL,36801,LEE,3347493411,Acute Care Hospitals,1.0
10029,EAST ALABAMA MEDICAL CENTER AND SNF,2000 PEPPERELL PARKWAY,OPELIKA,AL,36801,LEE,3347493411,Acute Care Hospitals,1.0
10029,EAST ALABAMA MEDICAL CENTER AND SNF,2000 PEPPERELL PARKWAY,OPELIKA,AL,36801,LEE,3347493411,Acute Care Hospitals,1.0
10029,EAST ALABAMA MEDICAL CENTER AND SNF,2000 PEPPERELL PARKWAY,OPELIKA,AL,36801,LEE,3347493411,Acute Care Hospitals,1.0
10029,EAST ALABAMA MEDICAL CENTER AND SNF,2000 PEPPERELL PARKWAY,OPELIKA,AL,36801,LEE,3347493411,Acute Care Hospitals,1.0
10029,EAST ALABAMA MEDICAL CENTER AND SNF,2000 PEPPERELL PARKWAY,OPELIKA,AL,36801,LEE,3347493411,Acute Care Hospitals,1.0
10029,EAST ALABAMA MEDICAL CENTER AND SNF,2000 PEPPERELL PARKWAY,OPELIKA,AL,36801,LEE,3347493411,Acute Care Hospitals,1.0
10029,EAST ALABAMA MEDICAL CENTER AND SNF,2000 PEPPERELL PARKWAY,OPELIKA,AL,36801,LEE,3347493411,Acute Care Hospitals,1.0
10029,EAST ALABAMA MEDICAL CENTER AND SNF,2000 PEPPERELL PARKWAY,OPELIKA,AL,36801,LEE,3347493411,Acute Care Hospitals,1.0
10029,EAST ALABAMA MEDICAL CENTER AND SNF,2000 PEPPERELL PARKWAY,OPELIKA,AL,36801,LEE,3347493411,Acute Care Hospitals,1.0
10029,EAST ALABAMA MEDICAL CENTER AND SNF,2000 PEPPERELL PARKWAY,OPELIKA,AL,36801,LEE,3347493411,Acute Care Hospitals,1.0
10029,EAST ALABAMA MEDICAL CENTER AND SNF,2000 PEPPERELL PARKWAY,OPELIKA,AL,36801,LEE,3347493411,Acute Care Hospitals,1.0
10029,EAST ALABAMA MEDICAL CENTER AND SNF,2000 PEPPERELL PARKWAY,OPELIKA,AL,36801,LEE,3347493411,Acute Care Hospitals,1.0
10029,EAST ALABAMA MEDICAL CENTER AND SNF,2000 PEPPERELL PARKWAY,OPELIKA,AL,36801,LEE,3347493411,Acute Care Hospitals,1.0
10032,WEDOWEE HOSPITAL,209 NORTH MAIN STREET,WEDOWEE,AL,36278,RANDOLPH,2563572111,Acute Care Hospitals,1.0
10032,WEDOWEE HOSPITAL,209 NORTH MAIN STREET,WEDOWEE,AL,36278,RANDOLPH,2563572111,Acute Care Hospitals,1.0
10032,WEDOWEE HOSPITAL,209 NORTH MAIN STREET,WEDOWEE,AL,36278,RANDOLPH,2563572111,Acute Care Hospitals,1.0
10032,WEDOWEE HOSPITAL,209 NORTH MAIN STREET,WEDOWEE,AL,36278,RANDOLPH,2563572111,Acute Care Hospitals,1.0
10032,WEDOWEE HOSPITAL,209 NORTH MAIN STREET,WEDOWEE,AL,36278,RANDOLPH,2563572111,Acute Care Hospitals,1.0
10032,WEDOWEE HOSPITAL,209 NORTH MAIN STREET,WEDOWEE,AL,36278,RANDOLPH,2563572111,Acute Care Hospitals,1.0
10032,WEDOWEE HOSPITAL,209 NORTH MAIN STREET,WEDOWEE,AL,36278,RANDOLPH,2563572111,Acute Care Hospitals,1.0
10032,WEDOWEE HOSPITAL,209 NORTH MAIN STREET,WEDOWEE,AL,36278,RANDOLPH,2563572111,Acute Care Hospitals,1.0
10032,WEDOWEE HOSPITAL,209 NORTH MAIN STREET,WEDOWEE,AL,36278,RANDOLPH,2563572111,Acute Care Hospitals,1.0
10032,WEDOWEE HOSPITAL,209 NORTH MAIN STREET,WEDOWEE,AL,36278,RANDOLPH,2563572111,Acute Care Hospitals,1.0
10032,WEDOWEE HOSPITAL,209 NORTH MAIN STREET,WEDOWEE,AL,36278,RANDOLPH,2563572111,Acute Care Hospitals,1.0
10032,WEDOWEE HOSPITAL,209 NORTH MAIN STREET,WEDOWEE,AL,36278,RANDOLPH,2563572111,Acute Care Hospitals,1.0
10032,WEDOWEE HOSPITAL,209 NORTH MAIN STREET,WEDOWEE,AL,36278,RANDOLPH,2563572111,Acute Care Hospitals,1.0
10032,WEDOWEE HOSPITAL,209 NORTH MAIN STREET,WEDOWEE,AL,36278,RANDOLPH,2563572111,Acute Care Hospitals,1.0
10032,WEDOWEE HOSPITAL,209 NORTH MAIN STREET,WEDOWEE,AL,36278,RANDOLPH,2563572111,Acute Care Hospitals,1.0
10033,UNIVERSITY OF ALABAMA HOSPITAL,619 SOUTH 19TH STREET,BIRMINGHAM,AL,35233,JEFFERSON,2059344011,Acute Care Hospitals,1.0
10033,UNIVERSITY OF ALABAMA HOSPITAL,619 SOUTH 19TH STREET,BIRMINGHAM,AL,35233,JEFFERSON,2059344011,Acute Care Hospitals,1.0
10033,UNIVERSITY OF ALABAMA HOSPITAL,619 SOUTH 19TH STREET,BIRMINGHAM,AL,35233,JEFFERSON,2059344011,Acute Care Hospitals,1.0
10033,UNIVERSITY OF ALABAMA HOSPITAL,619 SOUTH 19TH STREET,BIRMINGHAM,AL,35233,JEFFERSON,2059344011,Acute Care Hospitals,1.0
10033,UNIVERSITY OF ALABAMA HOSPITAL,619 SOUTH 19TH STREET,BIRMINGHAM,AL,35233,JEFFERSON,2059344011,Acute Care Hospitals,1.0
10033,UNIVERSITY OF ALABAMA HOSPITAL,619 SOUTH 19TH STREET,BIRMINGHAM,AL,35233,JEFFERSON,2059344011,Acute Care Hospitals,1.0
10033,UNIVERSITY OF ALABAMA HOSPITAL,619 SOUTH 19TH STREET,BIRMINGHAM,AL,35233,JEFFERSON,2059344011,Acute Care Hospitals,1.0
10033,UNIVERSITY OF ALABAMA HOSPITAL,619 SOUTH 19TH STREET,BIRMINGHAM,AL,35233,JEFFERSON,2059344011,Acute Care Hospitals,1.0
10033,UNIVERSITY OF ALABAMA HOSPITAL,619 SOUTH 19TH STREET,BIRMINGHAM,AL,35233,JEFFERSON,2059344011,Acute Care Hospitals,1.0
10033,UNIVERSITY OF ALABAMA HOSPITAL,619 SOUTH 19TH STREET,BIRMINGHAM,AL,35233,JEFFERSON,2059344011,Acute Care Hospitals,1.0
10033,UNIVERSITY OF ALABAMA HOSPITAL,619 SOUTH 19TH STREET,BIRMINGHAM,AL,35233,JEFFERSON,2059344011,Acute Care Hospitals,1.0
10034,COMMUNITY HOSPITAL INC,805 FRIENDSHIP ROAD,TALLASSEE,AL,36078,ELMORE,3342836541,Acute Care Hospitals,1.0
10034,COMMUNITY HOSPITAL INC,805 FRIENDSHIP ROAD,TALLASSEE,AL,36078,ELMORE,3342836541,Acute Care Hospitals,1.0
10034,COMMUNITY HOSPITAL INC,805 FRIENDSHIP ROAD,TALLASSEE,AL,36078,ELMORE,3342836541,Acute Care Hospitals,1.0
10034,COMMUNITY HOSPITAL INC,805 FRIENDSHIP ROAD,TALLASSEE,AL,36078,ELMORE,3342836541,Acute Care Hospitals,1.0
10034,COMMUNITY HOSPITAL INC,805 FRIENDSHIP ROAD,TALLASSEE,AL,36078,ELMORE,3342836541,Acute Care Hospitals,1.0
10034,COMMUNITY HOSPITAL INC,805 FRIENDSHIP ROAD,TALLASSEE,AL,36078,ELMORE,3342836541,Acute Care Hospitals,1.0
10034,COMMUNITY HOSPITAL INC,805 FRIENDSHIP ROAD,TALLASSEE,AL,36078,ELMORE,3342836541,Acute Care Hospitals,1.0
10034,COMMUNITY HOSPITAL INC,805 FRIENDSHIP ROAD,TALLASSEE,AL,36078,ELMORE,3342836541,Acute Care Hospitals,1.0
10034,COMMUNITY HOSPITAL INC,805 FRIENDSHIP ROAD,TALLASSEE,AL,36078,ELMORE,3342836541,Acute Care Hospitals,1.0
10035,CULLMAN REGIONAL MEDICAL CENTER,1912 ALABAMA HIGHWAY 157,CULLMAN,AL,35058,CULLMAN,2567372000,Acute Care Hospitals,1.0
10035,CULLMAN REGIONAL MEDICAL CENTER,1912 ALABAMA HIGHWAY 157,CULLMAN,AL,35058,CULLMAN,2567372000,Acute Care Hospitals,1.0
10035,CULLMAN REGIONAL MEDICAL CENTER,1912 ALABAMA HIGHWAY 157,CULLMAN,AL,35058,CULLMAN,2567372000,Acute Care Hospitals,1.0
10035,CULLMAN REGIONAL MEDICAL CENTER,1912 ALABAMA HIGHWAY 157,CULLMAN,AL,35058,CULLMAN,2567372000,Acute Care Hospitals,1.0
10035,CULLMAN REGIONAL MEDICAL CENTER,1912 ALABAMA HIGHWAY 157,CULLMAN,AL,35058,CULLMAN,2567372000,Acute Care Hospitals,1.0
10035,CULLMAN REGIONAL MEDICAL CENTER,1912 ALABAMA HIGHWAY 157,CULLMAN,AL,35058,CULLMAN,2567372000,Acute Care Hospitals,1.0
10035,CULLMAN REGIONAL MEDICAL CENTER,1912 ALABAMA HIGHWAY 157,CULLMAN,AL,35058,CULLMAN,2567372000,Acute Care Hospitals,1.0
10035,CULLMAN REGIONAL MEDICAL CENTER,1912 ALABAMA HIGHWAY 157,CULLMAN,AL,35058,CULLMAN,2567372000,Acute Care Hospitals,1.0
10035,CULLMAN REGIONAL MEDICAL CENTER,1912 ALABAMA HIGHWAY 157,CULLMAN,AL,35058,CULLMAN,2567372000,Acute Care Hospitals,1.0
10035,CULLMAN REGIONAL MEDICAL CENTER,1912 ALABAMA HIGHWAY 157,CULLMAN,AL,35058,CULLMAN,2567372000,Acute Care Hospitals,1.0
10035,CULLMAN REGIONAL MEDICAL CENTER,1912 ALABAMA HIGHWAY 157,CULLMAN,AL,35058,CULLMAN,2567372000,Acute Care Hospitals,1.0
10036,ANDALUSIA REGIONAL HOSPITAL,849 SOUTH THREE NOTCH STREET,ANDALUSIA,AL,36420,COVINGTON,3342228466,Acute Care Hospitals,1.0
10036,ANDALUSIA REGIONAL HOSPITAL,849 SOUTH THREE NOTCH STREET,ANDALUSIA,AL,36420,COVINGTON,3342228466,Acute Care Hospitals,1.0
10036,ANDALUSIA REGIONAL HOSPITAL,849 SOUTH THREE NOTCH STREET,ANDALUSIA,AL,36420,COVINGTON,3342228466,Acute Care Hospitals,1.0
10036,ANDALUSIA REGIONAL HOSPITAL,849 SOUTH THREE NOTCH STREET,ANDALUSIA,AL,36420,COVINGTON,3342228466,Acute Care Hospitals,1.0
10036,ANDALUSIA REGIONAL HOSPITAL,849 SOUTH THREE NOTCH STREET,ANDALUSIA,AL,36420,COVINGTON,3342228466,Acute Care Hospitals,1.0
10036,ANDALUSIA REGIONAL HOSPITAL,849 SOUTH THREE NOTCH STREET,ANDALUSIA,AL,36420,COVINGTON,3342228466,Acute Care Hospitals,1.0
10036,ANDALUSIA REGIONAL HOSPITAL,849 SOUTH THREE NOTCH STREET,ANDALUSIA,AL,36420,COVINGTON,3342228466,Acute Care Hospitals,1.0
10036,ANDALUSIA REGIONAL HOSPITAL,849 SOUTH THREE NOTCH STREET,ANDALUSIA,AL,36420,COVINGTON,3342228466,Acute Care Hospitals,1.0
10036,ANDALUSIA REGIONAL HOSPITAL,849 SOUTH THREE NOTCH STREET,ANDALUSIA,AL,36420,COVINGTON,3342228466,Acute Care Hospitals,1.0
10036,ANDALUSIA REGIONAL HOSPITAL,849 SOUTH THREE NOTCH STREET,ANDALUSIA,AL,36420,COVINGTON,3342228466,Acute Care Hospitals,1.0
10036,ANDALUSIA REGIONAL HOSPITAL,849 SOUTH THREE NOTCH STREET,ANDALUSIA,AL,36420,COVINGTON,3342228466,Acute Care Hospitals,1.0
10036,ANDALUSIA REGIONAL HOSPITAL,849 SOUTH THREE NOTCH STREET,ANDALUSIA,AL,36420,COVINGTON,3342228466,Acute Care Hospitals,1.0
10036,ANDALUSIA REGIONAL HOSPITAL,849 SOUTH THREE NOTCH STREET,ANDALUSIA,AL,36420,COVINGTON,3342228466,Acute Care Hospitals,1.0
10036,ANDALUSIA REGIONAL HOSPITAL,849 SOUTH THREE NOTCH STREET,ANDALUSIA,AL,36420,COVINGTON,3342228466,Acute Care Hospitals,1.0
10038,STRINGFELLOW MEMORIAL HOSPITAL,301 EAST 18TH ST,ANNISTON,AL,36201,CALHOUN,2562358900,Acute Care Hospitals,1.0
10038,STRINGFELLOW MEMORIAL HOSPITAL,301 EAST 18TH ST,ANNISTON,AL,36201,CALHOUN,2562358900,Acute Care Hospitals,1.0
10039,HUNTSVILLE HOSPITAL,101 SIVLEY RD,HUNTSVILLE,AL,35801,MADISON,2562651000,Acute Care Hospitals,1.0
10039,HUNTSVILLE HOSPITAL,101 SIVLEY RD,HUNTSVILLE,AL,35801,MADISON,2562651000,Acute Care Hospitals,1.0
10039,HUNTSVILLE HOSPITAL,101 SIVLEY RD,HUNTSVILLE,AL,35801,MADISON,2562651000,Acute Care Hospitals,1.0
10039,HUNTSVILLE HOSPITAL,101 SIVLEY RD,HUNTSVILLE,AL,35801,MADISON,2562651000,Acute Care Hospitals,1.0
10039,HUNTSVILLE HOSPITAL,101 SIVLEY RD,HUNTSVILLE,AL,35801,MADISON,2562651000,Acute Care Hospitals,1.0
10039,HUNTSVILLE HOSPITAL,101 SIVLEY RD,HUNTSVILLE,AL,35801,MADISON,2562651000,Acute Care Hospitals,1.0
10039,HUNTSVILLE HOSPITAL,101 SIVLEY RD,HUNTSVILLE,AL,35801,MADISON,2562651000,Acute Care Hospitals,1.0
10039,HUNTSVILLE HOSPITAL,101 SIVLEY RD,HUNTSVILLE,AL,35801,MADISON,2562651000,Acute Care Hospitals,1.0
10039,HUNTSVILLE HOSPITAL,101 SIVLEY RD,HUNTSVILLE,AL,35801,MADISON,2562651000,Acute Care Hospitals,1.0
10039,HUNTSVILLE HOSPITAL,101 SIVLEY RD,HUNTSVILLE,AL,35801,MADISON,2562651000,Acute Care Hospitals,1.0
10039,HUNTSVILLE HOSPITAL,101 SIVLEY RD,HUNTSVILLE,AL,35801,MADISON,2562651000,Acute Care Hospitals,1.0
10040,GADSDEN REGIONAL MEDICAL CENTER,1007 GOODYEAR AVENUE,GADSDEN,AL,35903,ETOWAH,2564944000,Acute Care Hospitals,1.0
10040,GADSDEN REGIONAL MEDICAL CENTER,1007 GOODYEAR AVENUE,GADSDEN,AL,35903,ETOWAH,2564944000,Acute Care Hospitals,1.0
10040,GADSDEN REGIONAL MEDICAL CENTER,1007 GOODYEAR AVENUE,GADSDEN,AL,35903,ETOWAH,2564944000,Acute Care Hospitals,1.0
10040,GADSDEN REGIONAL MEDICAL CENTER,1007 GOODYEAR AVENUE,GADSDEN,AL,35903,ETOWAH,2564944000,Acute Care Hospitals,1.0
10040,GADSDEN REGIONAL MEDICAL CENTER,1007 GOODYEAR AVENUE,GADSDEN,AL,35903,ETOWAH,2564944000,Acute Care Hospitals,1.0
10040,GADSDEN REGIONAL MEDICAL CENTER,1007 GOODYEAR AVENUE,GADSDEN,AL,35903,ETOWAH,2564944000,Acute Care Hospitals,1.0
10040,GADSDEN REGIONAL MEDICAL CENTER,1007 GOODYEAR AVENUE,GADSDEN,AL,35903,ETOWAH,2564944000,Acute Care Hospitals,1.0
10040,GADSDEN REGIONAL MEDICAL CENTER,1007 GOODYEAR AVENUE,GADSDEN,AL,35903,ETOWAH,2564944000,Acute Care Hospitals,1.0
10040,GADSDEN REGIONAL MEDICAL CENTER,1007 GOODYEAR AVENUE,GADSDEN,AL,35903,ETOWAH,2564944000,Acute Care Hospitals,1.0
10040,GADSDEN REGIONAL MEDICAL CENTER,1007 GOODYEAR AVENUE,GADSDEN,AL,35903,ETOWAH,2564944000,Acute Care Hospitals,1.0
10040,GADSDEN REGIONAL MEDICAL CENTER,1007 GOODYEAR AVENUE,GADSDEN,AL,35903,ETOWAH,2564944000,Acute Care Hospitals,1.0
10040,GADSDEN REGIONAL MEDICAL CENTER,1007 GOODYEAR AVENUE,GADSDEN,AL,35903,ETOWAH,2564944000,Acute Care Hospitals,1.0
10040,GADSDEN REGIONAL MEDICAL CENTER,1007 GOODYEAR AVENUE,GADSDEN,AL,35903,ETOWAH,2564944000,Acute Care Hospitals,1.0
10040,GADSDEN REGIONAL MEDICAL CENTER,1007 GOODYEAR AVENUE,GADSDEN,AL,35903,ETOWAH,2564944000,Acute Care Hospitals,1.0
10040,GADSDEN REGIONAL MEDICAL CENTER,1007 GOODYEAR AVENUE,GADSDEN,AL,35903,ETOWAH,2564944000,Acute Care Hospitals,1.0
10040,GADSDEN REGIONAL MEDICAL CENTER,1007 GOODYEAR AVENUE,GADSDEN,AL,35903,ETOWAH,2564944000,Acute Care Hospitals,1.0
10043,CHILTON MEDICAL CENTER,1010 LAY DAM ROAD,CLANTON,AL,35045,CHILTON,2057552500,Acute Care Hospitals,1.0
10043,CHILTON MEDICAL CENTER,1010 LAY DAM ROAD,CLANTON,AL,35045,CHILTON,2057552500,Acute Care Hospitals,1.0
10043,CHILTON MEDICAL CENTER,1010 LAY DAM ROAD,CLANTON,AL,35045,CHILTON,2057552500,Acute Care Hospitals,1.0
10043,CHILTON MEDICAL CENTER,1010 LAY DAM ROAD,CLANTON,AL,35045,CHILTON,2057552500,Acute Care Hospitals,1.0
10043,CHILTON MEDICAL CENTER,1010 LAY DAM ROAD,CLANTON,AL,35045,CHILTON,2057552500,Acute Care Hospitals,1.0
10043,CHILTON MEDICAL CENTER,1010 LAY DAM ROAD,CLANTON,AL,35045,CHILTON,2057552500,Acute Care Hospitals,1.0
10043,CHILTON MEDICAL CENTER,1010 LAY DAM ROAD,CLANTON,AL,35045,CHILTON,2057552500,Acute Care Hospitals,1.0
10043,CHILTON MEDICAL CENTER,1010 LAY DAM ROAD,CLANTON,AL,35045,CHILTON,2057552500,Acute Care Hospitals,1.0
10043,CHILTON MEDICAL CENTER,1010 LAY DAM ROAD,CLANTON,AL,35045,CHILTON,2057552500,Acute Care Hospitals,1.0
10043,CHILTON MEDICAL CENTER,1010 LAY DAM ROAD,CLANTON,AL,35045,CHILTON,2057552500,Acute Care Hospitals,1.0
10044,MARION REGIONAL MEDICAL CENTER,1256 MILITARY STREET SOUTH,HAMILTON,AL,35570,MARION,2059216200,Acute Care Hospitals,1.0
10044,MARION REGIONAL MEDICAL CENTER,1256 MILITARY STREET SOUTH,HAMILTON,AL,35570,MARION,2059216200,Acute Care Hospitals,1.0
10044,MARION REGIONAL MEDICAL CENTER,1256 MILITARY STREET SOUTH,HAMILTON,AL,35570,MARION,2059216200,Acute Care Hospitals,1.0
10044,MARION REGIONAL MEDICAL CENTER,1256 MILITARY STREET SOUTH,HAMILTON,AL,35570,MARION,2059216200,Acute Care Hospitals,1.0
10044,MARION REGIONAL MEDICAL CENTER,1256 MILITARY STREET SOUTH,HAMILTON,AL,35570,MARION,2059216200,Acute Care Hospitals,1.0
10044,MARION REGIONAL MEDICAL CENTER,1256 MILITARY STREET SOUTH,HAMILTON,AL,35570,MARION,2059216200,Acute Care Hospitals,1.0
10044,MARION REGIONAL MEDICAL CENTER,1256 MILITARY STREET SOUTH,HAMILTON,AL,35570,MARION,2059216200,Acute Care Hospitals,1.0
10044,MARION REGIONAL MEDICAL CENTER,1256 MILITARY STREET SOUTH,HAMILTON,AL,35570,MARION,2059216200,Acute Care Hospitals,1.0
10044,MARION REGIONAL MEDICAL CENTER,1256 MILITARY STREET SOUTH,HAMILTON,AL,35570,MARION,2059216200,Acute Care Hospitals,1.0
10044,MARION REGIONAL MEDICAL CENTER,1256 MILITARY STREET SOUTH,HAMILTON,AL,35570,MARION,2059216200,Acute Care Hospitals,1.0
10044,MARION REGIONAL MEDICAL CENTER,1256 MILITARY STREET SOUTH,HAMILTON,AL,35570,MARION,2059216200,Acute Care Hospitals,1.0
10045,FAYETTE MEDICAL CENTER,1653 TEMPLE AVENUE NORTH,FAYETTE,AL,35555,FAYETTE,2059325966,Acute Care Hospitals,1.0
10045,FAYETTE MEDICAL CENTER,1653 TEMPLE AVENUE NORTH,FAYETTE,AL,35555,FAYETTE,2059325966,Acute Care Hospitals,1.0
10045,FAYETTE MEDICAL CENTER,1653 TEMPLE AVENUE NORTH,FAYETTE,AL,35555,FAYETTE,2059325966,Acute Care Hospitals,1.0
10045,FAYETTE MEDICAL CENTER,1653 TEMPLE AVENUE NORTH,FAYETTE,AL,35555,FAYETTE,2059325966,Acute Care Hospitals,1.0
10045,FAYETTE MEDICAL CENTER,1653 TEMPLE AVENUE NORTH,FAYETTE,AL,35555,FAYETTE,2059325966,Acute Care Hospitals,1.0
10045,FAYETTE MEDICAL CENTER,1653 TEMPLE AVENUE NORTH,FAYETTE,AL,35555,FAYETTE,2059325966,Acute Care Hospitals,1.0
10045,FAYETTE MEDICAL CENTER,1653 TEMPLE AVENUE NORTH,FAYETTE,AL,35555,FAYETTE,2059325966,Acute Care Hospitals,1.0
10045,FAYETTE MEDICAL CENTER,1653 TEMPLE AVENUE NORTH,FAYETTE,AL,35555,FAYETTE,2059325966,Acute Care Hospitals,1.0
10045,FAYETTE MEDICAL CENTER,1653 TEMPLE AVENUE NORTH,FAYETTE,AL,35555,FAYETTE,2059325966,Acute Care Hospitals,1.0
10045,FAYETTE MEDICAL CENTER,1653 TEMPLE AVENUE NORTH,FAYETTE,AL,35555,FAYETTE,2059325966,Acute Care Hospitals,1.0
10045,FAYETTE MEDICAL CENTER,1653 TEMPLE AVENUE NORTH,FAYETTE,AL,35555,FAYETTE,2059325966,Acute Care Hospitals,1.0
10045,FAYETTE MEDICAL CENTER,1653 TEMPLE AVENUE NORTH,FAYETTE,AL,35555,FAYETTE,2059325966,Acute Care Hospitals,1.0
10046,RIVERVIEW REGIONAL MEDICAL CENTER,600 SOUTH THIRD STREET,GADSDEN,AL,35901,ETOWAH,2565435200,Acute Care Hospitals,1.0
10046,RIVERVIEW REGIONAL MEDICAL CENTER,600 SOUTH THIRD STREET,GADSDEN,AL,35901,ETOWAH,2565435200,Acute Care Hospitals,1.0
10046,RIVERVIEW REGIONAL MEDICAL CENTER,600 SOUTH THIRD STREET,GADSDEN,AL,35901,ETOWAH,2565435200,Acute Care Hospitals,1.0
10046,RIVERVIEW REGIONAL MEDICAL CENTER,600 SOUTH THIRD STREET,GADSDEN,AL,35901,ETOWAH,2565435200,Acute Care Hospitals,1.0
10046,RIVERVIEW REGIONAL MEDICAL CENTER,600 SOUTH THIRD STREET,GADSDEN,AL,35901,ETOWAH,2565435200,Acute Care Hospitals,1.0
10046,RIVERVIEW REGIONAL MEDICAL CENTER,600 SOUTH THIRD STREET,GADSDEN,AL,35901,ETOWAH,2565435200,Acute Care Hospitals,1.0
10046,RIVERVIEW REGIONAL MEDICAL CENTER,600 SOUTH THIRD STREET,GADSDEN,AL,35901,ETOWAH,2565435200,Acute Care Hospitals,1.0
10046,RIVERVIEW REGIONAL MEDICAL CENTER,600 SOUTH THIRD STREET,GADSDEN,AL,35901,ETOWAH,2565435200,Acute Care Hospitals,1.0
10046,RIVERVIEW REGIONAL MEDICAL CENTER,600 SOUTH THIRD STREET,GADSDEN,AL,35901,ETOWAH,2565435200,Acute Care Hospitals,1.0
10046,RIVERVIEW REGIONAL MEDICAL CENTER,600 SOUTH THIRD STREET,GADSDEN,AL,35901,ETOWAH,2565435200,Acute Care Hospitals,1.0
10046,RIVERVIEW REGIONAL MEDICAL CENTER,600 SOUTH THIRD STREET,GADSDEN,AL,35901,ETOWAH,2565435200,Acute Care Hospitals,1.0
10046,RIVERVIEW REGIONAL MEDICAL CENTER,600 SOUTH THIRD STREET,GADSDEN,AL,35901,ETOWAH,2565435200,Acute Care Hospitals,1.0
10046,RIVERVIEW REGIONAL MEDICAL CENTER,600 SOUTH THIRD STREET,GADSDEN,AL,35901,ETOWAH,2565435200,Acute Care Hospitals,1.0
10046,RIVERVIEW REGIONAL MEDICAL CENTER,600 SOUTH THIRD STREET,GADSDEN,AL,35901,ETOWAH,2565435200,Acute Care Hospitals,1.0
10046,RIVERVIEW REGIONAL MEDICAL CENTER,600 SOUTH THIRD STREET,GADSDEN,AL,35901,ETOWAH,2565435200,Acute Care Hospitals,1.0
10046,RIVERVIEW REGIONAL MEDICAL CENTER,600 SOUTH THIRD STREET,GADSDEN,AL,35901,ETOWAH,2565435200,Acute Care Hospitals,1.0
10047,GEORGIANA HOSPITAL,515 MIRANDA ST,GEORGIANA,AL,36033,BUTLER,3343762205,Acute Care Hospitals,1.0
10047,GEORGIANA HOSPITAL,515 MIRANDA ST,GEORGIANA,AL,36033,BUTLER,3343762205,Acute Care Hospitals,1.0
10047,GEORGIANA HOSPITAL,515 MIRANDA ST,GEORGIANA,AL,36033,BUTLER,3343762205,Acute Care Hospitals,1.0
10047,GEORGIANA HOSPITAL,515 MIRANDA ST,GEORGIANA,AL,36033,BUTLER,3343762205,Acute Care Hospitals,1.0
10047,GEORGIANA HOSPITAL,515 MIRANDA ST,GEORGIANA,AL,36033,BUTLER,3343762205,Acute Care Hospitals,1.0
10047,GEORGIANA HOSPITAL,515 MIRANDA ST,GEORGIANA,AL,36033,BUTLER,3343762205,Acute Care Hospitals,1.0
10047,GEORGIANA HOSPITAL,515 MIRANDA ST,GEORGIANA,AL,36033,BUTLER,3343762205,Acute Care Hospitals,1.0
10049,MEDICAL CENTER ENTERPRISE,400 N EDWARDS STREET,ENTERPRISE,AL,36330,COFFEE,3343470584,Acute Care Hospitals,1.0
10049,MEDICAL CENTER ENTERPRISE,400 N EDWARDS STREET,ENTERPRISE,AL,36330,COFFEE,3343470584,Acute Care Hospitals,1.0
10049,MEDICAL CENTER ENTERPRISE,400 N EDWARDS STREET,ENTERPRISE,AL,36330,COFFEE,3343470584,Acute Care Hospitals,1.0
10049,MEDICAL CENTER ENTERPRISE,400 N EDWARDS STREET,ENTERPRISE,AL,36330,COFFEE,3343470584,Acute Care Hospitals,1.0
10049,MEDICAL CENTER ENTERPRISE,400 N EDWARDS STREET,ENTERPRISE,AL,36330,COFFEE,3343470584,Acute Care Hospitals,1.0
10049,MEDICAL CENTER ENTERPRISE,400 N EDWARDS STREET,ENTERPRISE,AL,36330,COFFEE,3343470584,Acute Care Hospitals,1.0
10049,MEDICAL CENTER ENTERPRISE,400 N EDWARDS STREET,ENTERPRISE,AL,36330,COFFEE,3343470584,Acute Care Hospitals,1.0
10049,MEDICAL CENTER ENTERPRISE,400 N EDWARDS STREET,ENTERPRISE,AL,36330,COFFEE,3343470584,Acute Care Hospitals,1.0
10049,MEDICAL CENTER ENTERPRISE,400 N EDWARDS STREET,ENTERPRISE,AL,36330,COFFEE,3343470584,Acute Care Hospitals,1.0
10049,MEDICAL CENTER ENTERPRISE,400 N EDWARDS STREET,ENTERPRISE,AL,36330,COFFEE,3343470584,Acute Care Hospitals,1.0
10049,MEDICAL CENTER ENTERPRISE,400 N EDWARDS STREET,ENTERPRISE,AL,36330,COFFEE,3343470584,Acute Care Hospitals,1.0
10049,MEDICAL CENTER ENTERPRISE,400 N EDWARDS STREET,ENTERPRISE,AL,36330,COFFEE,3343470584,Acute Care Hospitals,1.0
10049,MEDICAL CENTER ENTERPRISE,400 N EDWARDS STREET,ENTERPRISE,AL,36330,COFFEE,3343470584,Acute Care Hospitals,1.0
10050,ST VINCENTS BLOUNT,150 GILBREATH DRIVE,ONEONTA,AL,35121,BLOUNT,2052743000,Acute Care Hospitals,1.0
10050,ST VINCENTS BLOUNT,150 GILBREATH DRIVE,ONEONTA,AL,35121,BLOUNT,2052743000,Acute Care Hospitals,1.0
10050,ST VINCENTS BLOUNT,150 GILBREATH DRIVE,ONEONTA,AL,35121,BLOUNT,2052743000,Acute Care Hospitals,1.0
10050,ST VINCENTS BLOUNT,150 GILBREATH DRIVE,ONEONTA,AL,35121,BLOUNT,2052743000,Acute Care Hospitals,1.0
10050,ST VINCENTS BLOUNT,150 GILBREATH DRIVE,ONEONTA,AL,35121,BLOUNT,2052743000,Acute Care Hospitals,1.0
10050,ST VINCENTS BLOUNT,150 GILBREATH DRIVE,ONEONTA,AL,35121,BLOUNT,2052743000,Acute Care Hospitals,1.0
10050,ST VINCENTS BLOUNT,150 GILBREATH DRIVE,ONEONTA,AL,35121,BLOUNT,2052743000,Acute Care Hospitals,1.0
10050,ST VINCENTS BLOUNT,150 GILBREATH DRIVE,ONEONTA,AL,35121,BLOUNT,2052743000,Acute Care Hospitals,1.0
10050,ST VINCENTS BLOUNT,150 GILBREATH DRIVE,ONEONTA,AL,35121,BLOUNT,2052743000,Acute Care Hospitals,1.0
10025,G H LANIER MEMORIAL HOSPITAL,CHAMBERS,VALLEY,AL,36854,4800 48TH ST,3347561400,Acute Care Hospitals,0.0
Acute Care Hospitals,9072761131,2801 DEBARR ROAD,ANCHORAGE,AK,99508,ANCHORAGE,ALASKA REGIONAL HOSPITAL,20017,0.0
10032,WEDOWEE HOSPITAL,WEDOWEE,209 NORTH MAIN STREET,AL,Acute Care Hospitals,RANDOLPH,2563572111,36278,0.0
35555,FAYETTE MEDICAL CENTER,1653 TEMPLE AVENUE NORTH,FAYETTE,AL,10045,FAYETTE,2059325966,Acute Care Hospitals,0.0
10008,CRENSHAW COMMUNITY HOSPITAL,101 HOSPITAL CIRCLE,AL,LUVERNE,Acute Care Hospitals,CRENSHAW,3343353374,36049,0.0
20017,ALASKA REGIONAL HOSPITAL,Acute Care Hospitals,ANCHORAGE,AK,99508,ANCHORAGE,9072761131,2801 DEBARR ROAD,0.0
10023,MONTGOMERY,2105 EAST SOUTH BOULEVARD,BAPTIST MEDICAL CENTER SOUTH,AL,36116,3342882100,MONTGOMERY,Acute Care Hospitals,0.0
10005,MARSHALL MEDICAL CENTER SOUTH,2505 U S HIGHWAY 431 NORTH,Acute Care Hospitals,BOAZ,35957,MARSHALL,2565938310,AL,0.0
10047,Acute Care Hospitals,515 MIRANDA ST,GEORGIANA,AL,36033,GEORGIANA HOSPITAL,3343762205,BUTLER,0.0
10108,3343614267,124 S MEMORIAL DR,AUTAUGA,AL,36067,PRATTVILLE,PRATTVILLE BAPTIST HOSPITAL,Acute Care Hospitals,0.0
Acute Care Hospitals,MEDICAL CENTER ENTERPRISE,400 N EDWARDS STREET,10049,AL,36330,COFFEE,3343470584,ENTERPRISE,0.0
2563572111,WEDOWEE HOSPITAL,209 NORTH MAIN STREET,WEDOWEE,Acute Care Hospitals,36278,RANDOLPH,10032,AL,0.0
35801,HUNTSVILLE HOSPITAL,101 SIVLEY RD,HUNTSVILLE,AL,Acute Care Hospitals,MADISON,2562651000,10039,0.0
10055,FLOWERS HOSPITAL,3347935000,DOTHAN,AL,Acute Care Hospitals,HOUSTON,4370 WEST MAIN STREET,36305,0.0
10086,NORTHWEST MEDICAL CENTER,1530 U S HIGHWAY 43,AL,WINFIELD,35594,MARION,2054877736,Acute Care Hospitals,0.0
10019,JEFFERSON,HELEN KELLER MEMORIAL HOSPITAL,SHEFFIELD,AL,35660,1300 SOUTH MONTGOMERY AVENUE,2563864556,Acute Care Hospitals,0.0
10021,Acute Care Hospitals,126 HOSPITAL AVE,OZARK,AL,36360,DALE,3347742601,DALE MEDICAL CENTER,0.0
10046,2565435200,600 SOUTH THIRD STREET,GADSDEN,Acute Care Hospitals,35901,ETOWAH,RIVERVIEW REGIONAL MEDICAL CENTER,AL,0.0
10046,RIVERVIEW REGIONAL MEDICAL CENTER,600 SOUTH THIRD STREET,ETOWAH,AL,GADSDEN,35901,2565435200,Acute Care Hospitals,0.0
AL,ANDALUSIA REGIONAL HOSPITAL,10036,ANDALUSIA,849 SOUTH THREE NOTCH STREET,36420,COVINGTON,3342228466,Acute Care Hospitals,0.0
10018,CALLAHAN EYE FOUNDATION HOSPITAL,1720 UNIVERSITY BLVD,BIRMINGHAM,2053258100,35233,JEFFERSON,Acute Care Hospitals,AL,0.0
10008,CRENSHAW COMMUNITY HOSPITAL,AL,LUVERNE,36049,101 HOSPITAL CIRCLE,CRENSHAW,3343353374,Acute Care Hospitals,0.0
GEORGIANA HOSPITAL,10047,Acute Care Hospitals,GEORGIANA,AL,36033,BUTLER,3343762205,515 MIRANDA ST,0.0
MIZELL MEMORIAL HOSPITAL,Acute Care Hospitals,702 N MAIN ST,OPP,AL,36467,COVINGTON,3344933541,10007,0.0
CHEROKEE MEDICAL CENTER,AL,400 NORTHWOOD DR,CENTRE,10022,35960,CHEROKEE,2569275531,Acute Care Hospitals,0.0
10016,SHELBY BAPTIST MEDICAL CENTER,1000 FIRST STREET NORTH,Acute Care Hospitals,2056208100,35007,SHELBY,AL,ALABASTER,0.0
10011,50 MEDICAL PARK EAST DRIVE,ST VINCENT'S EAST,AL,BIRMINGHAM,35235,JEFFERSON,2058383122,Acute Care Hospitals,0.0
10038,ANNISTON,301 EAST 18TH ST,STRINGFELLOW MEMORIAL HOSPITAL,AL,CALHOUN,36201,2562358900,Acute Care Hospitals,0.0
10032,WEDOWEE,WEDOWEE HOSPITAL,209 NORTH MAIN STREET,AL,36278,RANDOLPH,2563572111,Acute Care Hospitals,0.0
10023,BAPTIST MEDICAL CENTER SOUTH,2105 EAST SOUTH BOULEVARD,AL,MONTGOMERY,36116,MONTGOMERY,3342882100,Acute Care Hospitals,0.0
10027,3348972257,987 DRAYTON STREET,Acute Care Hospitals,AL,36323,COFFEE,ELBA GENERAL HOSPITAL,ELBA,0.0
10010,MARSHALL MEDICAL CENTER NORTH,AL,GUNTERSVILLE,8000 ALABAMA HIGHWAY 69,35976,MARSHALL,2565718000,Acute Care Hospitals,0.0
35660,HELEN KELLER MEMORIAL HOSPITAL,1300 SOUTH MONTGOMERY AVENUE,SHEFFIELD,AL,JEFFERSON,10019,2563864556,Acute Care Hospitals,0.0
JEFFERSON,10019,1300 SOUTH MONTGOMERY AVENUE,SHEFFIELD,AL,35660,HELEN KELLER MEMORIAL HOSPITAL,2563864556,Acute Care Hospitals,0.0
10044,Acute Care Hospitals,MARION REGIONAL MEDICAL CENTER,HAMILTON,AL,35570,MARION,2059216200,1256 MILITARY STREET SOUTH,0.0
10008,CRENSHAW COMMUNITY HOSPITAL,101 HOSPITAL CIRCLE,3343353374,AL,36049,CRENSHAW,LUVERNE,Acute Care Hospitals,0.0
10009,HARTSELLE MEDICAL CENTER,201 PINE STREET NORTHWEST,AL,HARTSELLE,35640,MORGAN,2567736511,Acute Care Hospitals,0.0
CENTRE,Acute Care Hospitals,400 NORTHWOOD DR,10022,AL,35960,CHEROKEE,2569275531,CHEROKEE MEDICAL CENTER,0.0
HUNTSVILLE,HUNTSVILLE HOSPITAL,35801,10039,AL,101 SIVLEY RD,MADISON,2562651000,Acute Care Hospitals,0.0
10043,CHILTON MEDICAL CENTER,2057552500,35045,AL,CLANTON,CHILTON,1010 LAY DAM ROAD,Acute Care Hospitals,0.0
3343762205,GEORGIANA HOSPITAL,Acute Care Hospitals,GEORGIANA,AL,36033,BUTLER,10047,515 MIRANDA ST,0.0
10047,BUTLER,515 MIRANDA ST,GEORGIANA,Acute Care Hospitals,36033,GEORGIANA HOSPITAL,3343762205,AL,0.0
10008,CRENSHAW COMMUNITY HOSPITAL,AL,36049,101 HOSPITAL CIRCLE,LUVERNE,CRENSHAW,3343353374,Acute Care Hospitals,0.0
10016,SHELBY BAPTIST MEDICAL CENTER,1000 FIRST STREET NORTH,ALABASTER,AL,35007,SHELBY,2056208100,Acute Care Hospitals,0.0
10055,FLOWERS HOSPITAL,4370 WEST MAIN STREET,DOTHAN,3347935000,36305,HOUSTON,Acute Care Hospitals,AL,0.0
10038,2562358900,301 EAST 18TH ST,ANNISTON,AL,36201,Acute Care Hospitals,STRINGFELLOW MEMORIAL HOSPITAL,CALHOUN,0.0
10050,ST VINCENTS BLOUNT,150 GILBREATH DRIVE,35121,AL,BLOUNT,ONEONTA,2052743000,Acute Care Hospitals,0.0
619 SOUTH 19TH STREET,JEFFERSON,10033,BIRMINGHAM,AL,35233,UNIVERSITY OF ALABAMA HOSPITAL,2059344011,Acute Care Hospitals,0.0
Acute Care Hospitals,MARSHALL MEDICAL CENTER SOUTH,2505 U S HIGHWAY 431 NORTH,BOAZ,AL,10005,MARSHALL,2565938310,35957,0.0
35555,FAYETTE,1653 TEMPLE AVENUE NORTH,FAYETTE MEDICAL CENTER,AL,10045,FAYETTE,2059325966,Acute Care Hospitals,0.0
10016,SHELBY BAPTIST MEDICAL CENTER,1000 FIRST STREET NORTH,ALABASTER,SHELBY,35007,2056208100,AL,Acute Care Hospitals,0.0
10009,HARTSELLE MEDICAL CENTER,MORGAN,HARTSELLE,35640,AL,201 PINE STREET NORTHWEST,2567736511,Acute Care Hospitals,0.0
10036,ANDALUSIA REGIONAL HOSPITAL,36420,ANDALUSIA,AL,849 SOUTH THREE NOTCH STREET,COVINGTON,Acute Care Hospitals,3342228466,0.0
Acute Care Hospitals,RIVERVIEW REGIONAL MEDICAL CENTER,600 SOUTH THIRD STREET,GADSDEN,10046,35901,ETOWAH,2565435200,AL,0.0
10038,STRINGFELLOW MEMORIAL HOSPITAL,301 EAST 18TH ST,ANNISTON,CALHOUN,Acute Care Hospitals,AL,2562358900,36201,0.0
HUNTSVILLE HOSPITAL,10039,101 SIVLEY RD,HUNTSVILLE,MADISON,35801,AL,2562651000,Acute Care Hospitals,0.0
10033,UNIVERSITY OF ALABAMA HOSPITAL,619 SOUTH 19TH STREET,BIRMINGHAM,2059344011,AL,JEFFERSON,35233,Acute Care Hospitals,0.0
10018,CALLAHAN EYE FOUNDATION HOSPITAL,1720 UNIVERSITY BLVD,BIRMINGHAM,JEFFERSON,35233,AL,Acute Care Hospitals,2053258100,0.0
10043,1010 LAY DAM ROAD,CHILTON MEDICAL CENTER,CLANTON,AL,35045,CHILTON,2057552500,Acute Care Hospitals,0.0
AL,MEDICAL CENTER ENTERPRISE,400 N EDWARDS STREET,COFFEE,10049,36330,ENTERPRISE,3343470584,Acute Care Hospitals,0.0
HARTSELLE,201 PINE STREET NORTHWEST,HARTSELLE MEDICAL CENTER,10009,AL,35640,MORGAN,2567736511,Acute Care Hospitals,0.0
10011,ST VINCENT'S EAST,50 MEDICAL PARK EAST DRIVE,BIRMINGHAM,AL,35235,2058383122,JEFFERSON,Acute Care Hospitals,0.0
10015,THOMASVILLE,33700 HIGHWAY 43,AL,SOUTHWEST ALABAMA MEDICAL CENTER,36784,CLARKE,3346366221,Acute Care Hospitals,0.0
10007,702 N MAIN ST,MIZELL MEMORIAL HOSPITAL,OPP,COVINGTON,36467,AL,3344933541,Acute Care Hospitals,0.0
10087,UNIV OF SOUTH ALABAMA MEDICAL CENTER,2451 FILLINGIM STREET,MOBILE,AL,MOBILE,36617,2514717110,Acute Care Hospitals,0.0
10010,2565718000,MARSHALL,GUNTERSVILLE,AL,35976,8000 ALABAMA HIGHWAY 69,MARSHALL MEDICAL CENTER NORTH,Acute Care Hospitals,0.0
10034,COMMUNITY HOSPITAL INC,805 FRIENDSHIP ROAD,Acute Care Hospitals,AL,36078,ELMORE,3342836541,TALLASSEE,0.0
10023,BAPTIST MEDICAL CENTER SOUTH,Acute Care Hospitals,MONTGOMERY,AL,MONTGOMERY,36116,3342882100,2105 EAST SOUTH BOULEVARD,0.0
10039,AL,101 SIVLEY RD,HUNTSVILLE,HUNTSVILLE HOSPITAL,35801,MADISON,2562651000,Acute Care Hospitals,0.0
33700 HIGHWAY 43,SOUTHWEST ALABAMA MEDICAL CENTER,10015,3346366221,AL,36784,CLARKE,THOMASVILLE,Acute Care Hospitals,0.0
AL,ANDALUSIA REGIONAL HOSPITAL,3342228466,ANDALUSIA,10036,36420,COVINGTON,849 SOUTH THREE NOTCH STREET,Acute Care Hospitals,0.0
10038,STRINGFELLOW MEMORIAL HOSPITAL,AL,ANNISTON,301 EAST 18TH ST,36201,CALHOUN,2562358900,Acute Care Hospitals,0.0
10039,HUNTSVILLE HOSPITAL,101 SIVLEY RD,AL,MADISON,35801,HUNTSVILLE,2562651000,Acute Care Hospitals,0.0
8000 ALABAMA HIGHWAY 69,MARSHALL MEDICAL CENTER NORTH,10010,GUNTERSVILLE,AL,35976,MARSHALL,2565718000,Acute Care Hospitals,0.0
10087,UNIV OF SOUTH ALABAMA MEDICAL CENTER,36617,Acute Care Hospitals,AL,2451 FILLINGIM STREET,MOBILE,2514717110,MOBILE,0.0
10039,HUNTSVILLE HOSPITAL,101 SIVLEY RD,HUNTSVILLE,AL,MADISON,Acute Care Hospitals,2562651000,35801,0.0
2562358900,STRINGFELLOW MEMORIAL HOSPITAL,301 EAST 18TH ST,10038,AL,36201,CALHOUN,ANNISTON,Acute Care Hospitals,0.0
10035,1912 ALABAMA HIGHWAY 157,CULLMAN,CULLMAN,AL,35058,CULLMAN REGIONAL MEDICAL CENTER,2567372000,Acute Care Hospitals,0.0
10015,SOUTHWEST ALABAMA MEDICAL CENTER,33700 HIGHWAY 43,THOMASVILLE,AL,36784,CLARKE,3346366221,Acute Care Hospitals,0.0
ONEONTA,ST VINCENTS BLOUNT,150 GILBREATH DRIVE,10050,35121,AL,BLOUNT,2052743000,Acute Care Hospitals,0.0
10006,35631,205 MARENGO STREET,FLORENCE,AL,ELIZA COFFEE MEMORIAL HOSPITAL,2567688400,LAUDERDALE,Acute Care Hospitals,0.0
10005,MARSHALL MEDICAL CENTER SOUTH,2505 U S HIGHWAY 431 NORTH,BOAZ,2565938310,35957,AL,MARSHALL,Acute Care Hospitals,0.0
10010,MARSHALL MEDICAL CENTER NORTH,8000 ALABAMA HIGHWAY 69,35976,AL,GUNTERSVILLE,MARSHALL,2565718000,Acute Care Hospitals,0.0
10022,CHEROKEE MEDICAL CENTER,400 NORTHWOOD DR,CENTRE,CHEROKEE,35960,AL,2569275531,Acute Care Hospitals,0.0
2056208100,SHELBY BAPTIST MEDICAL CENTER,1000 FIRST STREET NORTH,10016,AL,35007,SHELBY,ALABASTER,Acute Care Hospitals,0.0
10015,SOUTHWEST ALABAMA MEDICAL CENTER,33700 HIGHWAY 43,3346366221,AL,36784,CLARKE,Acute Care Hospitals,THOMASVILLE,0.0
10039,HUNTSVILLE HOSPITAL,101 SIVLEY RD,HUNTSVILLE,Acute Care Hospitals,35801,MADISON,AL,2562651000,0.0
10035,AL,1912 ALABAMA HIGHWAY 157,CULLMAN,CULLMAN REGIONAL MEDICAL CENTER,2567372000,CULLMAN,35058,Acute Care Hospitals,0.0
10018,Acute Care Hospitals,1720 UNIVERSITY BLVD,BIRMINGHAM,AL,35233,JEFFERSON,2053258100,CALLAHAN EYE FOUNDATION HOSPITAL,0.0
10010,Acute Care Hospitals,8000 ALABAMA HIGHWAY 69,GUNTERSVILLE,AL,MARSHALL,35976,2565718000,MARSHALL MEDICAL CENTER NORTH,0.0
10038,STRINGFELLOW MEMORIAL HOSPITAL,301 EAST 18TH ST,ANNISTON,AL,36201,CALHOUN,2562358900,Acute Care Hospitals,0.0
CULLMAN,CULLMAN REGIONAL MEDICAL CENTER,1912 ALABAMA HIGHWAY 157,2567372000,AL,35058,CULLMAN,10035,Acute Care Hospitals,0.0
10035,AL,1912 ALABAMA HIGHWAY 157,CULLMAN,Acute Care Hospitals,35058,CULLMAN,2567372000,CULLMAN REGIONAL MEDICAL CENTER,0.0
10010,MARSHALL MEDICAL CENTER NORTH,8000 ALABAMA HIGHWAY 69,MARSHALL,AL,35976,GUNTERSVILLE,2565718000,Acute Care Hospitals,0.0
35901,RIVERVIEW REGIONAL MEDICAL CENTER,Acute Care Hospitals,GADSDEN,AL,10046,ETOWAH,2565435200,600 SOUTH THIRD STREET,0.0
10008,AL,101 HOSPITAL CIRCLE,LUVERNE,CRENSHAW COMMUNITY HOSPITAL,36049,CRENSHAW,3343353374,Acute Care Hospitals,0.0
10038,STRINGFELLOW MEMORIAL HOSPITAL,301 EAST 18TH ST,ANNISTON,AL,36201,Acute Care Hospitals,2562358900,CALHOUN,0.0
10005,MARSHALL MEDICAL CENTER SOUTH,AL,BOAZ,2505 U S HIGHWAY 431 NORTH,MARSHALL,35957,2565938310,Acute Care Hospitals,0.0
DALE MEDICAL CENTER,10021,126 HOSPITAL AVE,OZARK,AL,36360,DALE,3347742601,Acute Care Hospitals,0.0
10033,UNIVERSITY OF ALABAMA HOSPITAL,619 SOUTH 19TH STREET,35233,AL,BIRMINGHAM,JEFFERSON,Acute Care Hospitals,2059344011,0.0
FAYETTE MEDICAL CENTER,FAYETTE,1653 TEMPLE AVENUE NORTH,FAYETTE,AL,35555,10045,2059325966,Acute Care Hospitals,0.0
FAYETTE,FAYETTE MEDICAL CENTER,Acute Care Hospitals,FAYETTE,AL,35555,10045,2059325966,1653 TEMPLE AVENUE NORTH,0.0
10044,MARION REGIONAL MEDICAL CENTER,AL,HAMILTON,MARION,35570,1256 MILITARY STREET SOUTH,2059216200,Acute Care Hospitals,0.0
35233,CALLAHAN EYE FOUNDATION HOSPITAL,1720 UNIVERSITY BLVD,BIRMINGHAM,AL,JEFFERSON,10018,2053258100,Acute Care Hospitals,0.0
1256 MILITARY STREET SOUTH,MARION REGIONAL MEDICAL CENTER,10044,HAMILTON,2059216200,35570,MARION,AL,Acute Care Hospitals,0.0
10050,ST VINCENTS BLOUNT,35121,BLOUNT,AL,150 GILBREATH DRIVE,ONEONTA,2052743000,Acute Care Hospitals,0.0
124 S MEMORIAL DR,10108,PRATTVILLE BAPTIST HOSPITAL,PRATTVILLE,AL,36067,AUTAUGA,3343614267,Acute Care Hospitals,0.0
2059344011,UNIVERSITY OF ALABAMA HOSPITAL,619 SOUTH 19TH STREET,BIRMINGHAM,AL,35233,JEFFERSON,Acute Care Hospitals,10033,0.0
10011,ST VINCENT'S EAST,50 MEDICAL PARK EAST DRIVE,BIRMINGHAM,AL,35235,JEFFERSON,2058383122,Acute Care Hospitals,0.0
10086,MARION,1530 U S HIGHWAY 43,Acute Care Hospitals,AL,35594,NORTHWEST MEDICAL CENTER,2054877736,WINFIELD,0.0
BIRMINGHAM,35233,1720 UNIVERSITY BLVD,10018,AL,CALLAHAN EYE FOUNDATION HOSPITAL,JEFFERSON,2053258100,Acute Care Hospitals,0.0
MEDICAL CENTER ENTERPRISE,3343470584,400 N EDWARDS STREET,ENTERPRISE,AL,36330,COFFEE,10049,Acute Care Hospitals,0.0
10046,RIVERVIEW REGIONAL MEDICAL CENTER,600 SOUTH THIRD STREET,GADSDEN,Acute Care Hospitals,35901,ETOWAH,2565435200,AL,0.0
10164,COOSA VALLEY MEDICAL CENTER,TALLADEGA,SYLACAUGA,AL,Acute Care Hospitals,315 W HICKORY ST,2562495000,35150,0.0
10033,35233,619 SOUTH 19TH STREET,BIRMINGHAM,AL,UNIVERSITY OF ALABAMA HOSPITAL,JEFFERSON,2059344011,Acute Care Hospitals,0.0
10018,35233,1720 UNIVERSITY BLVD,CALLAHAN EYE FOUNDATION HOSPITAL,AL,BIRMINGHAM,JEFFERSON,2053258100,Acute Care Hospitals,0.0
10036,ANDALUSIA REGIONAL HOSPITAL,849 SOUTH THREE NOTCH STREET,ANDALUSIA,AL,36420,COVINGTON,3342228466,Acute Care Hospitals,0.0
10038,STRINGFELLOW MEMORIAL HOSPITAL,301 EAST 18TH ST,ANNISTON,AL,CALHOUN,36201,Acute Care Hospitals,2562358900,0.0
10035,CULLMAN REGIONAL MEDICAL CENTER,1912 ALABAMA HIGHWAY 157,CULLMAN,AL,2567372000,35058,CULLMAN,Acute Care Hospitals,0.0
10021,DALE MEDICAL CENTER,126 HOSPITAL AVE,AL,OZARK,DALE,36360,3347742601,Acute Care Hospitals,0.0
10038,STRINGFELLOW MEMORIAL HOSPITAL,301 EAST 18TH ST,ANNISTON,CALHOUN,36201,AL,2562358900,Acute Care Hospitals,0.0
10032,WEDOWEE HOSPITAL,AL,WEDOWEE,209 NORTH MAIN STREET,Acute Care Hospitals,RANDOLPH,2563572111,36278,0.0
BETHEL,BETHEL,PO BOX 287,YUKON KUSKOKWIM DELTA REG HOSPITAL,AK,99559,20018,9075436300,Acute Care Hospitals,0.0
10027,ELBA GENERAL HOSPITAL,987 DRAYTON STREET,ELBA,AL,3348972257,COFFEE,Acute Care Hospitals,36323,0.0
10047,GEORGIANA HOSPITAL,515 MIRANDA ST,GEORGIANA,3343762205,Acute Care Hospitals,BUTLER,AL,36033,0.0
10016,SHELBY BAPTIST MEDICAL CENTER,1000 FIRST STREET NORTH,Acute Care Hospitals,AL,35007,SHELBY,2056208100,ALABASTER,0.0
10010,MARSHALL MEDICAL CENTER NORTH,8000 ALABAMA HIGHWAY 69,GUNTERSVILLE,Acute Care Hospitals,35976,MARSHALL,2565718000,AL,0.0
10047,GEORGIANA HOSPITAL,Acute Care Hospitals,GEORGIANA,AL,36033,3343762205,BUTLER,515 MIRANDA ST,0.0
10039,HUNTSVILLE HOSPITAL,35801,HUNTSVILLE,AL,2562651000,MADISON,101 SIVLEY RD,Acute Care Hospitals,0.0
2054877736,NORTHWEST MEDICAL CENTER,1530 U S HIGHWAY 43,WINFIELD,AL,35594,MARION,Acute Care Hospitals,10086,0.0
200 MED CENTER DRIVE,DEKALB REGIONAL MEDICAL CENTER,35968,FORT PAYNE,AL,10012,DE KALB,2568453150,Acute Care Hospitals,0.0
10047,GEORGIANA HOSPITAL,515 MIRANDA ST,GEORGIANA,Acute Care Hospitals,BUTLER,36033,3343762205,AL,0.0
10046,RIVERVIEW REGIONAL MEDICAL CENTER,600 SOUTH THIRD STREET,Acute Care Hospitals,35901,AL,ETOWAH,2565435200,GADSDEN,0.0
10032,209 NORTH MAIN STREET,2563572111,WEDOWEE,AL,36278,RANDOLPH,WEDOWEE HOSPITAL,Acute Care Hospitals,0.0
10049,MEDICAL CENTER ENTERPRISE,ENTERPRISE,3343470584,AL,36330,COFFEE,400 N EDWARDS STREET,Acute Care Hospitals,0.0
AL,BAPTIST MEDICAL CENTER SOUTH,10023,MONTGOMERY,2105 EAST SOUTH BOULEVARD,36116,MONTGOMERY,3342882100,Acute Care Hospitals,0.0
10016,SHELBY BAPTIST MEDICAL CENTER,1000 FIRST STREET NORTH,2056208100,AL,35007,Acute Care Hospitals,ALABASTER,SHELBY,0.0
10018,CALLAHAN EYE FOUNDATION HOSPITAL,1720 UNIVERSITY BLVD,BIRMINGHAM,35233,AL,JEFFERSON,2053258100,Acute Care Hospitals,0.0
SYLACAUGA,COOSA VALLEY MEDICAL CENTER,315 W HICKORY ST,Acute Care Hospitals,AL,35150,TALLADEGA,2562495000,10164,0.0
36078,TALLASSEE,805 FRIENDSHIP ROAD,COMMUNITY HOSPITAL INC,AL,10034,ELMORE,3342836541,Acute Care Hospitals,0.0
10001,36302,1108 ROSS CLARK CIRCLE,DOTHAN,AL,3347938701,HOUSTON,SOUTHEAST ALABAMA MEDICAL CENTER,Acute Care Hospitals,0.0
BLOUNT,10050,150 GILBREATH DRIVE,ONEONTA,AL,35121,ST VINCENTS BLOUNT,2052743000,Acute Care Hospitals,0.0
2565435200,RIVERVIEW REGIONAL MEDICAL CENTER,600 SOUTH THIRD STREET,GADSDEN,35901,AL,ETOWAH,10046,Acute Care Hospitals,0.0
10047,3343762205,515 MIRANDA ST,GEORGIANA,BUTLER,36033,AL,GEORGIANA HOSPITAL,Acute Care Hospitals,0.0
987 DRAYTON STREET,ELBA GENERAL HOSPITAL,10027,3348972257,AL,36323,COFFEE,ELBA,Acute Care Hospitals,0.0
10019,HELEN KELLER MEMORIAL HOSPITAL,1300 SOUTH MONTGOMERY AVENUE,SHEFFIELD,Acute Care Hospitals,JEFFERSON,35660,2563864556,AL,0.0
2565718000,MARSHALL MEDICAL CENTER NORTH,8000 ALABAMA HIGHWAY 69,MARSHALL,AL,35976,GUNTERSVILLE,10010,Acute Care Hospitals,0.0
10019,35660,1300 SOUTH MONTGOMERY AVENUE,SHEFFIELD,2563864556,HELEN KELLER MEMORIAL HOSPITAL,JEFFERSON,AL,Acute Care Hospitals,0.0
35631,2567688400,205 MARENGO STREET,FLORENCE,AL,10006,LAUDERDALE,ELIZA COFFEE MEMORIAL HOSPITAL,Acute Care Hospitals,0.0
10044,MARION REGIONAL MEDICAL CENTER,1256 MILITARY STREET SOUTH,Acute Care Hospitals,AL,35570,MARION,2059216200,HAMILTON,0.0
AL,JACKSON HOSPITAL & CLINIC INC,1725 PINE STREET,MONTGOMERY,10024,36106,MONTGOMERY,3342938000,Acute Care Hospitals,0.0
35801,HUNTSVILLE HOSPITAL,101 SIVLEY RD,HUNTSVILLE,2562651000,10039,MADISON,AL,Acute Care Hospitals,0.0
10034,805 FRIENDSHIP ROAD,COMMUNITY HOSPITAL INC,TALLASSEE,Acute Care Hospitals,36078,ELMORE,3342836541,AL,0.0
10019,Acute Care Hospitals,1300 SOUTH MONTGOMERY AVENUE,SHEFFIELD,AL,JEFFERSON,35660,2563864556,HELEN KELLER MEMORIAL HOSPITAL,0.0
10033,UNIVERSITY OF ALABAMA HOSPITAL,619 SOUTH 19TH STREET,JEFFERSON,AL,35233,2059344011,BIRMINGHAM,Acute Care Hospitals,0.0
10015,SOUTHWEST ALABAMA MEDICAL CENTER,33700 HIGHWAY 43,THOMASVILLE,3346366221,Acute Care Hospitals,CLARKE,AL,36784,0.0
10034,805 FRIENDSHIP ROAD,COMMUNITY HOSPITAL INC,TALLASSEE,AL,36078,ELMORE,3342836541,Acute Care Hospitals,0.0
AK,99508,2801 DEBARR ROAD,ANCHORAGE,20017,ALASKA REGIONAL HOSPITAL,ANCHORAGE,9072761131,Acute Care Hospitals,0.0
10032,36278,209 NORTH MAIN STREET,Acute Care Hospitals,AL,WEDOWEE HOSPITAL,RANDOLPH,2563572111,WEDOWEE,0.0
Acute Care Hospitals,ELBA GENERAL HOSPITAL,987 DRAYTON STREET,ELBA,AL,36323,COFFEE,3348972257,10027,0.0
FLORENCE,ELIZA COFFEE MEMORIAL HOSPITAL,2567688400,10006,AL,35631,LAUDERDALE,205 MARENGO STREET,Acute Care Hospitals,0.0
CLANTON,CHILTON MEDICAL CENTER,1010 LAY DAM ROAD,35045,AL,10043,CHILTON,2057552500,Acute Care Hospitals,0.0
10016,2056208100,ALABASTER,1000 FIRST STREET NORTH,AL,35007,SHELBY,SHELBY BAPTIST MEDICAL CENTER,Acute Care Hospitals,0.0
10039,HUNTSVILLE HOSPITAL,AL,HUNTSVILLE,101 SIVLEY RD,35801,MADISON,2562651000,Acute Care Hospitals,0.0
10049,MEDICAL CENTER ENTERPRISE,AL,ENTERPRISE,36330,400 N EDWARDS STREET,COFFEE,3343470584,Acute Care Hospitals,0.0
10049,MEDICAL CENTER ENTERPRISE,Acute Care Hospitals,ENTERPRISE,AL,3343470584,COFFEE,36330,400 N EDWARDS STREET,0.0
10012,DE KALB,DEKALB REGIONAL MEDICAL CENTER,FORT PAYNE,AL,35968,200 MED CENTER DRIVE,2568453150,Acute Care Hospitals,0.0
10032,WEDOWEE HOSPITAL,209 NORTH MAIN STREET,WEDOWEE,AL,36278,Acute Care Hospitals,2563572111,RANDOLPH,0.0
AL,ST VINCENTS BLOUNT,150 GILBREATH DRIVE,ONEONTA,2052743000,35121,BLOUNT,10050,Acute Care Hospitals,0.0
10108,AUTAUGA,124 S MEMORIAL DR,Acute Care Hospitals,AL,36067,PRATTVILLE BAPTIST HOSPITAL,3343614267,PRATTVILLE,0.0
3342836541,COMMUNITY HOSPITAL INC,805 FRIENDSHIP ROAD,TALLASSEE,AL,36078,ELMORE,Acute Care Hospitals,10034,0.0
10033,UNIVERSITY OF ALABAMA HOSPITAL,619 SOUTH 19TH STREET,BIRMINGHAM,2059344011,35233,JEFFERSON,AL,Acute Care Hospitals,0.0
10001,1108 ROSS CLARK CIRCLE,SOUTHEAST ALABAMA MEDICAL CENTER,DOTHAN,AL,36302,HOUSTON,3347938701,Acute Care Hospitals,0.0
10036,ANDALUSIA REGIONAL HOSPITAL,ANDALUSIA,36420,AL,849 SOUTH THREE NOTCH STREET,COVINGTON,3342228466,Acute Care Hospitals,0.0
10034,3342836541,Acute Care Hospitals,TALLASSEE,AL,36078,ELMORE,COMMUNITY HOSPITAL INC,805 FRIENDSHIP ROAD,0.0
2568453150,AL,200 MED CENTER DRIVE,FORT PAYNE,DEKALB REGIONAL MEDICAL CENTER,35968,DE KALB,10012,Acute Care Hospitals,0.0
35594,NORTHWEST MEDICAL CENTER,1530 U S HIGHWAY 43,WINFIELD,AL,10086,MARION,2054877736,Acute Care Hospitals,0.0
10034,AL,805 FRIENDSHIP ROAD,TALLASSEE,3342836541,36078,ELMORE,COMMUNITY HOSPITAL INC,Acute Care Hospitals,0.0
10055,FLOWERS HOSPITAL,4370 WEST MAIN STREET,Acute Care Hospitals,3347935000,36305,HOUSTON,AL,DOTHAN,0.0
DOTHAN,SOUTHEAST ALABAMA MEDICAL CENTER,1108 ROSS CLARK CIRCLE,10001,AL,HOUSTON,36302,3347938701,Acute Care Hospitals,0.0
ETOWAH,35903,1007 GOODYEAR AVENUE,GADSDEN,AL,GADSDEN REGIONAL MEDICAL CENTER,10040,2564944000,Acute Care Hospitals,0.0
ELIZA COFFEE MEMORIAL HOSPITAL,AL,205 MARENGO STREET,FLORENCE,10006,35631,LAUDERDALE,2567688400,Acute Care Hospitals,0.0
10046,ETOWAH,600 SOUTH THIRD STREET,2565435200,AL,35901,RIVERVIEW REGIONAL MEDICAL CENTER,GADSDEN,Acute Care Hospitals,0.0
10005,35957,AL,BOAZ,2505 U S HIGHWAY 431 NORTH,MARSHALL MEDICAL CENTER SOUTH,MARSHALL,2565938310,Acute Care Hospitals,0.0
10034,Acute Care Hospitals,805 FRIENDSHIP ROAD,36078,AL,TALLASSEE,ELMORE,3342836541,COMMUNITY HOSPITAL INC,0.0
10044,1256 MILITARY STREET SOUTH,MARION REGIONAL MEDICAL CENTER,HAMILTON,AL,Acute Care Hospitals,MARION,2059216200,35570,0.0
1530 U S HIGHWAY 43,NORTHWEST MEDICAL CENTER,10086,WINFIELD,AL,2054877736,MARION,35594,Acute Care Hospitals,0.0
10023,2105 EAST SOUTH BOULEVARD,AL,MONTGOMERY,BAPTIST MEDICAL CENTER SOUTH,36116,MONTGOMERY,3342882100,Acute Care Hospitals,0.0
10006,ELIZA COFFEE MEMORIAL HOSPITAL,FLORENCE,205 MARENGO STREET,2567688400,35631,LAUDERDALE,AL,Acute Care Hospitals,0.0
FLORENCE,ELIZA COFFEE MEMORIAL HOSPITAL,205 MARENGO STREET,LAUDERDALE,AL,35631,10006,2567688400,Acute Care Hospitals,0.0
10086,WINFIELD,1530 U S HIGHWAY 43,NORTHWEST MEDICAL CENTER,AL,2054877736,MARION,35594,Acute Care Hospitals,0.0
10038,301 EAST 18TH ST,STRINGFELLOW MEMORIAL HOSPITAL,ANNISTON,AL,36201,CALHOUN,2562358900,Acute Care Hospitals,0.0
10019,HELEN KELLER MEMORIAL HOSPITAL,1300 SOUTH MONTGOMERY AVENUE,SHEFFIELD,35660,AL,JEFFERSON,Acute Care Hospitals,2563864556,0.0
10012,DEKALB REGIONAL MEDICAL CENTER,Acute Care Hospitals,FORT PAYNE,AL,35968,DE KALB,2568453150,200 MED CENTER DRIVE,0.0
10029,EAST ALABAMA MEDICAL CENTER AND SNF,2000 PEPPERELL PARKWAY,OPELIKA,Acute Care Hospitals,36801,LEE,AL,3347493411,0.0
JEFFERSON,UNIVERSITY OF ALABAMA HOSPITAL,619 SOUTH 19TH STREET,10033,AL,35233,BIRMINGHAM,2059344011,Acute Care Hospitals,0.0
10032,WEDOWEE HOSPITAL,RANDOLPH,WEDOWEE,AL,36278,Acute Care Hospitals,2563572111,209 NORTH MAIN STREET,0.0
35631,ELIZA COFFEE MEMORIAL HOSPITAL,2567688400,FLORENCE,AL,10006,LAUDERDALE,205 MARENGO STREET,Acute Care Hospitals,0.0
2059344011,JEFFERSON,619 SOUTH 19TH STREET,BIRMINGHAM,AL,35233,UNIVERSITY OF ALABAMA HOSPITAL,10033,Acute Care Hospitals,0.0
20018,BETHEL,PO BOX 287,YUKON KUSKOKWIM DELTA REG HOSPITAL,AK,99559,BETHEL,9075436300,Acute Care Hospitals,0.0
10055,FLOWERS HOSPITAL,3347935000,DOTHAN,AL,4370 WEST MAIN STREET,HOUSTON,36305,Acute Care Hospitals,0.0
Acute Care Hospitals,OZARK,126 HOSPITAL AVE,DALE MEDICAL CENTER,AL,36360,DALE,3347742601,10021,0.0
10045,Acute Care Hospitals,FAYETTE MEDICAL CENTER,FAYETTE,AL,35555,FAYETTE,2059325966,1653 TEMPLE AVENUE NORTH,0.0
10012,DEKALB REGIONAL MEDICAL CENTER,200 MED CENTER DRIVE,35968,AL,2568453150,DE KALB,FORT PAYNE,Acute Care Hospitals,0.0
Acute Care Hospitals,COFFEE,400 N EDWARDS STREET,ENTERPRISE,AL,36330,MEDICAL CENTER ENTERPRISE,3343470584,10049,0.0
10010,MARSHALL MEDICAL CENTER NORTH,35976,Acute Care Hospitals,AL,8000 ALABAMA HIGHWAY 69,MARSHALL,2565718000,GUNTERSVILLE,0.0
10038,STRINGFELLOW MEMORIAL HOSPITAL,301 EAST 18TH ST,Acute Care Hospitals,AL,36201,ANNISTON,2562358900,CALHOUN,0.0
10005,MARSHALL MEDICAL CENTER SOUTH,BOAZ,35957,AL,2505 U S HIGHWAY 431 NORTH,MARSHALL,2565938310,Acute Care Hospitals,0.0
10018,CALLAHAN EYE FOUNDATION HOSPITAL,2053258100,BIRMINGHAM,AL,35233,JEFFERSON,Acute Care Hospitals,1720 UNIVERSITY BLVD,0.0
99508,ALASKA REGIONAL HOSPITAL,2801 DEBARR ROAD,AK,ANCHORAGE,20017,ANCHORAGE,9072761131,Acute Care Hospitals,0.0
10044,MARION REGIONAL MEDICAL CENTER,1256 MILITARY STREET SOUTH,HAMILTON,Acute Care Hospitals,AL,MARION,2059216200,35570,0.0
10008,CRENSHAW COMMUNITY HOSPITAL,101 HOSPITAL CIRCLE,LUVERNE,AL,36049,CRENSHAW,3343353374,Acute Care Hospitals,0.0
10047,GEORGIANA HOSPITAL,515 MIRANDA ST,BUTLER,36033,AL,GEORGIANA,3343762205,Acute Care Hospitals,0.0
10019,HELEN KELLER MEMORIAL HOSPITAL,1300 SOUTH MONTGOMERY AVENUE,SHEFFIELD,JEFFERSON,35660,AL,2563864556,Acute Care Hospitals,0.0
10019,Acute Care Hospitals,1300 SOUTH MONTGOMERY AVENUE,SHEFFIELD,AL,35660,HELEN KELLER MEMORIAL HOSPITAL,2563864556,JEFFERSON,0.0
10040,GADSDEN REGIONAL MEDICAL CENTER,1007 GOODYEAR AVENUE,AL,GADSDEN,35903,2564944000,ETOWAH,Acute Care Hospitals,0.0
3344933541,Acute Care Hospitals,702 N MAIN ST,OPP,AL,36467,COVINGTON,10007,MIZELL MEMORIAL HOSPITAL,0.0
10010,8000 ALABAMA HIGHWAY 69,MARSHALL MEDICAL CENTER NORTH,GUNTERSVILLE,AL,35976,MARSHALL,Acute Care Hospitals,2565718000,0.0
20017,ALASKA REGIONAL HOSPITAL,2801 DEBARR ROAD,ANCHORAGE,AK,9072761131,ANCHORAGE,99508,Acute Care Hospitals,0.0
702 N MAIN ST,OPP,10007,MIZELL MEMORIAL HOSPITAL,AL,36467,COVINGTON,3344933541,Acute Care Hospitals,0.0
10021,Acute Care Hospitals,126 HOSPITAL AVE,OZARK,AL,36360,DALE,3347742601,DALE MEDICAL CENTER,0.0
10029,EAST ALABAMA MEDICAL CENTER AND SNF,2000 PEPPERELL PARKWAY,OPELIKA,AL,LEE,36801,3347493411,Acute Care Hospitals,0.0
10164,COOSA VALLEY MEDICAL CENTER,AL,SYLACAUGA,315 W HICKORY ST,35150,TALLADEGA,2562495000,Acute Care Hospitals,0.0
10050,ST VINCENTS BLOUNT,2052743000,150 GILBREATH DRIVE,AL,35121,BLOUNT,ONEONTA,Acute Care Hospitals,0.0
10027,ELBA GENERAL HOSPITAL,987 DRAYTON STREET,ELBA,AL,36323,COFFEE,3348972257,Acute Care Hospitals,0.0
CHEROKEE,CHEROKEE MEDICAL CENTER,35960,CENTRE,AL,400 NORTHWOOD DR,10022,2569275531,Acute Care Hospitals,0.0
10001,SOUTHEAST ALABAMA MEDICAL CENTER,36302,DOTHAN,AL,1108 ROSS CLARK CIRCLE,HOUSTON,3347938701,Acute Care Hospitals,0.0
OPP,MIZELL MEMORIAL HOSPITAL,702 N MAIN ST,10007,AL,Acute Care Hospitals,COVINGTON,3344933541,36467,0.0
10011,ST VINCENT'S EAST,50 MEDICAL PARK EAST DRIVE,BIRMINGHAM,Acute Care Hospitals,35235,AL,2058383122,JEFFERSON,0.0
10055,FLOWERS HOSPITAL,36305,DOTHAN,AL,HOUSTON,4370 WEST MAIN STREET,3347935000,Acute Care Hospitals,0.0
10047,GEORGIANA HOSPITAL,515 MIRANDA ST,AL,GEORGIANA,36033,BUTLER,3343762205,Acute Care Hospitals,0.0
10044,1256 MILITARY STREET SOUTH,35570,HAMILTON,AL,MARION REGIONAL MEDICAL CENTER,MARION,2059216200,Acute Care Hospitals,0.0
10056,ST VINCENTS HOSPITAL,810 ST VINCENTS DRIVE,AL,JEFFERSON,35205,BIRMINGHAM,2059397000,Acute Care Hospitals,0.0
10039,101 SIVLEY RD,HUNTSVILLE HOSPITAL,Acute Care Hospitals,AL,35801,MADISON,2562651000,HUNTSVILLE,0.0
10045,FAYETTE,1653 TEMPLE AVENUE NORTH,FAYETTE,AL,35555,FAYETTE MEDICAL CENTER,2059325966,Acute Care Hospitals,0.0
10010,MARSHALL MEDICAL CENTER NORTH,Acute Care Hospitals,GUNTERSVILLE,35976,AL,MARSHALL,2565718000,8000 ALABAMA HIGHWAY 69,0.0
20017,AK,2801 DEBARR ROAD,ANCHORAGE,ALASKA REGIONAL HOSPITAL,99508,ANCHORAGE,Acute Care Hospitals,9072761131,0.0
10034,COMMUNITY HOSPITAL INC,TALLASSEE,805 FRIENDSHIP ROAD,AL,3342836541,ELMORE,36078,Acute Care Hospitals,0.0
10047,GEORGIANA HOSPITAL,AL,GEORGIANA,515 MIRANDA ST,36033,3343762205,BUTLER,Acute Care Hospitals,0.0
10086,NORTHWEST MEDICAL CENTER,1530 U S HIGHWAY 43,2054877736,AL,35594,MARION,WINFIELD,Acute Care Hospitals,0.0
10009,HARTSELLE MEDICAL CENTER,201 PINE STREET NORTHWEST,HARTSELLE,AL,2567736511,MORGAN,Acute Care Hospitals,35640,0.0
1653 TEMPLE AVENUE NORTH,FAYETTE MEDICAL CENTER,FAYETTE,FAYETTE,AL,35555,10045,2059325966,Acute Care Hospitals,0.0
10024,JACKSON HOSPITAL & CLINIC INC,1725 PINE STREET,MONTGOMERY,AL,36106,MONTGOMERY,3342938000,Acute Care Hospitals,0.0
10038,ANNISTON,301 EAST 18TH ST,2562358900,AL,36201,CALHOUN,STRINGFELLOW MEMORIAL HOSPITAL,Acute Care Hospitals,0.0
10043,1010 LAY DAM ROAD,CHILTON MEDICAL CENTER,CLANTON,35045,AL,CHILTON,2057552500,Acute Care Hospitals,0.0
10036,ANDALUSIA REGIONAL HOSPITAL,849 SOUTH THREE NOTCH STREET,COVINGTON,AL,36420,ANDALUSIA,3342228466,Acute Care Hospitals,0.0
10108,PRATTVILLE BAPTIST HOSPITAL,124 S MEMORIAL DR,3343614267,AL,PRATTVILLE,AUTAUGA,36067,Acute Care Hospitals,0.0
10038,STRINGFELLOW MEMORIAL HOSPITAL,ANNISTON,301 EAST 18TH ST,AL,Acute Care Hospitals,CALHOUN,2562358900,36201,0.0
10012,DEKALB REGIONAL MEDICAL CENTER,AL,Acute Care Hospitals,200 MED CENTER DRIVE,35968,DE KALB,2568453150,FORT PAYNE,0.0
ELBA GENERAL HOSPITAL,10027,987 DRAYTON STREET,3348972257,AL,36323,COFFEE,ELBA,Acute Care Hospitals,0.0
10027,ELBA GENERAL HOSPITAL,987 DRAYTON STREET,ELBA,Acute Care Hospitals,36323,COFFEE,3348972257,AL,0.0
Acute Care Hospitals,GEORGIANA HOSPITAL,515 MIRANDA ST,GEORGIANA,10047,36033,BUTLER,3343762205,AL,0.0
AL,HARTSELLE MEDICAL CENTER,201 PINE STREET NORTHWEST,HARTSELLE,10009,MORGAN,35640,2567736511,Acute Care Hospitals,0.0
10016,1000 FIRST STREET NORTH,SHELBY,ALABASTER,AL,35007,SHELBY BAPTIST MEDICAL CENTER,2056208100,Acute Care Hospitals,0.0
10023,BAPTIST MEDICAL CENTER SOUTH,2105 EAST SOUTH BOULEVARD,Acute Care Hospitals,AL,36116,MONTGOMERY,MONTGOMERY,3342882100,0.0
CHEROKEE MEDICAL CENTER,10022,400 NORTHWOOD DR,CENTRE,AL,35960,Acute Care Hospitals,2569275531,CHEROKEE,0.0
10035,CULLMAN REGIONAL MEDICAL CENTER,Acute Care Hospitals,2567372000,AL,35058,CULLMAN,CULLMAN,1912 ALABAMA HIGHWAY 157,0.0
BLOUNT,10050,150 GILBREATH DRIVE,ONEONTA,AL,35121,ST VINCENTS BLOUNT,2052743000,Acute Care Hospitals,0.0
36801,EAST ALABAMA MEDICAL CENTER AND SNF,2000 PEPPERELL PARKWAY,OPELIKA,AL,10029,LEE,3347493411,Acute Care Hospitals,0.0
3347561400,G H LANIER MEMORIAL HOSPITAL,Acute Care Hospitals,VALLEY,AL,36854,CHAMBERS,10025,4800 48TH ST,0.0
SHELBY,2056208100,1000 FIRST STREET NORTH,ALABASTER,AL,35007,10016,SHELBY BAPTIST MEDICAL CENTER,Acute Care Hospitals,0.0
MONTGOMERY,BAPTIST MEDICAL CENTER SOUTH,2105 EAST SOUTH BOULEVARD,3342882100,AL,36116,MONTGOMERY,10023,Acute Care Hospitals,0.0
10040,ETOWAH,1007 GOODYEAR AVENUE,GADSDEN,AL,Acute Care Hospitals,GADSDEN REGIONAL MEDICAL CENTER,2564944000,35903,0.0
Acute Care Hospitals,AL,101 SIVLEY RD,HUNTSVILLE,HUNTSVILLE HOSPITAL,35801,MADISON,2562651000,10039,0.0
10108,PRATTVILLE BAPTIST HOSPITAL,3343614267,PRATTVILLE,AL,36067,AUTAUGA,124 S MEMORIAL DR,Acute Care Hospitals,0.0
10034,COMMUNITY HOSPITAL INC,805 FRIENDSHIP ROAD,TALLASSEE,3342836541,36078,ELMORE,AL,Acute Care Hospitals,0.0
10027,ELBA GENERAL HOSPITAL,987 DRAYTON STREET,36323,AL,ELBA,COFFEE,3348972257,Acute Care Hospitals,0.0
10029,EAST ALABAMA MEDICAL CENTER AND SNF,Acute Care Hospitals,OPELIKA,AL,2000 PEPPERELL PARKWAY,LEE,3347493411,36801,0.0
987 DRAYTON STREET,ELBA GENERAL HOSPITAL,10027,ELBA,Acute Care Hospitals,36323,COFFEE,3348972257,AL,0.0
10006,ELIZA COFFEE MEMORIAL HOSPITAL,FLORENCE,205 MARENGO STREET,AL,35631,LAUDERDALE,2567688400,Acute Care Hospitals,0.0
AL,SOUTHEAST ALABAMA MEDICAL CENTER,1108 ROSS CLARK CIRCLE,3347938701,10001,36302,HOUSTON,DOTHAN,Acute Care Hospitals,0.0
10011,AL,50 MEDICAL PARK EAST DRIVE,35235,ST VINCENT'S EAST,BIRMINGHAM,JEFFERSON,2058383122,Acute Care Hospitals,0.0
35903,GADSDEN REGIONAL MEDICAL CENTER,1007 GOODYEAR AVENUE,GADSDEN,AL,10040,ETOWAH,2564944000,Acute Care Hospitals,0.0
Acute Care Hospitals,ANDALUSIA REGIONAL HOSPITAL,849 SOUTH THREE NOTCH STREET,ANDALUSIA,COVINGTON,36420,AL,3342228466,10036,0.0
10033,UNIVERSITY OF ALABAMA HOSPITAL,AL,Acute Care Hospitals,619 SOUTH 19TH STREET,35233,JEFFERSON,2059344011,BIRMINGHAM,0.0
10007,MIZELL MEMORIAL HOSPITAL,702 N MAIN ST,36467,AL,Acute Care Hospitals,COVINGTON,3344933541,OPP,0.0
10039,HUNTSVILLE HOSPITAL,HUNTSVILLE,101 SIVLEY RD,AL,35801,MADISON,2562651000,Acute Care Hospitals,0.0
10035,CULLMAN,1912 ALABAMA HIGHWAY 157,CULLMAN REGIONAL MEDICAL CENTER,AL,35058,CULLMAN,2567372000,Acute Care Hospitals,0.0
10043,Acute Care Hospitals,2057552500,CLANTON,AL,35045,CHILTON,1010 LAY DAM ROAD,CHILTON MEDICAL CENTER,0.0
BAPTIST MEDICAL CENTER SOUTH,10023,2105 EAST SOUTH BOULEVARD,MONTGOMERY,AL,36116,MONTGOMERY,3342882100,Acute Care Hospitals,0.0
10045,35555,1653 TEMPLE AVENUE NORTH,FAYETTE,AL,FAYETTE MEDICAL CENTER,Acute Care Hospitals,2059325966,FAYETTE,0.0
ELMORE,805 FRIENDSHIP ROAD,COMMUNITY HOSPITAL INC,TALLASSEE,AL,36078,10034,3342836541,Acute Care Hospitals,0.0
OPP,MIZELL MEMORIAL HOSPITAL,702 N MAIN ST,10007,36467,AL,COVINGTON,3344933541,Acute Care Hospitals,0.0
10040,GADSDEN REGIONAL MEDICAL CENTER,35903,ETOWAH,AL,1007 GOODYEAR AVENUE,GADSDEN,2564944000,Acute Care Hospitals,0.0
10025,G H LANIER MEMORIAL HOSPITAL,4800 48TH ST,AL,VALLEY,36854,3347561400,CHAMBERS,Acute Care Hospitals,0.0
10022,35960,400 NORTHWOOD DR,CENTRE,AL,CHEROKEE MEDICAL CENTER,CHEROKEE,2569275531,Acute Care Hospitals,0.0
10047,BUTLER,515 MIRANDA ST,GEORGIANA,Acute Care Hospitals,36033,GEORGIANA HOSPITAL,3343762205,AL,0.0
AL,Acute Care Hospitals,987 DRAYTON STREET,ELBA,10027,36323,COFFEE,3348972257,ELBA GENERAL HOSPITAL,0.0
10009,HARTSELLE,201 PINE STREET NORTHWEST,HARTSELLE MEDICAL CENTER,AL,35640,MORGAN,2567736511,Acute Care Hospitals,0.0
10029,EAST ALABAMA MEDICAL CENTER AND SNF,Acute Care Hospitals,LEE,AL,36801,OPELIKA,3347493411,2000 PEPPERELL PARKWAY,0.0
10012,DEKALB REGIONAL MEDICAL CENTER,200 MED CENTER DRIVE,FORT PAYNE,AL,Acute Care Hospitals,DE KALB,2568453150,35968,0.0
10011,ST VINCENT'S EAST,50 MEDICAL PARK EAST DRIVE,BIRMINGHAM,AL,JEFFERSON,35235,Acute Care Hospitals,2058383122,0.0
315 W HICKORY ST,COOSA VALLEY MEDICAL CENTER,10164,SYLACAUGA,AL,Acute Care Hospitals,TALLADEGA,2562495000,35150,0.0
35007,SHELBY BAPTIST MEDICAL CENTER,1000 FIRST STREET NORTH,ALABASTER,AL,2056208100,SHELBY,10016,Acute Care Hospitals,0.0
10019,HELEN KELLER MEMORIAL HOSPITAL,1300 SOUTH MONTGOMERY AVENUE,SHEFFIELD,AL,35660,JEFFERSON,2563864556,Acute Care Hospitals,0.0
SYLACAUGA,COOSA VALLEY MEDICAL CENTER,315 W HICKORY ST,10164,AL,35150,TALLADEGA,2562495000,Acute Care Hospitals,0.0
10040,Acute Care Hospitals,1007 GOODYEAR AVENUE,GADSDEN,AL,ETOWAH,35903,2564944000,GADSDEN REGIONAL MEDICAL CENTER,0.0
10021,DALE,126 HOSPITAL AVE,OZARK,Acute Care Hospitals,36360,DALE MEDICAL CENTER,3347742601,AL,0.0
10035,AL,35058,CULLMAN,CULLMAN REGIONAL MEDICAL CENTER,1912 ALABAMA HIGHWAY 157,CULLMAN,2567372000,Acute Care Hospitals,0.0
10164,COOSA VALLEY MEDICAL CENTER,315 W HICKORY ST,SYLACAUGA,2562495000,AL,TALLADEGA,35150,Acute Care Hospitals,0.0
10043,Acute Care Hospitals,1010 LAY DAM ROAD,AL,CLANTON,35045,CHILTON,2057552500,CHILTON MEDICAL CENTER,0.0
10036,Acute Care Hospitals,849 SOUTH THREE NOTCH STREET,ANDALUSIA,AL,36420,COVINGTON,3342228466,ANDALUSIA REGIONAL HOSPITAL,0.0
10044,MARION REGIONAL MEDICAL CENTER,1256 MILITARY STREET SOUTH,Acute Care Hospitals,AL,35570,MARION,2059216200,HAMILTON,0.0
10005,AL,2505 U S HIGHWAY 431 NORTH,BOAZ,MARSHALL MEDICAL CENTER SOUTH,2565938310,MARSHALL,35957,Acute Care Hospitals,0.0
10011,50 MEDICAL PARK EAST DRIVE,JEFFERSON,BIRMINGHAM,AL,35235,ST VINCENT'S EAST,2058383122,Acute Care Hospitals,0.0
AL,STRINGFELLOW MEMORIAL HOSPITAL,301 EAST 18TH ST,36201,10038,ANNISTON,CALHOUN,2562358900,Acute Care Hospitals,0.0
MONTGOMERY,BAPTIST MEDICAL CENTER SOUTH,2105 EAST SOUTH BOULEVARD,10023,MONTGOMERY,36116,AL,3342882100,Acute Care Hospitals,0.0
BUTLER,10047,515 MIRANDA ST,GEORGIANA,AL,36033,GEORGIANA HOSPITAL,3343762205,Acute Care Hospitals,0.0
AL,ANDALUSIA REGIONAL HOSPITAL,849 SOUTH THREE NOTCH STREET,ANDALUSIA,COVINGTON,36420,10036,3342228466,Acute Care Hospitals,0.0
10044,MARION REGIONAL MEDICAL CENTER,35570,HAMILTON,AL,MARION,1256 MILITARY STREET SOUTH,2059216200,Acute Care Hospitals,0.0
10023,BAPTIST MEDICAL CENTER SOUTH,2105 EAST SOUTH BOULEVARD,MONTGOMERY,MONTGOMERY,3342882100,AL,36116,Acute Care Hospitals,0.0
10018,1720 UNIVERSITY BLVD,35233,BIRMINGHAM,AL,CALLAHAN EYE FOUNDATION HOSPITAL,JEFFERSON,2053258100,Acute Care Hospitals,0.0
2514717110,UNIV OF SOUTH ALABAMA MEDICAL CENTER,MOBILE,2451 FILLINGIM STREET,AL,36617,MOBILE,10087,Acute Care Hospitals,0.0
BIRMINGHAM,ST VINCENT'S EAST,50 MEDICAL PARK EAST DRIVE,Acute Care Hospitals,AL,35235,JEFFERSON,2058383122,10011,0.0
10055,Acute Care Hospitals,4370 WEST MAIN STREET,DOTHAN,3347935000,36305,HOUSTON,AL,FLOWERS HOSPITAL,0.0
10043,35045,1010 LAY DAM ROAD,CLANTON,AL,2057552500,CHILTON,CHILTON MEDICAL CENTER,Acute Care Hospitals,0.0
10043,CHILTON MEDICAL CENTER,1010 LAY DAM ROAD,2057552500,Acute Care Hospitals,35045,CHILTON,CLANTON,AL,0.0
10019,1300 SOUTH MONTGOMERY AVENUE,HELEN KELLER MEMORIAL HOSPITAL,Acute Care Hospitals,AL,35660,JEFFERSON,2563864556,SHEFFIELD,0.0
36201,STRINGFELLOW MEMORIAL HOSPITAL,301 EAST 18TH ST,ANNISTON,Acute Care Hospitals,10038,CALHOUN,2562358900,AL,0.0
HUNTSVILLE HOSPITAL,10039,101 SIVLEY RD,AL,HUNTSVILLE,35801,MADISON,2562651000,Acute Care Hospitals,0.0
10021,DALE MEDICAL CENTER,126 HOSPITAL AVE,OZARK,AL,DALE,36360,3347742601,Acute Care Hospitals,0.0
10007,MIZELL MEMORIAL HOSPITAL,COVINGTON,OPP,702 N MAIN ST,36467,AL,3344933541,Acute Care Hospitals,0.0
10043,CHILTON MEDICAL CENTER,1010 LAY DAM ROAD,CHILTON,Acute Care Hospitals,35045,CLANTON,2057552500,AL,0.0
10025,G H LANIER MEMORIAL HOSPITAL,36854,VALLEY,AL,Acute Care Hospitals,CHAMBERS,3347561400,4800 48TH ST,0.0
FAYETTE MEDICAL CENTER,10045,35555,FAYETTE,AL,1653 TEMPLE AVENUE NORTH,FAYETTE,2059325966,Acute Care Hospitals,0.0
NORTHWEST MEDICAL CENTER,10086,1530 U S HIGHWAY 43,WINFIELD,AL,35594,Acute Care Hospitals,2054877736,MARION,0.0
10085,DECATUR GENERAL HOSPITAL,AL,DECATUR,Acute Care Hospitals,35609,MORGAN,2563412000,1201 7TH STREET SE,0.0
10046,AL,600 SOUTH THIRD STREET,GADSDEN,RIVERVIEW REGIONAL MEDICAL CENTER,35901,ETOWAH,2565435200,Acute Care Hospitals,0.0
10011,ST VINCENT'S EAST,JEFFERSON,BIRMINGHAM,AL,35235,50 MEDICAL PARK EAST DRIVE,Acute Care Hospitals,2058383122,0.0
35058,CULLMAN REGIONAL MEDICAL CENTER,1912 ALABAMA HIGHWAY 157,CULLMAN,AL,10035,CULLMAN,2567372000,Acute Care Hospitals,0.0
10049,MEDICAL CENTER ENTERPRISE,400 N EDWARDS STREET,Acute Care Hospitals,AL,36330,3343470584,COFFEE,ENTERPRISE,0.0
10038,STRINGFELLOW MEMORIAL HOSPITAL,36201,ANNISTON,AL,301 EAST 18TH ST,CALHOUN,2562358900,Acute Care Hospitals,0.0
10012,DEKALB REGIONAL MEDICAL CENTER,200 MED CENTER DRIVE,FORT PAYNE,2568453150,AL,DE KALB,35968,Acute Care Hospitals,0.0
10016,SHELBY BAPTIST MEDICAL CENTER,1000 FIRST STREET NORTH,ALABASTER,35007,AL,SHELBY,2056208100,Acute Care Hospitals,0.0
10024,Acute Care Hospitals,MONTGOMERY,1725 PINE STREET,AL,36106,MONTGOMERY,3342938000,JACKSON HOSPITAL & CLINIC INC,0.0
3343762205,GEORGIANA HOSPITAL,36033,GEORGIANA,AL,515 MIRANDA ST,BUTLER,10047,Acute Care Hospitals,0.0
10035,CULLMAN,AL,CULLMAN,1912 ALABAMA HIGHWAY 157,35058,CULLMAN REGIONAL MEDICAL CENTER,2567372000,Acute Care Hospitals,0.0
AL,PRATTVILLE BAPTIST HOSPITAL,124 S MEMORIAL DR,PRATTVILLE,10108,Acute Care Hospitals,AUTAUGA,3343614267,36067,0.0
10009,MORGAN,201 PINE STREET NORTHWEST,HARTSELLE,AL,35640,2567736511,HARTSELLE MEDICAL CENTER,Acute Care Hospitals,0.0
3342836541,COMMUNITY HOSPITAL INC,805 FRIENDSHIP ROAD,TALLASSEE,AL,36078,Acute Care Hospitals,10034,ELMORE,0.0
10015,SOUTHWEST ALABAMA MEDICAL CENTER,AL,33700 HIGHWAY 43,THOMASVILLE,36784,CLARKE,3346366221,Acute Care Hospitals,0.0
10025,G H LANIER MEMORIAL HOSPITAL,3347561400,VALLEY,CHAMBERS,36854,AL,4800 48TH ST,Acute Care Hospitals,0.0
10039,HUNTSVILLE HOSPITAL,101 SIVLEY RD,HUNTSVILLE,AL,MADISON,35801,2562651000,Acute Care Hospitals,0.0
10008,101 HOSPITAL CIRCLE,CRENSHAW COMMUNITY HOSPITAL,Acute Care Hospitals,AL,36049,CRENSHAW,3343353374,LUVERNE,0.0
Acute Care Hospitals,10025,4800 48TH ST,VALLEY,AL,36854,CHAMBERS,3347561400,G H LANIER MEMORIAL HOSPITAL,0.0
MONTGOMERY,JACKSON HOSPITAL & CLINIC INC,36106,MONTGOMERY,AL,1725 PINE STREET,10024,3342938000,Acute Care Hospitals,0.0
10018,CALLAHAN EYE FOUNDATION HOSPITAL,JEFFERSON,BIRMINGHAM,AL,1720 UNIVERSITY BLVD,35233,2053258100,Acute Care Hospitals,0.0
Acute Care Hospitals,ST VINCENTS BLOUNT,ONEONTA,150 GILBREATH DRIVE,AL,35121,BLOUNT,2052743000,10050,0.0
FLORENCE,ELIZA COFFEE MEMORIAL HOSPITAL,205 MARENGO STREET,10006,AL,35631,LAUDERDALE,2567688400,Acute Care Hospitals,0.0
10015,SOUTHWEST ALABAMA MEDICAL CENTER,33700 HIGHWAY 43,THOMASVILLE,AL,36784,CLARKE,3346366221,Acute Care Hospitals,0.0
10049,MEDICAL CENTER ENTERPRISE,3343470584,Acute Care Hospitals,AL,36330,COFFEE,400 N EDWARDS STREET,ENTERPRISE,0.0
10008,CRENSHAW COMMUNITY HOSPITAL,101 HOSPITAL CIRCLE,CRENSHAW,AL,36049,LUVERNE,3343353374,Acute Care Hospitals,0.0
2057552500,CHILTON MEDICAL CENTER,1010 LAY DAM ROAD,CLANTON,AL,CHILTON,35045,10043,Acute Care Hospitals,0.0
10043,CHILTON MEDICAL CENTER,CLANTON,1010 LAY DAM ROAD,AL,CHILTON,35045,2057552500,Acute Care Hospitals,0.0
10108,PRATTVILLE BAPTIST HOSPITAL,124 S MEMORIAL DR,36067,AL,Acute Care Hospitals,AUTAUGA,3343614267,PRATTVILLE,0.0
10036,ANDALUSIA REGIONAL HOSPITAL,36420,ANDALUSIA,849 SOUTH THREE NOTCH STREET,AL,COVINGTON,3342228466,Acute Care Hospitals,0.0
AL,BAPTIST MEDICAL CENTER SOUTH,2105 EAST SOUTH BOULEVARD,MONTGOMERY,MONTGOMERY,36116,10023,3342882100,Acute Care Hospitals,0.0
10044,MARION REGIONAL MEDICAL CENTER,1256 MILITARY STREET SOUTH,HAMILTON,35570,2059216200,MARION,AL,Acute Care Hospitals,0.0
2057552500,CHILTON MEDICAL CENTER,1010 LAY DAM ROAD,CLANTON,AL,35045,CHILTON,10043,Acute Care Hospitals,0.0
10009,HARTSELLE MEDICAL CENTER,201 PINE STREET NORTHWEST,HARTSELLE,Acute Care Hospitals,35640,MORGAN,2567736511,AL,0.0
OPELIKA,EAST ALABAMA MEDICAL CENTER AND SNF,2000 PEPPERELL PARKWAY,36801,AL,10029,LEE,3347493411,Acute Care Hospitals,0.0
10035,CULLMAN REGIONAL MEDICAL CENTER,1912 ALABAMA HIGHWAY 157,CULLMAN,AL,2567372000,CULLMAN,35058,Acute Care Hospitals,0.0
10018,CALLAHAN EYE FOUNDATION HOSPITAL,1720 UNIVERSITY BLVD,JEFFERSON,Acute Care Hospitals,35233,BIRMINGHAM,2053258100,AL,0.0
10024,Acute Care Hospitals,1725 PINE STREET,MONTGOMERY,AL,36106,MONTGOMERY,3342938000,JACKSON HOSPITAL & CLINIC INC,0.0
10024,MONTGOMERY,JACKSON HOSPITAL & CLINIC INC,1725 PINE STREET,AL,36106,MONTGOMERY,3342938000,Acute Care Hospitals,0.0
10086,1530 U S HIGHWAY 43,35594,WINFIELD,AL,NORTHWEST MEDICAL CENTER,MARION,2054877736,Acute Care Hospitals,0.0
Acute Care Hospitals,JACKSON HOSPITAL & CLINIC INC,MONTGOMERY,1725 PINE STREET,AL,36106,MONTGOMERY,3342938000,10024,0.0
10045,FAYETTE MEDICAL CENTER,FAYETTE,1653 TEMPLE AVENUE NORTH,AL,35555,FAYETTE,2059325966,Acute Care Hospitals,0.0
10006,ELIZA COFFEE MEMORIAL HOSPITAL,205 MARENGO STREET,AL,FLORENCE,2567688400,LAUDERDALE,35631,Acute Care Hospitals,0.0
10050,ST VINCENTS BLOUNT,150 GILBREATH DRIVE,ONEONTA,AL,35121,BLOUNT,2052743000,Acute Care Hospitals,0.0
10086,NORTHWEST MEDICAL CENTER,1530 U S HIGHWAY 43,WINFIELD,MARION,Acute Care Hospitals,AL,2054877736,35594,0.0
10034,COMMUNITY HOSPITAL INC,ELMORE,TALLASSEE,AL,36078,805 FRIENDSHIP ROAD,3342836541,Acute Care Hospitals,0.0
10001,36302,3347938701,DOTHAN,AL,SOUTHEAST ALABAMA MEDICAL CENTER,HOUSTON,1108 ROSS CLARK CIRCLE,Acute Care Hospitals,0.0
10034,805 FRIENDSHIP ROAD,COMMUNITY HOSPITAL INC,TALLASSEE,36078,AL,ELMORE,3342836541,Acute Care Hospitals,0.0
MARSHALL MEDICAL CENTER SOUTH,10005,BOAZ,2505 U S HIGHWAY 431 NORTH,AL,35957,MARSHALL,2565938310,Acute Care Hospitals,0.0
126 HOSPITAL AVE,DALE MEDICAL CENTER,3347742601,OZARK,AL,36360,DALE,10021,Acute Care Hospitals,0.0
OPP,Acute Care Hospitals,702 N MAIN ST,10007,AL,36467,COVINGTON,3344933541,MIZELL MEMORIAL HOSPITAL,0.0
CULLMAN,CULLMAN REGIONAL MEDICAL CENTER,AL,CULLMAN,1912 ALABAMA HIGHWAY 157,35058,10035,2567372000,Acute Care Hospitals,0.0
COVINGTON,MIZELL MEMORIAL HOSPITAL,OPP,702 N MAIN ST,AL,36467,10007,3344933541,Acute Care Hospitals,0.0
10032,Acute Care Hospitals,209 NORTH MAIN STREET,WEDOWEE,AL,36278,RANDOLPH,2563572111,WEDOWEE HOSPITAL,0.0
10035,CULLMAN REGIONAL MEDICAL CENTER,1912 ALABAMA HIGHWAY 157,AL,Acute Care Hospitals,35058,CULLMAN,2567372000,CULLMAN,0.0
10012,DEKALB REGIONAL MEDICAL CENTER,DE KALB,FORT PAYNE,AL,35968,200 MED CENTER DRIVE,2568453150,Acute Care Hospitals,0.0
GUNTERSVILLE,MARSHALL MEDICAL CENTER NORTH,8000 ALABAMA HIGHWAY 69,10010,AL,Acute Care Hospitals,MARSHALL,2565718000,35976,0.0
Acute Care Hospitals,ST VINCENTS HOSPITAL,810 ST VINCENTS DRIVE,BIRMINGHAM,2059397000,35205,JEFFERSON,AL,10056,0.0
10043,CHILTON MEDICAL CENTER,1010 LAY DAM ROAD,CLANTON,35045,AL,CHILTON,2057552500,Acute Care Hospitals,0.0
10016,SHELBY BAPTIST MEDICAL CENTER,1000 FIRST STREET NORTH,SHELBY,AL,ALABASTER,35007,2056208100,Acute Care Hospitals,0.0
10008,CRENSHAW,36049,LUVERNE,AL,101 HOSPITAL CIRCLE,CRENSHAW COMMUNITY HOSPITAL,3343353374,Acute Care Hospitals,0.0
BUTLER,GEORGIANA HOSPITAL,515 MIRANDA ST,GEORGIANA,AL,36033,3343762205,10047,Acute Care Hospitals,0.0
10039,HUNTSVILLE,101 SIVLEY RD,HUNTSVILLE HOSPITAL,AL,35801,MADISON,2562651000,Acute Care Hospitals,0.0
10033,AL,BIRMINGHAM,619 SOUTH 19TH STREET,UNIVERSITY OF ALABAMA HOSPITAL,35233,JEFFERSON,2059344011,Acute Care Hospitals,0.0
10036,ANDALUSIA REGIONAL HOSPITAL,849 SOUTH THREE NOTCH STREET,36420,AL,ANDALUSIA,COVINGTON,3342228466,Acute Care Hospitals,0.0
36467,MIZELL MEMORIAL HOSPITAL,702 N MAIN ST,OPP,AL,COVINGTON,10007,3344933541,Acute Care Hospitals,0.0
10055,3347935000,4370 WEST MAIN STREET,DOTHAN,AL,36305,HOUSTON,FLOWERS HOSPITAL,Acute Care Hospitals,0.0
10015,SOUTHWEST ALABAMA MEDICAL CENTER,36784,THOMASVILLE,AL,33700 HIGHWAY 43,CLARKE,3346366221,Acute Care Hospitals,0.0
35660,10019,1300 SOUTH MONTGOMERY AVENUE,SHEFFIELD,AL,HELEN KELLER MEMORIAL HOSPITAL,JEFFERSON,2563864556,Acute Care Hospitals,0.0
10019,HELEN KELLER MEMORIAL HOSPITAL,SHEFFIELD,35660,AL,1300 SOUTH MONTGOMERY AVENUE,JEFFERSON,2563864556,Acute Care Hospitals,0.0
10001,SOUTHEAST ALABAMA MEDICAL CENTER,HOUSTON,DOTHAN,AL,36302,1108 ROSS CLARK CIRCLE,Acute Care Hospitals,3347938701,0.0
GADSDEN REGIONAL MEDICAL CENTER,10040,1007 GOODYEAR AVENUE,Acute Care Hospitals,AL,35903,ETOWAH,2564944000,GADSDEN,0.0
10046,RIVERVIEW REGIONAL MEDICAL CENTER,600 SOUTH THIRD STREET,GADSDEN,AL,ETOWAH,Acute Care Hospitals,2565435200,35901,0.0
10087,UNIV OF SOUTH ALABAMA MEDICAL CENTER,MOBILE,MOBILE,AL,36617,2451 FILLINGIM STREET,2514717110,Acute Care Hospitals,0.0
20017,ALASKA REGIONAL HOSPITAL,2801 DEBARR ROAD,99508,AK,ANCHORAGE,Acute Care Hospitals,9072761131,ANCHORAGE,0.0
Acute Care Hospitals,COMMUNITY HOSPITAL INC,805 FRIENDSHIP ROAD,TALLASSEE,AL,36078,ELMORE,3342836541,10034,0.0
10024,MONTGOMERY,1725 PINE STREET,JACKSON HOSPITAL & CLINIC INC,AL,36106,3342938000,MONTGOMERY,Acute Care Hospitals,0.0
10021,3347742601,OZARK,126 HOSPITAL AVE,AL,36360,DALE,DALE MEDICAL CENTER,Acute Care Hospitals,0.0
AL,FLORENCE,205 MARENGO STREET,ELIZA COFFEE MEMORIAL HOSPITAL,10006,35631,LAUDERDALE,2567688400,Acute Care Hospitals,0.0
Acute Care Hospitals,STRINGFELLOW MEMORIAL HOSPITAL,301 EAST 18TH ST,CALHOUN,AL,36201,ANNISTON,2562358900,10038,0.0
20017,ALASKA REGIONAL HOSPITAL,2801 DEBARR ROAD,ANCHORAGE,AK,ANCHORAGE,99508,9072761131,Acute Care Hospitals,0.0
10033,UNIVERSITY OF ALABAMA HOSPITAL,2059344011,BIRMINGHAM,AL,35233,JEFFERSON,619 SOUTH 19TH STREET,Acute Care Hospitals,0.0
10045,FAYETTE MEDICAL CENTER,1653 TEMPLE AVENUE NORTH,FAYETTE,2059325966,AL,FAYETTE,35555,Acute Care Hospitals,0.0
MARSHALL MEDICAL CENTER SOUTH,10005,2565938310,BOAZ,AL,35957,MARSHALL,2505 U S HIGHWAY 431 NORTH,Acute Care Hospitals,0.0
AL,ANNISTON,301 EAST 18TH ST,STRINGFELLOW MEMORIAL HOSPITAL,10038,36201,CALHOUN,2562358900,Acute Care Hospitals,0.0
10027,ELBA GENERAL HOSPITAL,36323,AL,ELBA,987 DRAYTON STREET,COFFEE,3348972257,Acute Care Hospitals,0.0
BIRMINGHAM,ST VINCENTS HOSPITAL,810 ST VINCENTS DRIVE,10056,AL,35205,JEFFERSON,2059397000,Acute Care Hospitals,0.0
10040,35903,1007 GOODYEAR AVENUE,GADSDEN,AL,GADSDEN REGIONAL MEDICAL CENTER,ETOWAH,Acute Care Hospitals,2564944000,0.0
10008,3343353374,101 HOSPITAL CIRCLE,LUVERNE,AL,36049,CRENSHAW,Acute Care Hospitals,CRENSHAW COMMUNITY HOSPITAL,0.0
35976,MARSHALL MEDICAL CENTER NORTH,8000 ALABAMA HIGHWAY 69,GUNTERSVILLE,10010,AL,MARSHALL,2565718000,Acute Care Hospitals,0.0
10011,ST VINCENT'S EAST,50 MEDICAL PARK EAST DRIVE,35235,AL,BIRMINGHAM,JEFFERSON,2058383122,Acute Care Hospitals,0.0
515 MIRANDA ST,GEORGIANA,10047,GEORGIANA HOSPITAL,AL,36033,BUTLER,3343762205,Acute Care Hospitals,0.0
10005,MARSHALL MEDICAL CENTER SOUTH,MARSHALL,BOAZ,2565938310,35957,2505 U S HIGHWAY 431 NORTH,AL,Acute Care Hospitals,0.0
AL,ST VINCENTS BLOUNT,10050,ONEONTA,150 GILBREATH DRIVE,35121,BLOUNT,2052743000,Acute Care Hospitals,0.0
10043,CHILTON MEDICAL CENTER,35045,CLANTON,CHILTON,1010 LAY DAM ROAD,AL,2057552500,Acute Care Hospitals,0.0
10019,1300 SOUTH MONTGOMERY AVENUE,HELEN KELLER MEMORIAL HOSPITAL,SHEFFIELD,AL,35660,JEFFERSON,2563864556,Acute Care Hospitals,0.0
10087,UNIV OF SOUTH ALABAMA MEDICAL CENTER,Acute Care Hospitals,2451 FILLINGIM STREET,AL,36617,MOBILE,2514717110,MOBILE,0.0
10006,ELIZA COFFEE MEMORIAL HOSPITAL,205 MARENGO STREET,FLORENCE,AL,35631,Acute Care Hospitals,2567688400,LAUDERDALE,0.0
10033,UNIVERSITY OF ALABAMA HOSPITAL,BIRMINGHAM,35233,AL,619 SOUTH 19TH STREET,JEFFERSON,2059344011,Acute Care Hospitals,0.0
FLOWERS HOSPITAL,10055,4370 WEST MAIN STREET,36305,AL,DOTHAN,HOUSTON,3347935000,Acute Care Hospitals,0.0
AL,Acute Care Hospitals,1725 PINE STREET,MONTGOMERY,10024,36106,MONTGOMERY,3342938000,JACKSON HOSPITAL & CLINIC INC,0.0
10009,HARTSELLE MEDICAL CENTER,HARTSELLE,Acute Care Hospitals,AL,35640,MORGAN,2567736511,201 PINE STREET NORTHWEST,0.0
10025,36854,4800 48TH ST,VALLEY,AL,G H LANIER MEMORIAL HOSPITAL,CHAMBERS,3347561400,Acute Care Hospitals,0.0
10008,Acute Care Hospitals,101 HOSPITAL CIRCLE,LUVERNE,3343353374,36049,CRENSHAW,AL,CRENSHAW COMMUNITY HOSPITAL,0.0
Acute Care Hospitals,ST VINCENTS BLOUNT,35121,ONEONTA,AL,150 GILBREATH DRIVE,BLOUNT,2052743000,10050,0.0
10022,CENTRE,400 NORTHWOOD DR,CHEROKEE MEDICAL CENTER,AL,2569275531,CHEROKEE,35960,Acute Care Hospitals,0.0
10049,MEDICAL CENTER ENTERPRISE,400 N EDWARDS STREET,ENTERPRISE,AL,COFFEE,36330,3343470584,Acute Care Hospitals,0.0
10001,3347938701,1108 ROSS CLARK CIRCLE,DOTHAN,AL,36302,SOUTHEAST ALABAMA MEDICAL CENTER,HOUSTON,Acute Care Hospitals,0.0
10022,CHEROKEE MEDICAL CENTER,CENTRE,35960,AL,400 NORTHWOOD DR,CHEROKEE,2569275531,Acute Care Hospitals,0.0
3342938000,10024,1725 PINE STREET,MONTGOMERY,AL,36106,MONTGOMERY,JACKSON HOSPITAL & CLINIC INC,Acute Care Hospitals,0.0
10016,SHELBY BAPTIST MEDICAL CENTER,AL,ALABASTER,1000 FIRST STREET NORTH,35007,Acute Care Hospitals,2056208100,SHELBY,0.0
36784,SOUTHWEST ALABAMA MEDICAL CENTER,33700 HIGHWAY 43,THOMASVILLE,AL,10015,CLARKE,3346366221,Acute Care Hospitals,0.0
10024,1725 PINE STREET,JACKSON HOSPITAL & CLINIC INC,MONTGOMERY,AL,36106,MONTGOMERY,3342938000,Acute Care Hospitals,0.0
Acute Care Hospitals,JACKSON HOSPITAL & CLINIC INC,1725 PINE STREET,3342938000,AL,36106,MONTGOMERY,MONTGOMERY,10024,0.0
3347742601,DALE MEDICAL CENTER,126 HOSPITAL AVE,OZARK,10021,36360,DALE,AL,Acute Care Hospitals,0.0
1530 U S HIGHWAY 43,NORTHWEST MEDICAL CENTER,AL,WINFIELD,10086,35594,MARION,2054877736,Acute Care Hospitals,0.0
8000 ALABAMA HIGHWAY 69,MARSHALL,10010,GUNTERSVILLE,AL,35976,MARSHALL MEDICAL CENTER NORTH,2565718000,Acute Care Hospitals,0.0
AL,MARION REGIONAL MEDICAL CENTER,1256 MILITARY STREET SOUTH,HAMILTON,10044,Acute Care Hospitals,MARION,2059216200,35570,0.0
3347493411,2000 PEPPERELL PARKWAY,EAST ALABAMA MEDICAL CENTER AND SNF,OPELIKA,AL,36801,LEE,10029,Acute Care Hospitals,0.0
10012,DEKALB REGIONAL MEDICAL CENTER,200 MED CENTER DRIVE,AL,FORT PAYNE,2568453150,DE KALB,35968,Acute Care Hospitals,0.0
10034,COMMUNITY HOSPITAL INC,805 FRIENDSHIP ROAD,AL,ELMORE,36078,TALLASSEE,3342836541,Acute Care Hospitals,0.0
HARTSELLE MEDICAL CENTER,10009,201 PINE STREET NORTHWEST,HARTSELLE,AL,35640,MORGAN,Acute Care Hospitals,2567736511,0.0
10045,FAYETTE,2059325966,FAYETTE MEDICAL CENTER,AL,35555,FAYETTE,1653 TEMPLE AVENUE NORTH,Acute Care Hospitals,0.0
10025,AL,4800 48TH ST,VALLEY,36854,G H LANIER MEMORIAL HOSPITAL,CHAMBERS,3347561400,Acute Care Hospitals,0.0
10025,AL,4800 48TH ST,3347561400,G H LANIER MEMORIAL HOSPITAL,36854,CHAMBERS,VALLEY,Acute Care Hospitals,0.0
2059216200,MARION REGIONAL MEDICAL CENTER,1256 MILITARY STREET SOUTH,HAMILTON,AL,MARION,35570,10044,Acute Care Hospitals,0.0
10022,CHEROKEE,400 NORTHWOOD DR,CHEROKEE MEDICAL CENTER,AL,35960,CENTRE,2569275531,Acute Care Hospitals,0.0
10007,MIZELL MEMORIAL HOSPITAL,AL,OPP,702 N MAIN ST,36467,COVINGTON,3344933541,Acute Care Hospitals,0.0
10027,ELBA GENERAL HOSPITAL,987 DRAYTON STREET,36323,AL,3348972257,COFFEE,ELBA,Acute Care Hospitals,0.0
10086,1530 U S HIGHWAY 43,WINFIELD,NORTHWEST MEDICAL CENTER,AL,35594,MARION,2054877736,Acute Care Hospitals,0.0
10087,36617,2451 FILLINGIM STREET,Acute Care Hospitals,AL,UNIV OF SOUTH ALABAMA MEDICAL CENTER,MOBILE,2514717110,MOBILE,0.0
UNIV OF SOUTH ALABAMA MEDICAL CENTER,MOBILE,2451 FILLINGIM STREET,10087,AL,36617,MOBILE,2514717110,Acute Care Hospitals,0.0
10006,ELIZA COFFEE MEMORIAL HOSPITAL,205 MARENGO STREET,FLORENCE,AL,Acute Care Hospitals,LAUDERDALE,35631,2567688400,0.0
10012,DE KALB,200 MED CENTER DRIVE,FORT PAYNE,AL,35968,DEKALB REGIONAL MEDICAL CENTER,2568453150,Acute Care Hospitals,0.0
10024,JACKSON HOSPITAL & CLINIC INC,MONTGOMERY,MONTGOMERY,1725 PINE STREET,36106,AL,3342938000,Acute Care Hospitals,0.0
35058,CULLMAN REGIONAL MEDICAL CENTER,1912 ALABAMA HIGHWAY 157,CULLMAN,AL,10035,CULLMAN,2567372000,Acute Care Hospitals,0.0
10033,UNIVERSITY OF ALABAMA HOSPITAL,619 SOUTH 19TH STREET,BIRMINGHAM,AL,35233,JEFFERSON,2059344011,Acute Care Hospitals,0.0
10007,MIZELL MEMORIAL HOSPITAL,AL,702 N MAIN ST,OPP,36467,COVINGTON,3344933541,Acute Care Hospitals,0.0
Acute Care Hospitals,DEKALB REGIONAL MEDICAL CENTER,200 MED CENTER DRIVE,AL,FORT PAYNE,35968,DE KALB,2568453150,10012,0.0
FAYETTE MEDICAL CENTER,2059325966,1653 TEMPLE AVENUE NORTH,FAYETTE,AL,35555,FAYETTE,10045,Acute Care Hospitals,0.0
10164,COOSA VALLEY MEDICAL CENTER,315 W HICKORY ST,SYLACAUGA,AL,35150,TALLADEGA,2562495000,Acute Care Hospitals,0.0
3343614267,PRATTVILLE BAPTIST HOSPITAL,Acute Care Hospitals,PRATTVILLE,AL,36067,AUTAUGA,10108,124 S MEMORIAL DR,0.0
BOAZ,MARSHALL MEDICAL CENTER SOUTH,2505 U S HIGHWAY 431 NORTH,AL,10005,35957,MARSHALL,2565938310,Acute Care Hospitals,0.0
10056,ST VINCENTS HOSPITAL,810 ST VINCENTS DRIVE,BIRMINGHAM,JEFFERSON,AL,35205,2059397000,Acute Care Hospitals,0.0
10038,CALHOUN,301 EAST 18TH ST,ANNISTON,STRINGFELLOW MEMORIAL HOSPITAL,36201,AL,2562358900,Acute Care Hospitals,0.0
GEORGIANA HOSPITAL,GEORGIANA,515 MIRANDA ST,10047,AL,36033,BUTLER,3343762205,Acute Care Hospitals,0.0
ETOWAH,GADSDEN REGIONAL MEDICAL CENTER,2564944000,GADSDEN,AL,35903,10040,1007 GOODYEAR AVENUE,Acute Care Hospitals,0.0
36330,400 N EDWARDS STREET,MEDICAL CENTER ENTERPRISE,ENTERPRISE,AL,10049,COFFEE,3343470584,Acute Care Hospitals,0.0
COVINGTON,10007,702 N MAIN ST,OPP,AL,36467,MIZELL MEMORIAL HOSPITAL,3344933541,Acute Care Hospitals,0.0
10001,SOUTHEAST ALABAMA MEDICAL CENTER,1108 ROSS CLARK CIRCLE,DOTHAN,3347938701,36302,HOUSTON,Acute Care Hospitals,AL,0.0
10108,124 S MEMORIAL DR,PRATTVILLE BAPTIST HOSPITAL,3343614267,AL,36067,AUTAUGA,PRATTVILLE,Acute Care Hospitals,0.0
10032,WEDOWEE HOSPITAL,209 NORTH MAIN STREET,WEDOWEE,AL,36278,RANDOLPH,2563572111,Acute Care Hospitals,0.0
Acute Care Hospitals,MARSHALL MEDICAL CENTER NORTH,8000 ALABAMA HIGHWAY 69,GUNTERSVILLE,AL,35976,2565718000,MARSHALL,10010,0.0
10044,2059216200,1256 MILITARY STREET SOUTH,HAMILTON,MARION REGIONAL MEDICAL CENTER,35570,MARION,AL,Acute Care Hospitals,0.0
10025,G H LANIER MEMORIAL HOSPITAL,Acute Care Hospitals,AL,VALLEY,36854,CHAMBERS,3347561400,4800 48TH ST,0.0
AL,1010 LAY DAM ROAD,CHILTON MEDICAL CENTER,CLANTON,10043,35045,CHILTON,2057552500,Acute Care Hospitals,0.0
10001,3347938701,36302,DOTHAN,AL,1108 ROSS CLARK CIRCLE,HOUSTON,SOUTHEAST ALABAMA MEDICAL CENTER,Acute Care Hospitals,0.0
10015,SOUTHWEST ALABAMA MEDICAL CENTER,33700 HIGHWAY 43,THOMASVILLE,AL,CLARKE,36784,3346366221,Acute Care Hospitals,0.0
10046,RIVERVIEW REGIONAL MEDICAL CENTER,600 SOUTH THIRD STREET,GADSDEN,Acute Care Hospitals,35901,2565435200,ETOWAH,AL,0.0
35150,10164,315 W HICKORY ST,SYLACAUGA,AL,COOSA VALLEY MEDICAL CENTER,TALLADEGA,2562495000,Acute Care Hospitals,0.0
10038,ANNISTON,Acute Care Hospitals,STRINGFELLOW MEMORIAL HOSPITAL,AL,36201,CALHOUN,2562358900,301 EAST 18TH ST,0.0
DE KALB,DEKALB REGIONAL MEDICAL CENTER,200 MED CENTER DRIVE,FORT PAYNE,AL,35968,10012,2568453150,Acute Care Hospitals,0.0
10008,CRENSHAW COMMUNITY HOSPITAL,CRENSHAW,LUVERNE,AL,36049,3343353374,101 HOSPITAL CIRCLE,Acute Care Hospitals,0.0
2565435200,RIVERVIEW REGIONAL MEDICAL CENTER,ETOWAH,GADSDEN,AL,35901,600 SOUTH THIRD STREET,10046,Acute Care Hospitals,0.0
MORGAN,HARTSELLE MEDICAL CENTER,201 PINE STREET NORTHWEST,HARTSELLE,35640,AL,10009,2567736511,Acute Care Hospitals,0.0
10009,HARTSELLE MEDICAL CENTER,201 PINE STREET NORTHWEST,HARTSELLE,AL,2567736511,MORGAN,35640,Acute Care Hospitals,0.0
10019,35660,1300 SOUTH MONTGOMERY AVENUE,AL,SHEFFIELD,HELEN KELLER MEMORIAL HOSPITAL,JEFFERSON,2563864556,Acute Care Hospitals,0.0
AL,MEDICAL CENTER ENTERPRISE,400 N EDWARDS STREET,COFFEE,10049,36330,ENTERPRISE,3343470584,Acute Care Hospitals,0.0
10012,FORT PAYNE,200 MED CENTER DRIVE,AL,DEKALB REGIONAL MEDICAL CENTER,35968,DE KALB,2568453150,Acute Care Hospitals,0.0
10008,36049,101 HOSPITAL CIRCLE,LUVERNE,AL,CRENSHAW,CRENSHAW COMMUNITY HOSPITAL,3343353374,Acute Care Hospitals,0.0
10044,MARION REGIONAL MEDICAL CENTER,1256 MILITARY STREET SOUTH,HAMILTON,AL,35570,2059216200,MARION,Acute Care Hospitals,0.0
35801,HUNTSVILLE HOSPITAL,101 SIVLEY RD,HUNTSVILLE,AL,10039,MADISON,Acute Care Hospitals,2562651000,0.0
10038,STRINGFELLOW MEMORIAL HOSPITAL,301 EAST 18TH ST,AL,Acute Care Hospitals,36201,CALHOUN,2562358900,ANNISTON,0.0
10011,ST VINCENT'S EAST,50 MEDICAL PARK EAST DRIVE,BIRMINGHAM,35235,AL,JEFFERSON,2058383122,Acute Care Hospitals,0.0
