ProviderNumber,HospitalName,Address1,City,ZipCode,CountyName,PhoneNumber,HospitalOwner,Condition,Sample,label
10018,CALLAHAN EYE FOUNDATION HOSPITAL,1720 UNIVERSITY BLVD,BIRMINGHAM,35233,JEFFERSON,2053258100,Voluntary non-profit - Private,Surgical Infection Prevention,Empty,1
10018,CALLAHAN EYE FOUNDATION HOSPITAL,1720 UNIVERSITY BLVD,BIRMINGHAM,35233,JEFFERSON,2053258100,Voluntary non-profit - Private,Surgical Infection Prevention,Empty,1
10018,CALLAHAN EYE FOUNDATION HOSPITAL,1720 UNIVERSITY BLVD,BIRMINGHAM,35233,JEFFERSON,2053258100,Voluntary non-profit - Private,Surgical Infection Prevention,Empty,1
10018,CALLAHAN EYE FOUNDATION HOSPITAL,1720 UNIVERSITY BLVD,BIRMINGHAM,35233,JEFFERSON,2053258100,Voluntary non-profit - Private,Surgical Infection Prevention,Empty,1
10018,CALLAHAN EYE FOUNDATION HOSPITAL,1720 UNIVERSITY BLVD,BIRMINGHAM,35233,JEFFERSON,2053258100,Voluntary non-profit - Private,Surgical Infection Prevention,Empty,1
10018,CALLAHAN EYE FOUNDATION HOSPITAL,1720 UNIVERSITY BLVD,BIRMINGHAM,35233,JEFFERSON,2053258100,Voluntary non-profit - Private,Surgical Infection Prevention,Empty,1
10018,CALLAHAN EYE FOUNDATION HOSPITAL,1720 UNIVERSITY BLVD,BIRMINGHAM,35233,JEFFERSON,2053258100,Voluntary non-profit - Private,Surgical Infection Prevention,Empty,1
10018,CALLAHAN EYE FOUNDATION HOSPITAL,1720 UNIVERSITY BLVD,BIRMINGHAM,35233,JEFFERSON,2053258100,Voluntary non-profit - Private,Surgical Infection Prevention,Empty,1
10019,HELEN KELLER MEMORIAL HOSPITAL,1300 SOUTH MONTGOMERY AVENUE,SHEFFIELD,35660,JEFFERSON,2563864556,Government - Hospital District or Authority,Heart Attack,33 patients,1
10019,HELEN KELLER MEMORIAL HOSPITAL,1300 SOUTH MONTGOMERY AVENUE,SHEFFIELD,35660,JEFFERSON,2563864556,Government - Hospital District or Authority,Heart Attack,13 patients,1
10019,HELEN KELLER MEMORIAL HOSPITAL,1300 SOUTH MONTGOMERY AVENUE,SHEFFIELD,35660,JEFFERSON,2563864556,Government - Hospital District or Authority,Heart Attack,4 patients,1
10019,HELEN KELLER MEMORIAL HOSPITAL,1300 SOUTH MONTGOMERY AVENUE,SHEFFIELD,35660,JEFFERSON,2563864556,Government - Hospital District or Authority,Heart Attack,4 patients,1
10019,HELEN KELLER MEMORIAL HOSPITAL,1300 SOUTH MONTGOMERY AVENUE,SHEFFIELD,35660,JEFFERSON,2563864556,Government - Hospital District or Authority,Heart Attack,14 patients,1
10019,HELEN KELLER MEMORIAL HOSPITAL,1300 SOUTH MONTGOMERY AVENUE,SHEFFIELD,35660,JEFFERSON,2563864556,Government - Hospital District or Authority,Heart Attack,0 patients,1
10019,HELEN KELLER MEMORIAL HOSPITAL,1300 SOUTH MONTGOMERY AVENUE,SHEFFIELD,35660,JEFFERSON,2563864556,Government - Hospital District or Authority,Heart Attack,0 patients,1
10019,HELEN KELLER MEMORIAL HOSPITAL,1300 SOUTH MONTGOMERY AVENUE,SHEFFIELD,35660,JEFFERSON,2563864556,Government - Hospital District or Authority,Heart Failure,114 patients,1
10019,HELEN KELLER MEMORIAL HOSPITAL,1300 SOUTH MONTGOMERY AVENUE,SHEFFIELD,35660,JEFFERSON,2563864556,Government - Hospital District or Authority,Heart Failure,149 patients,1
10019,HELEN KELLER MEMORIAL HOSPITAL,1300 SOUTH MONTGOMERY AVENUE,SHEFFIELD,35660,JEFFERSON,2563864556,Government - Hospital District or Authority,Heart Failure,37 patients,1
10019,HELEN KELLER MEMORIAL HOSPITAL,1300 SOUTH MONTGOMERY AVENUE,SHEFFIELD,35660,JEFFERSON,2563864556,Government - Hospital District or Authority,Heart Failure,41 patients,1
10001,SOUTHEAST ALABAMA MEDICAL CENTER,1108 ROSS CLARK CIRCLE,DOTHAN,36302,HOUSTON,3347938701,Government - Hospital District or Authority,Heart Attack,270 patients,1
10001,SOUTHEAST ALABAMA MEDICAL CENTER,1108 ROSS CLARK CIRCLE,DOTHAN,36302,HOUSTON,3347938701,Government - Hospital District or Authority,Heart Attack,516 patients,1
10001,SOUTHEAST ALABAMA MEDICAL CENTER,1108 ROSS CLARK CIRCLE,DOTHAN,36302,HOUSTON,3347938701,Government - Hospital District or Authority,Heart Attack,71 patients,1
10001,SOUTHEAST ALABAMA MEDICAL CENTER,1108 ROSS CLARK CIRCLE,DOTHAN,36302,HOUSTON,3347938701,Government - Hospital District or Authority,Heart Attack,244 patients,1
10001,SOUTHEAST ALABAMA MEDICAL CENTER,1108 ROSS CLARK CIRCLE,DOTHAN,36302,HOUSTON,3347938701,Government - Hospital District or Authority,Heart Attack,441 patients,1
10001,SOUTHEAST ALABAMA MEDICAL CENTER,1108 ROSS CLARK CIRCLE,DOTHAN,36302,HOUSTON,3347938701,Government - Hospital District or Authority,Heart Attack,0 patients,1
10001,SOUTHEAST ALABAMA MEDICAL CENTER,1108 ROSS CLARK CIRCLE,DOTHAN,36302,HOUSTON,3347938701,Government - Hospital District or Authority,Heart Attack,40 patients,1
10001,SOUTHEAST ALABAMA MEDICAL CENTER,1108 ROSS CLARK CIRCLE,DOTHAN,36302,HOUSTON,3347938701,Government - Hospital District or Authority,Heart Failure,455 patients,1
10001,SOUTHEAST ALABAMA MEDICAL CENTER,1108 ROSS CLARK CIRCLE,DOTHAN,36302,HOUSTON,3347938701,Government - Hospital District or Authority,Heart Failure,514 patients,1
10001,SOUTHEAST ALABAMA MEDICAL CENTER,1108 ROSS CLARK CIRCLE,DOTHAN,36302,HOUSTON,3347938701,Government - Hospital District or Authority,Heart Failure,165 patients,1
10001,SOUTHEAST ALABAMA MEDICAL CENTER,1108 ROSS CLARK CIRCLE,DOTHAN,36302,HOUSTON,3347938701,Government - Hospital District or Authority,Heart Failure,110 patients,1
10001,SOUTHEAST ALABAMA MEDICAL CENTER,1108 ROSS CLARK CIRCLE,DOTHAN,36302,HOUSTON,3347938701,Government - Hospital District or Authority,Pneumonia,191 patients,1
10001,SOUTHEAST ALABAMA MEDICAL CENTER,1108 ROSS CLARK CIRCLE,DOTHAN,36302,HOUSTON,3347938701,Government - Hospital District or Authority,Pneumonia,125 patients,1
10001,SOUTHEAST ALABAMA MEDICAL CENTER,1108 ROSS CLARK CIRCLE,DOTHAN,36302,HOUSTON,3347938701,Government - Hospital District or Authority,Pneumonia,107 patients,1
10001,SOUTHEAST ALABAMA MEDICAL CENTER,1108 ROSS CLARK CIRCLE,DOTHAN,36302,HOUSTON,3347938701,Government - Hospital District or Authority,Pneumonia,196 patients,1
10001,SOUTHEAST ALABAMA MEDICAL CENTER,1108 ROSS CLARK CIRCLE,DOTHAN,36302,HOUSTON,3347938701,Government - Hospital District or Authority,Pneumonia,147 patients,1
10001,SOUTHEAST ALABAMA MEDICAL CENTER,1108 ROSS CLARK CIRCLE,DOTHAN,36302,HOUSTON,3347938701,Government - Hospital District or Authority,Pneumonia,160 patients,1
10001,SOUTHEAST ALABAMA MEDICAL CENTER,1108 ROSS CLARK CIRCLE,DOTHAN,36302,HOUSTON,3347938701,Government - Hospital District or Authority,Surgical Infection Prevention,79 patients,1
10001,SOUTHEAST ALABAMA MEDICAL CENTER,1108 ROSS CLARK CIRCLE,DOTHAN,36302,HOUSTON,3347938701,Government - Hospital District or Authority,Surgical Infection Prevention,399 patients,1
10001,SOUTHEAST ALABAMA MEDICAL CENTER,1108 ROSS CLARK CIRCLE,DOTHAN,36302,HOUSTON,3347938701,Government - Hospital District or Authority,Surgical Infection Prevention,405 patients,1
10001,SOUTHEAST ALABAMA MEDICAL CENTER,1108 ROSS CLARK CIRCLE,DOTHAN,36302,HOUSTON,3347938701,Government - Hospital District or Authority,Surgical Infection Prevention,385 patients,1
10001,SOUTHEAST ALABAMA MEDICAL CENTER,1108 ROSS CLARK CIRCLE,DOTHAN,36302,HOUSTON,3347938701,Government - Hospital District or Authority,Surgical Infection Prevention,136 patients,1
10001,SOUTHEAST ALABAMA MEDICAL CENTER,1108 ROSS CLARK CIRCLE,DOTHAN,36302,HOUSTON,3347938701,Government - Hospital District or Authority,Surgical Infection Prevention,537 patients,1
10001,SOUTHEAST ALABAMA MEDICAL CENTER,1108 ROSS CLARK CIRCLE,DOTHAN,36302,HOUSTON,3347938701,Government - Hospital District or Authority,Surgical Infection Prevention,185 patients,1
10001,SOUTHEAST ALABAMA MEDICAL CENTER,1108 ROSS CLARK CIRCLE,DOTHAN,36302,HOUSTON,3347938701,Government - Hospital District or Authority,Surgical Infection Prevention,184 patients,1
10005,MARSHALL MEDICAL CENTER SOUTH,2505 U S HIGHWAY 431 NORTH,BOAZ,35957,MARSHALL,2565938310,Government - Hospital District or Authority,Heart Attack,20 patients,1
10005,MARSHALL MEDICAL CENTER SOUTH,2505 U S HIGHWAY 431 NORTH,BOAZ,35957,MARSHALL,2565938310,Government - Hospital District or Authority,Heart Attack,5 patients,1
10005,MARSHALL MEDICAL CENTER SOUTH,2505 U S HIGHWAY 431 NORTH,BOAZ,35957,MARSHALL,2565938310,Government - Hospital District or Authority,Heart Attack,2 patients,1
10005,MARSHALL MEDICAL CENTER SOUTH,2505 U S HIGHWAY 431 NORTH,BOAZ,35957,MARSHALL,2565938310,Government - Hospital District or Authority,Heart Attack,0 patients,1
10005,MARSHALL MEDICAL CENTER SOUTH,2505 U S HIGHWAY 431 NORTH,BOAZ,35957,MARSHALL,2565938310,Government - Hospital District or Authority,Heart Attack,5 patients,1
10005,MARSHALL MEDICAL CENTER SOUTH,2505 U S HIGHWAY 431 NORTH,BOAZ,35957,MARSHALL,2565938310,Government - Hospital District or Authority,Heart Attack,0 patients,1
10005,MARSHALL MEDICAL CENTER SOUTH,2505 U S HIGHWAY 431 NORTH,BOAZ,35957,MARSHALL,2565938310,Government - Hospital District or Authority,Heart Attack,0 patients,1
10005,MARSHALL MEDICAL CENTER SOUTH,2505 U S HIGHWAY 431 NORTH,BOAZ,35957,MARSHALL,2565938310,Government - Hospital District or Authority,Heart Failure,110 patients,1
10005,MARSHALL MEDICAL CENTER SOUTH,2505 U S HIGHWAY 431 NORTH,BOAZ,35957,MARSHALL,2565938310,Government - Hospital District or Authority,Heart Failure,160 patients,1
10005,MARSHALL MEDICAL CENTER SOUTH,2505 U S HIGHWAY 431 NORTH,BOAZ,35957,MARSHALL,2565938310,Government - Hospital District or Authority,Heart Failure,69 patients,1
10005,MARSHALL MEDICAL CENTER SOUTH,2505 U S HIGHWAY 431 NORTH,BOAZ,35957,MARSHALL,2565938310,Government - Hospital District or Authority,Heart Failure,34 patients,1
10005,MARSHALL MEDICAL CENTER SOUTH,2505 U S HIGHWAY 431 NORTH,BOAZ,35957,MARSHALL,2565938310,Government - Hospital District or Authority,Pneumonia,172 patients,1
10005,MARSHALL MEDICAL CENTER SOUTH,2505 U S HIGHWAY 431 NORTH,BOAZ,35957,MARSHALL,2565938310,Government - Hospital District or Authority,Pneumonia,120 patients,1
10005,MARSHALL MEDICAL CENTER SOUTH,2505 U S HIGHWAY 431 NORTH,BOAZ,35957,MARSHALL,2565938310,Government - Hospital District or Authority,Pneumonia,98 patients,1
10005,MARSHALL MEDICAL CENTER SOUTH,2505 U S HIGHWAY 431 NORTH,BOAZ,35957,MARSHALL,2565938310,Government - Hospital District or Authority,Pneumonia,211 patients,1
10005,MARSHALL MEDICAL CENTER SOUTH,2505 U S HIGHWAY 431 NORTH,BOAZ,35957,MARSHALL,2565938310,Government - Hospital District or Authority,Pneumonia,175 patients,1
10005,MARSHALL MEDICAL CENTER SOUTH,2505 U S HIGHWAY 431 NORTH,BOAZ,35957,MARSHALL,2565938310,Government - Hospital District or Authority,Pneumonia,118 patients,1
10005,MARSHALL MEDICAL CENTER SOUTH,2505 U S HIGHWAY 431 NORTH,BOAZ,35957,MARSHALL,2565938310,Government - Hospital District or Authority,Surgical Infection Prevention,14 patients,1
10005,MARSHALL MEDICAL CENTER SOUTH,2505 U S HIGHWAY 431 NORTH,BOAZ,35957,MARSHALL,2565938310,Government - Hospital District or Authority,Surgical Infection Prevention,168 patients,1
10005,MARSHALL MEDICAL CENTER SOUTH,2505 U S HIGHWAY 431 NORTH,BOAZ,35957,MARSHALL,2565938310,Government - Hospital District or Authority,Surgical Infection Prevention,167 patients,1
10005,MARSHALL MEDICAL CENTER SOUTH,2505 U S HIGHWAY 431 NORTH,BOAZ,35957,MARSHALL,2565938310,Government - Hospital District or Authority,Surgical Infection Prevention,158 patients,1
10005,MARSHALL MEDICAL CENTER SOUTH,2505 U S HIGHWAY 431 NORTH,BOAZ,35957,MARSHALL,2565938310,Government - Hospital District or Authority,Surgical Infection Prevention,0 patients,1
10005,MARSHALL MEDICAL CENTER SOUTH,2505 U S HIGHWAY 431 NORTH,BOAZ,35957,MARSHALL,2565938310,Government - Hospital District or Authority,Surgical Infection Prevention,237 patients,1
10005,MARSHALL MEDICAL CENTER SOUTH,2505 U S HIGHWAY 431 NORTH,BOAZ,35957,MARSHALL,2565938310,Government - Hospital District or Authority,Surgical Infection Prevention,76 patients,1
10005,MARSHALL MEDICAL CENTER SOUTH,2505 U S HIGHWAY 431 NORTH,BOAZ,35957,MARSHALL,2565938310,Government - Hospital District or Authority,Surgical Infection Prevention,76 patients,1
10006,ELIZA COFFEE MEMORIAL HOSPITAL,205 MARENGO STREET,FLORENCE,35631,LAUDERDALE,2567688400,Voluntary non-profit - Other,Heart Attack,159 patients,1
10006,ELIZA COFFEE MEMORIAL HOSPITAL,205 MARENGO STREET,FLORENCE,35631,LAUDERDALE,2567688400,Voluntary non-profit - Other,Heart Attack,247 patients,1
10006,ELIZA COFFEE MEMORIAL HOSPITAL,205 MARENGO STREET,FLORENCE,35631,LAUDERDALE,2567688400,Voluntary non-profit - Other,Heart Attack,43 patients,1
10006,ELIZA COFFEE MEMORIAL HOSPITAL,205 MARENGO STREET,FLORENCE,35631,LAUDERDALE,2567688400,Voluntary non-profit - Other,Heart Attack,103 patients,1
10006,ELIZA COFFEE MEMORIAL HOSPITAL,205 MARENGO STREET,FLORENCE,35631,LAUDERDALE,2567688400,Voluntary non-profit - Other,Heart Attack,227 patients,1
10006,ELIZA COFFEE MEMORIAL HOSPITAL,205 MARENGO STREET,FLORENCE,35631,LAUDERDALE,2567688400,Voluntary non-profit - Other,Heart Attack,0 patients,1
10006,ELIZA COFFEE MEMORIAL HOSPITAL,205 MARENGO STREET,FLORENCE,35631,LAUDERDALE,2567688400,Voluntary non-profit - Other,Heart Attack,61 patients,1
10006,ELIZA COFFEE MEMORIAL HOSPITAL,205 MARENGO STREET,FLORENCE,35631,LAUDERDALE,2567688400,Voluntary non-profit - Other,Heart Failure,217 patients,1
10006,ELIZA COFFEE MEMORIAL HOSPITAL,205 MARENGO STREET,FLORENCE,35631,LAUDERDALE,2567688400,Voluntary non-profit - Other,Heart Failure,259 patients,1
10006,ELIZA COFFEE MEMORIAL HOSPITAL,205 MARENGO STREET,FLORENCE,35631,LAUDERDALE,2567688400,Voluntary non-profit - Other,Heart Failure,84 patients,1
10006,ELIZA COFFEE MEMORIAL HOSPITAL,205 MARENGO STREET,FLORENCE,35631,LAUDERDALE,2567688400,Voluntary non-profit - Other,Heart Failure,53 patients,1
10006,ELIZA COFFEE MEMORIAL HOSPITAL,205 MARENGO STREET,FLORENCE,35631,LAUDERDALE,2567688400,Voluntary non-profit - Other,Pneumonia,174 patients,1
10006,ELIZA COFFEE MEMORIAL HOSPITAL,205 MARENGO STREET,FLORENCE,35631,LAUDERDALE,2567688400,Voluntary non-profit - Other,Pneumonia,137 patients,1
10006,ELIZA COFFEE MEMORIAL HOSPITAL,205 MARENGO STREET,FLORENCE,35631,LAUDERDALE,2567688400,Voluntary non-profit - Other,Pneumonia,65 patients,1
10006,ELIZA COFFEE MEMORIAL HOSPITAL,205 MARENGO STREET,FLORENCE,35631,LAUDERDALE,2567688400,Voluntary non-profit - Other,Pneumonia,200 patients,1
10006,ELIZA COFFEE MEMORIAL HOSPITAL,205 MARENGO STREET,FLORENCE,35631,LAUDERDALE,2567688400,Voluntary non-profit - Other,Pneumonia,138 patients,1
10006,ELIZA COFFEE MEMORIAL HOSPITAL,205 MARENGO STREET,FLORENCE,35631,LAUDERDALE,2567688400,Voluntary non-profit - Other,Pneumonia,85 patients,1
10006,ELIZA COFFEE MEMORIAL HOSPITAL,205 MARENGO STREET,FLORENCE,35631,LAUDERDALE,2567688400,Voluntary non-profit - Other,Surgical Infection Prevention,107 patients,1
10006,ELIZA COFFEE MEMORIAL HOSPITAL,205 MARENGO STREET,FLORENCE,35631,LAUDERDALE,2567688400,Voluntary non-profit - Other,Surgical Infection Prevention,457 patients,1
10006,ELIZA COFFEE MEMORIAL HOSPITAL,205 MARENGO STREET,FLORENCE,35631,LAUDERDALE,2567688400,Voluntary non-profit - Other,Surgical Infection Prevention,462 patients,1
10006,ELIZA COFFEE MEMORIAL HOSPITAL,205 MARENGO STREET,FLORENCE,35631,LAUDERDALE,2567688400,Voluntary non-profit - Other,Surgical Infection Prevention,439 patients,1
10006,ELIZA COFFEE MEMORIAL HOSPITAL,205 MARENGO STREET,FLORENCE,35631,LAUDERDALE,2567688400,Voluntary non-profit - Other,Surgical Infection Prevention,130 patients,1
10006,ELIZA COFFEE MEMORIAL HOSPITAL,205 MARENGO STREET,FLORENCE,35631,LAUDERDALE,2567688400,Voluntary non-profit - Other,Surgical Infection Prevention,619 patients,1
10006,ELIZA COFFEE MEMORIAL HOSPITAL,205 MARENGO STREET,FLORENCE,35631,LAUDERDALE,2567688400,Voluntary non-profit - Other,Surgical Infection Prevention,242 patients,1
10006,ELIZA COFFEE MEMORIAL HOSPITAL,205 MARENGO STREET,FLORENCE,35631,LAUDERDALE,2567688400,Voluntary non-profit - Other,Surgical Infection Prevention,242 patients,1
10007,MIZELL MEMORIAL HOSPITAL,702 N MAIN ST,OPP,36467,COVINGTON,3344933541,Voluntary non-profit - Private,Heart Attack,5 patients,1
10007,MIZELL MEMORIAL HOSPITAL,702 N MAIN ST,OPP,36467,COVINGTON,3344933541,Voluntary non-profit - Private,Heart Attack,2 patients,1
10007,MIZELL MEMORIAL HOSPITAL,702 N MAIN ST,OPP,36467,COVINGTON,3344933541,Voluntary non-profit - Private,Heart Attack,0 patients,1
10007,MIZELL MEMORIAL HOSPITAL,702 N MAIN ST,OPP,36467,COVINGTON,3344933541,Voluntary non-profit - Private,Heart Attack,0 patients,1
10007,MIZELL MEMORIAL HOSPITAL,702 N MAIN ST,OPP,36467,COVINGTON,3344933541,Voluntary non-profit - Private,Heart Attack,2 patients,1
10007,MIZELL MEMORIAL HOSPITAL,702 N MAIN ST,OPP,36467,COVINGTON,3344933541,Voluntary non-profit - Private,Heart Attack,0 patients,1
10007,MIZELL MEMORIAL HOSPITAL,702 N MAIN ST,OPP,36467,COVINGTON,3344933541,Voluntary non-profit - Private,Heart Attack,0 patients,1
10007,MIZELL MEMORIAL HOSPITAL,702 N MAIN ST,OPP,36467,COVINGTON,3344933541,Voluntary non-profit - Private,Heart Failure,59 patients,1
10007,MIZELL MEMORIAL HOSPITAL,702 N MAIN ST,OPP,36467,COVINGTON,3344933541,Voluntary non-profit - Private,Heart Failure,76 patients,1
10007,MIZELL MEMORIAL HOSPITAL,702 N MAIN ST,OPP,36467,COVINGTON,3344933541,Voluntary non-profit - Private,Heart Failure,14 patients,1
10007,MIZELL MEMORIAL HOSPITAL,702 N MAIN ST,OPP,36467,COVINGTON,3344933541,Voluntary non-profit - Private,Heart Failure,8 patients,1
10007,MIZELL MEMORIAL HOSPITAL,702 N MAIN ST,OPP,36467,COVINGTON,3344933541,Voluntary non-profit - Private,Pneumonia,85 patients,1
10007,MIZELL MEMORIAL HOSPITAL,702 N MAIN ST,OPP,36467,COVINGTON,3344933541,Voluntary non-profit - Private,Pneumonia,64 patients,1
10007,MIZELL MEMORIAL HOSPITAL,702 N MAIN ST,OPP,36467,COVINGTON,3344933541,Voluntary non-profit - Private,Pneumonia,28 patients,1
10007,MIZELL MEMORIAL HOSPITAL,702 N MAIN ST,OPP,36467,COVINGTON,3344933541,Voluntary non-profit - Private,Pneumonia,87 patients,1
10007,MIZELL MEMORIAL HOSPITAL,702 N MAIN ST,OPP,36467,COVINGTON,3344933541,Voluntary non-profit - Private,Pneumonia,57 patients,1
10007,MIZELL MEMORIAL HOSPITAL,702 N MAIN ST,OPP,36467,COVINGTON,3344933541,Voluntary non-profit - Private,Pneumonia,63 patients,1
10007,MIZELL MEMORIAL HOSPITAL,702 N MAIN ST,OPP,36467,COVINGTON,3344933541,Voluntary non-profit - Private,Surgical Infection Prevention,11 patients,1
10007,MIZELL MEMORIAL HOSPITAL,702 N MAIN ST,OPP,36467,COVINGTON,3344933541,Voluntary non-profit - Private,Surgical Infection Prevention,101 patients,1
10007,MIZELL MEMORIAL HOSPITAL,702 N MAIN ST,OPP,36467,COVINGTON,3344933541,Voluntary non-profit - Private,Surgical Infection Prevention,101 patients,1
10007,MIZELL MEMORIAL HOSPITAL,702 N MAIN ST,OPP,36467,COVINGTON,3344933541,Voluntary non-profit - Private,Surgical Infection Prevention,100 patients,1
10007,MIZELL MEMORIAL HOSPITAL,702 N MAIN ST,OPP,36467,COVINGTON,3344933541,Voluntary non-profit - Private,Surgical Infection Prevention,0 patients,1
10007,MIZELL MEMORIAL HOSPITAL,702 N MAIN ST,OPP,36467,COVINGTON,3344933541,Voluntary non-profit - Private,Surgical Infection Prevention,123 patients,1
10007,MIZELL MEMORIAL HOSPITAL,702 N MAIN ST,OPP,36467,COVINGTON,3344933541,Voluntary non-profit - Private,Surgical Infection Prevention,77 patients,1
10007,MIZELL MEMORIAL HOSPITAL,702 N MAIN ST,OPP,36467,COVINGTON,3344933541,Voluntary non-profit - Private,Surgical Infection Prevention,76 patients,1
10008,CRENSHAW COMMUNITY HOSPITAL,101 HOSPITAL CIRCLE,LUVERNE,36049,CRENSHAW,3343353374,Government - Federal,Heart Attack,1 patients,1
10008,CRENSHAW COMMUNITY HOSPITAL,101 HOSPITAL CIRCLE,LUVERNE,36049,CRENSHAW,3343353374,Government - Federal,Heart Attack,1 patients,1
10008,CRENSHAW COMMUNITY HOSPITAL,101 HOSPITAL CIRCLE,LUVERNE,36049,CRENSHAW,3343353374,Government - Federal,Heart Attack,0 patients,1
10008,CRENSHAW COMMUNITY HOSPITAL,101 HOSPITAL CIRCLE,LUVERNE,36049,CRENSHAW,3343353374,Government - Federal,Heart Attack,0 patients,1
10008,CRENSHAW COMMUNITY HOSPITAL,101 HOSPITAL CIRCLE,LUVERNE,36049,CRENSHAW,3343353374,Government - Federal,Heart Attack,1 patients,1
10008,CRENSHAW COMMUNITY HOSPITAL,101 HOSPITAL CIRCLE,LUVERNE,36049,CRENSHAW,3343353374,Government - Federal,Heart Attack,0 patients,1
10008,CRENSHAW COMMUNITY HOSPITAL,101 HOSPITAL CIRCLE,LUVERNE,36049,CRENSHAW,3343353374,Government - Federal,Heart Attack,0 patients,1
10008,CRENSHAW COMMUNITY HOSPITAL,101 HOSPITAL CIRCLE,LUVERNE,36049,CRENSHAW,3343353374,Government - Federal,Heart Failure,26 patients,1
10008,CRENSHAW COMMUNITY HOSPITAL,101 HOSPITAL CIRCLE,LUVERNE,36049,CRENSHAW,3343353374,Government - Federal,Heart Failure,39 patients,1
10008,CRENSHAW COMMUNITY HOSPITAL,101 HOSPITAL CIRCLE,LUVERNE,36049,CRENSHAW,3343353374,Government - Federal,Heart Failure,8 patients,1
10008,CRENSHAW COMMUNITY HOSPITAL,101 HOSPITAL CIRCLE,LUVERNE,36049,CRENSHAW,3343353374,Government - Federal,Heart Failure,5 patients,1
10008,CRENSHAW COMMUNITY HOSPITAL,101 HOSPITAL CIRCLE,LUVERNE,36049,CRENSHAW,3343353374,Government - Federal,Pneumonia,16 patients,1
10008,CRENSHAW COMMUNITY HOSPITAL,101 HOSPITAL CIRCLE,LUVERNE,36049,CRENSHAW,3343353374,Government - Federal,Pneumonia,15 patients,1
10008,CRENSHAW COMMUNITY HOSPITAL,101 HOSPITAL CIRCLE,LUVERNE,36049,CRENSHAW,3343353374,Government - Federal,Pneumonia,9 patients,1
10008,CRENSHAW COMMUNITY HOSPITAL,101 HOSPITAL CIRCLE,LUVERNE,36049,CRENSHAW,3343353374,Government - Federal,Pneumonia,21 patients,1
10008,CRENSHAW COMMUNITY HOSPITAL,101 HOSPITAL CIRCLE,LUVERNE,36049,CRENSHAW,3343353374,Government - Federal,Pneumonia,21 patients,1
10008,CRENSHAW COMMUNITY HOSPITAL,101 HOSPITAL CIRCLE,LUVERNE,36049,CRENSHAW,3343353374,Government - Federal,Pneumonia,15 patients,1
10008,CRENSHAW COMMUNITY HOSPITAL,101 HOSPITAL CIRCLE,LUVERNE,36049,CRENSHAW,3343353374,Government - Federal,Surgical Infection Prevention,1 patients,1
10008,CRENSHAW COMMUNITY HOSPITAL,101 HOSPITAL CIRCLE,LUVERNE,36049,CRENSHAW,3343353374,Government - Federal,Surgical Infection Prevention,2 patients,1
10008,CRENSHAW COMMUNITY HOSPITAL,101 HOSPITAL CIRCLE,LUVERNE,36049,CRENSHAW,3343353374,Government - Federal,Surgical Infection Prevention,2 patients,1
10008,CRENSHAW COMMUNITY HOSPITAL,101 HOSPITAL CIRCLE,LUVERNE,36049,CRENSHAW,3343353374,Government - Federal,Surgical Infection Prevention,2 patients,1
10008,CRENSHAW COMMUNITY HOSPITAL,101 HOSPITAL CIRCLE,LUVERNE,36049,CRENSHAW,3343353374,Government - Federal,Surgical Infection Prevention,0 patients,1
10008,CRENSHAW COMMUNITY HOSPITAL,101 HOSPITAL CIRCLE,LUVERNE,36049,CRENSHAW,3343353374,Government - Federal,Surgical Infection Prevention,4 patients,1
10008,CRENSHAW COMMUNITY HOSPITAL,101 HOSPITAL CIRCLE,LUVERNE,36049,CRENSHAW,3343353374,Government - Federal,Surgical Infection Prevention,4 patients,1
10008,CRENSHAW COMMUNITY HOSPITAL,101 HOSPITAL CIRCLE,LUVERNE,36049,CRENSHAW,3343353374,Government - Federal,Surgical Infection Prevention,4 patients,1
10009,HARTSELLE MEDICAL CENTER,201 PINE STREET NORTHWEST,HARTSELLE,35640,MORGAN,2567736511,Proprietary,Heart Attack,6 patients,1
10009,HARTSELLE MEDICAL CENTER,201 PINE STREET NORTHWEST,HARTSELLE,35640,MORGAN,2567736511,Proprietary,Heart Attack,1 patients,1
10009,HARTSELLE MEDICAL CENTER,201 PINE STREET NORTHWEST,HARTSELLE,35640,MORGAN,2567736511,Proprietary,Heart Attack,1 patients,1
10009,HARTSELLE MEDICAL CENTER,201 PINE STREET NORTHWEST,HARTSELLE,35640,MORGAN,2567736511,Proprietary,Heart Attack,2 patients,1
10009,HARTSELLE MEDICAL CENTER,201 PINE STREET NORTHWEST,HARTSELLE,35640,MORGAN,2567736511,Proprietary,Heart Attack,3 patients,1
10009,HARTSELLE MEDICAL CENTER,201 PINE STREET NORTHWEST,HARTSELLE,35640,MORGAN,2567736511,Proprietary,Heart Attack,0 patients,1
10009,HARTSELLE MEDICAL CENTER,201 PINE STREET NORTHWEST,HARTSELLE,35640,MORGAN,2567736511,Proprietary,Heart Attack,0 patients,1
10009,HARTSELLE MEDICAL CENTER,201 PINE STREET NORTHWEST,HARTSELLE,35640,MORGAN,2567736511,Proprietary,Heart Failure,35 patients,1
10009,HARTSELLE MEDICAL CENTER,201 PINE STREET NORTHWEST,HARTSELLE,35640,MORGAN,2567736511,Proprietary,Heart Failure,42 patients,1
10009,HARTSELLE MEDICAL CENTER,201 PINE STREET NORTHWEST,HARTSELLE,35640,MORGAN,2567736511,Proprietary,Heart Failure,10 patients,1
10009,HARTSELLE MEDICAL CENTER,201 PINE STREET NORTHWEST,HARTSELLE,35640,MORGAN,2567736511,Proprietary,Heart Failure,12 patients,1
10009,HARTSELLE MEDICAL CENTER,201 PINE STREET NORTHWEST,HARTSELLE,35640,MORGAN,2567736511,Proprietary,Pneumonia,44 patients,1
10009,HARTSELLE MEDICAL CENTER,201 PINE STREET NORTHWEST,HARTSELLE,35640,MORGAN,2567736511,Proprietary,Pneumonia,30 patients,1
10009,HARTSELLE MEDICAL CENTER,201 PINE STREET NORTHWEST,HARTSELLE,35640,MORGAN,2567736511,Proprietary,Pneumonia,25 patients,1
10009,HARTSELLE MEDICAL CENTER,201 PINE STREET NORTHWEST,HARTSELLE,35640,MORGAN,2567736511,Proprietary,Pneumonia,51 patients,1
10009,HARTSELLE MEDICAL CENTER,201 PINE STREET NORTHWEST,HARTSELLE,35640,MORGAN,2567736511,Proprietary,Pneumonia,45 patients,1
10009,HARTSELLE MEDICAL CENTER,201 PINE STREET NORTHWEST,HARTSELLE,35640,MORGAN,2567736511,Proprietary,Pneumonia,30 patients,1
10009,HARTSELLE MEDICAL CENTER,201 PINE STREET NORTHWEST,HARTSELLE,35640,MORGAN,2567736511,Proprietary,Surgical Infection Prevention,3 patients,1
10009,HARTSELLE MEDICAL CENTER,201 PINE STREET NORTHWEST,HARTSELLE,35640,MORGAN,2567736511,Proprietary,Surgical Infection Prevention,6 patients,1
10009,HARTSELLE MEDICAL CENTER,201 PINE STREET NORTHWEST,HARTSELLE,35640,MORGAN,2567736511,Proprietary,Surgical Infection Prevention,7 patients,1
10009,HARTSELLE MEDICAL CENTER,201 PINE STREET NORTHWEST,HARTSELLE,35640,MORGAN,2567736511,Proprietary,Surgical Infection Prevention,5 patients,1
10009,HARTSELLE MEDICAL CENTER,201 PINE STREET NORTHWEST,HARTSELLE,35640,MORGAN,2567736511,Proprietary,Surgical Infection Prevention,0 patients,1
10009,HARTSELLE MEDICAL CENTER,201 PINE STREET NORTHWEST,HARTSELLE,35640,MORGAN,2567736511,Proprietary,Surgical Infection Prevention,11 patients,1
10009,HARTSELLE MEDICAL CENTER,201 PINE STREET NORTHWEST,HARTSELLE,35640,MORGAN,2567736511,Proprietary,Surgical Infection Prevention,9 patients,1
10009,HARTSELLE MEDICAL CENTER,201 PINE STREET NORTHWEST,HARTSELLE,35640,MORGAN,2567736511,Proprietary,Surgical Infection Prevention,9 patients,1
10010,MARSHALL MEDICAL CENTER NORTH,8000 ALABAMA HIGHWAY 69,GUNTERSVILLE,35976,MARSHALL,2565718000,Government - Hospital District or Authority,Heart Attack,8 patients,1
10010,MARSHALL MEDICAL CENTER NORTH,8000 ALABAMA HIGHWAY 69,GUNTERSVILLE,35976,MARSHALL,2565718000,Government - Hospital District or Authority,Heart Attack,6 patients,1
10010,MARSHALL MEDICAL CENTER NORTH,8000 ALABAMA HIGHWAY 69,GUNTERSVILLE,35976,MARSHALL,2565718000,Government - Hospital District or Authority,Heart Attack,2 patients,1
10010,MARSHALL MEDICAL CENTER NORTH,8000 ALABAMA HIGHWAY 69,GUNTERSVILLE,35976,MARSHALL,2565718000,Government - Hospital District or Authority,Heart Attack,2 patients,1
10010,MARSHALL MEDICAL CENTER NORTH,8000 ALABAMA HIGHWAY 69,GUNTERSVILLE,35976,MARSHALL,2565718000,Government - Hospital District or Authority,Heart Attack,6 patients,1
10010,MARSHALL MEDICAL CENTER NORTH,8000 ALABAMA HIGHWAY 69,GUNTERSVILLE,35976,MARSHALL,2565718000,Government - Hospital District or Authority,Heart Attack,0 patients,1
10010,MARSHALL MEDICAL CENTER NORTH,8000 ALABAMA HIGHWAY 69,GUNTERSVILLE,35976,MARSHALL,2565718000,Government - Hospital District or Authority,Heart Attack,0 patients,1
10010,MARSHALL MEDICAL CENTER NORTH,8000 ALABAMA HIGHWAY 69,GUNTERSVILLE,35976,MARSHALL,2565718000,Government - Hospital District or Authority,Heart Failure,55 patients,1
10010,MARSHALL MEDICAL CENTER NORTH,8000 ALABAMA HIGHWAY 69,GUNTERSVILLE,35976,MARSHALL,2565718000,Government - Hospital District or Authority,Heart Failure,80 patients,1
10010,MARSHALL MEDICAL CENTER NORTH,8000 ALABAMA HIGHWAY 69,GUNTERSVILLE,35976,MARSHALL,2565718000,Government - Hospital District or Authority,Heart Failure,27 patients,1
10010,MARSHALL MEDICAL CENTER NORTH,8000 ALABAMA HIGHWAY 69,GUNTERSVILLE,35976,MARSHALL,2565718000,Government - Hospital District or Authority,Heart Failure,10 patients,1
10010,MARSHALL MEDICAL CENTER NORTH,8000 ALABAMA HIGHWAY 69,GUNTERSVILLE,35976,MARSHALL,2565718000,Government - Hospital District or Authority,Pneumonia,128 patients,1
10010,MARSHALL MEDICAL CENTER NORTH,8000 ALABAMA HIGHWAY 69,GUNTERSVILLE,35976,MARSHALL,2565718000,Government - Hospital District or Authority,Pneumonia,115 patients,1
10010,MARSHALL MEDICAL CENTER NORTH,8000 ALABAMA HIGHWAY 69,GUNTERSVILLE,35976,MARSHALL,2565718000,Government - Hospital District or Authority,Pneumonia,65 patients,1
10010,MARSHALL MEDICAL CENTER NORTH,8000 ALABAMA HIGHWAY 69,GUNTERSVILLE,35976,MARSHALL,2565718000,Government - Hospital District or Authority,Pneumonia,158 patients,1
10010,MARSHALL MEDICAL CENTER NORTH,8000 ALABAMA HIGHWAY 69,GUNTERSVILLE,35976,MARSHALL,2565718000,Government - Hospital District or Authority,Pneumonia,133 patients,1
10010,MARSHALL MEDICAL CENTER NORTH,8000 ALABAMA HIGHWAY 69,GUNTERSVILLE,35976,MARSHALL,2565718000,Government - Hospital District or Authority,Pneumonia,101 patients,1
10010,MARSHALL MEDICAL CENTER NORTH,8000 ALABAMA HIGHWAY 69,GUNTERSVILLE,35976,MARSHALL,2565718000,Government - Hospital District or Authority,Surgical Infection Prevention,14 patients,1
10010,MARSHALL MEDICAL CENTER NORTH,8000 ALABAMA HIGHWAY 69,GUNTERSVILLE,35976,MARSHALL,2565718000,Government - Hospital District or Authority,Surgical Infection Prevention,66 patients,1
10010,MARSHALL MEDICAL CENTER NORTH,8000 ALABAMA HIGHWAY 69,GUNTERSVILLE,35976,MARSHALL,2565718000,Government - Hospital District or Authority,Surgical Infection Prevention,64 patients,1
10010,MARSHALL MEDICAL CENTER NORTH,8000 ALABAMA HIGHWAY 69,GUNTERSVILLE,35976,MARSHALL,2565718000,Government - Hospital District or Authority,Surgical Infection Prevention,63 patients,1
10010,MARSHALL MEDICAL CENTER NORTH,8000 ALABAMA HIGHWAY 69,GUNTERSVILLE,35976,MARSHALL,2565718000,Government - Hospital District or Authority,Surgical Infection Prevention,0 patients,1
10010,MARSHALL MEDICAL CENTER NORTH,8000 ALABAMA HIGHWAY 69,GUNTERSVILLE,35976,MARSHALL,2565718000,Government - Hospital District or Authority,Surgical Infection Prevention,155 patients,1
10010,MARSHALL MEDICAL CENTER NORTH,8000 ALABAMA HIGHWAY 69,GUNTERSVILLE,35976,MARSHALL,2565718000,Government - Hospital District or Authority,Surgical Infection Prevention,56 patients,1
10010,MARSHALL MEDICAL CENTER NORTH,8000 ALABAMA HIGHWAY 69,GUNTERSVILLE,35976,MARSHALL,2565718000,Government - Hospital District or Authority,Surgical Infection Prevention,56 patients,1
10011,ST VINCENT'S EAST,50 MEDICAL PARK EAST DRIVE,BIRMINGHAM,35235,JEFFERSON,2058383122,Voluntary non-profit - Private,Heart Attack,240 patients,1
10011,ST VINCENT'S EAST,50 MEDICAL PARK EAST DRIVE,BIRMINGHAM,35235,JEFFERSON,2058383122,Voluntary non-profit - Private,Heart Attack,295 patients,1
10011,ST VINCENT'S EAST,50 MEDICAL PARK EAST DRIVE,BIRMINGHAM,35235,JEFFERSON,2058383122,Voluntary non-profit - Private,Heart Attack,70 patients,1
10011,ST VINCENT'S EAST,50 MEDICAL PARK EAST DRIVE,BIRMINGHAM,35235,JEFFERSON,2058383122,Voluntary non-profit - Private,Heart Attack,131 patients,1
10011,ST VINCENT'S EAST,50 MEDICAL PARK EAST DRIVE,BIRMINGHAM,35235,JEFFERSON,2058383122,Voluntary non-profit - Private,Heart Attack,288 patients,1
10011,ST VINCENT'S EAST,50 MEDICAL PARK EAST DRIVE,BIRMINGHAM,35235,JEFFERSON,2058383122,Voluntary non-profit - Private,Heart Attack,0 patients,1
10011,ST VINCENT'S EAST,50 MEDICAL PARK EAST DRIVE,BIRMINGHAM,35235,JEFFERSON,2058383122,Voluntary non-profit - Private,Heart Attack,48 patients,1
10011,ST VINCENT'S EAST,50 MEDICAL PARK EAST DRIVE,BIRMINGHAM,35235,JEFFERSON,2058383122,Voluntary non-profit - Private,Heart Failure,316 patients,1
10011,ST VINCENT'S EAST,50 MEDICAL PARK EAST DRIVE,BIRMINGHAM,35235,JEFFERSON,2058383122,Voluntary non-profit - Private,Heart Failure,372 patients,1
10011,ST VINCENT'S EAST,50 MEDICAL PARK EAST DRIVE,BIRMINGHAM,35235,JEFFERSON,2058383122,Voluntary non-profit - Private,Heart Failure,130 patients,1
10011,ST VINCENT'S EAST,50 MEDICAL PARK EAST DRIVE,BIRMINGHAM,35235,JEFFERSON,2058383122,Voluntary non-profit - Private,Heart Failure,69 patients,1
10011,ST VINCENT'S EAST,50 MEDICAL PARK EAST DRIVE,BIRMINGHAM,35235,JEFFERSON,2058383122,Voluntary non-profit - Private,Pneumonia,125 patients,1
10011,ST VINCENT'S EAST,50 MEDICAL PARK EAST DRIVE,BIRMINGHAM,35235,JEFFERSON,2058383122,Voluntary non-profit - Private,Pneumonia,131 patients,1
10011,ST VINCENT'S EAST,50 MEDICAL PARK EAST DRIVE,BIRMINGHAM,35235,JEFFERSON,2058383122,Voluntary non-profit - Private,Pneumonia,69 patients,1
10011,ST VINCENT'S EAST,50 MEDICAL PARK EAST DRIVE,BIRMINGHAM,35235,JEFFERSON,2058383122,Voluntary non-profit - Private,Pneumonia,135 patients,1
10011,ST VINCENT'S EAST,50 MEDICAL PARK EAST DRIVE,BIRMINGHAM,35235,JEFFERSON,2058383122,Voluntary non-profit - Private,Pneumonia,112 patients,1
10011,ST VINCENT'S EAST,50 MEDICAL PARK EAST DRIVE,BIRMINGHAM,35235,JEFFERSON,2058383122,Voluntary non-profit - Private,Pneumonia,89 patients,1
10011,ST VINCENT'S EAST,50 MEDICAL PARK EAST DRIVE,BIRMINGHAM,35235,JEFFERSON,2058383122,Voluntary non-profit - Private,Surgical Infection Prevention,125 patients,1
10011,ST VINCENT'S EAST,50 MEDICAL PARK EAST DRIVE,BIRMINGHAM,35235,JEFFERSON,2058383122,Voluntary non-profit - Private,Surgical Infection Prevention,461 patients,1
10011,ST VINCENT'S EAST,50 MEDICAL PARK EAST DRIVE,BIRMINGHAM,35235,JEFFERSON,2058383122,Voluntary non-profit - Private,Surgical Infection Prevention,473 patients,1
10011,ST VINCENT'S EAST,50 MEDICAL PARK EAST DRIVE,BIRMINGHAM,35235,JEFFERSON,2058383122,Voluntary non-profit - Private,Surgical Infection Prevention,442 patients,1
10011,ST VINCENT'S EAST,50 MEDICAL PARK EAST DRIVE,BIRMINGHAM,35235,JEFFERSON,2058383122,Voluntary non-profit - Private,Surgical Infection Prevention,127 patients,1
10011,ST VINCENT'S EAST,50 MEDICAL PARK EAST DRIVE,BIRMINGHAM,35235,JEFFERSON,2058383122,Voluntary non-profit - Private,Surgical Infection Prevention,601 patients,1
10011,ST VINCENT'S EAST,50 MEDICAL PARK EAST DRIVE,BIRMINGHAM,35235,JEFFERSON,2058383122,Voluntary non-profit - Private,Surgical Infection Prevention,229 patients,1
10011,ST VINCENT'S EAST,50 MEDICAL PARK EAST DRIVE,BIRMINGHAM,35235,JEFFERSON,2058383122,Voluntary non-profit - Private,Surgical Infection Prevention,224 patients,1
10012,DEKALB REGIONAL MEDICAL CENTER,200 MED CENTER DRIVE,FORT PAYNE,35968,DE KALB,2568453150,Voluntary non-profit - Church,Heart Attack,46 patients,1
10012,DEKALB REGIONAL MEDICAL CENTER,200 MED CENTER DRIVE,FORT PAYNE,35968,DE KALB,2568453150,Voluntary non-profit - Church,Heart Attack,39 patients,1
10012,DEKALB REGIONAL MEDICAL CENTER,200 MED CENTER DRIVE,FORT PAYNE,35968,DE KALB,2568453150,Voluntary non-profit - Church,Heart Attack,11 patients,1
10012,DEKALB REGIONAL MEDICAL CENTER,200 MED CENTER DRIVE,FORT PAYNE,35968,DE KALB,2568453150,Voluntary non-profit - Church,Heart Attack,14 patients,1
10012,DEKALB REGIONAL MEDICAL CENTER,200 MED CENTER DRIVE,FORT PAYNE,35968,DE KALB,2568453150,Voluntary non-profit - Church,Heart Attack,41 patients,1
10012,DEKALB REGIONAL MEDICAL CENTER,200 MED CENTER DRIVE,FORT PAYNE,35968,DE KALB,2568453150,Voluntary non-profit - Church,Heart Attack,1 patients,1
10012,DEKALB REGIONAL MEDICAL CENTER,200 MED CENTER DRIVE,FORT PAYNE,35968,DE KALB,2568453150,Voluntary non-profit - Church,Heart Attack,5 patients,1
10012,DEKALB REGIONAL MEDICAL CENTER,200 MED CENTER DRIVE,FORT PAYNE,35968,DE KALB,2568453150,Voluntary non-profit - Church,Heart Failure,76 patients,1
10012,DEKALB REGIONAL MEDICAL CENTER,200 MED CENTER DRIVE,FORT PAYNE,35968,DE KALB,2568453150,Voluntary non-profit - Church,Heart Failure,94 patients,1
10012,DEKALB REGIONAL MEDICAL CENTER,200 MED CENTER DRIVE,FORT PAYNE,35968,DE KALB,2568453150,Voluntary non-profit - Church,Heart Failure,36 patients,1
10012,DEKALB REGIONAL MEDICAL CENTER,200 MED CENTER DRIVE,FORT PAYNE,35968,DE KALB,2568453150,Voluntary non-profit - Church,Heart Failure,15 patients,1
10012,DEKALB REGIONAL MEDICAL CENTER,200 MED CENTER DRIVE,FORT PAYNE,35968,DE KALB,2568453150,Voluntary non-profit - Church,Pneumonia,69 patients,1
10012,DEKALB REGIONAL MEDICAL CENTER,200 MED CENTER DRIVE,FORT PAYNE,35968,DE KALB,2568453150,Voluntary non-profit - Church,Pneumonia,91 patients,1
10012,DEKALB REGIONAL MEDICAL CENTER,200 MED CENTER DRIVE,FORT PAYNE,35968,DE KALB,2568453150,Voluntary non-profit - Church,Pneumonia,37 patients,1
10012,DEKALB REGIONAL MEDICAL CENTER,200 MED CENTER DRIVE,FORT PAYNE,35968,DE KALB,2568453150,Voluntary non-profit - Church,Pneumonia,88 patients,1
10012,DEKALB REGIONAL MEDICAL CENTER,200 MED CENTER DRIVE,FORT PAYNE,35968,DE KALB,2568453150,Voluntary non-profit - Church,Pneumonia,82 patients,1
10012,DEKALB REGIONAL MEDICAL CENTER,200 MED CENTER DRIVE,FORT PAYNE,35968,DE KALB,2568453150,Voluntary non-profit - Church,Pneumonia,56 patients,1
10012,DEKALB REGIONAL MEDICAL CENTER,200 MED CENTER DRIVE,FORT PAYNE,35968,DE KALB,2568453150,Voluntary non-profit - Church,Surgical Infection Prevention,16 patients,1
10012,DEKALB REGIONAL MEDICAL CENTER,200 MED CENTER DRIVE,FORT PAYNE,35968,DE KALB,2568453150,Voluntary non-profit - Church,Surgical Infection Prevention,139 patients,1
10012,DEKALB REGIONAL MEDICAL CENTER,200 MED CENTER DRIVE,FORT PAYNE,35968,DE KALB,2568453150,Voluntary non-profit - Church,Surgical Infection Prevention,147 patients,1
10012,DEKALB REGIONAL MEDICAL CENTER,200 MED CENTER DRIVE,FORT PAYNE,35968,DE KALB,2568453150,Voluntary non-profit - Church,Surgical Infection Prevention,136 patients,1
10012,DEKALB REGIONAL MEDICAL CENTER,200 MED CENTER DRIVE,FORT PAYNE,35968,DE KALB,2568453150,Voluntary non-profit - Church,Surgical Infection Prevention,0 patients,1
10012,DEKALB REGIONAL MEDICAL CENTER,200 MED CENTER DRIVE,FORT PAYNE,35968,DE KALB,2568453150,Voluntary non-profit - Church,Surgical Infection Prevention,179 patients,1
10012,DEKALB REGIONAL MEDICAL CENTER,200 MED CENTER DRIVE,FORT PAYNE,35968,DE KALB,2568453150,Voluntary non-profit - Church,Surgical Infection Prevention,90 patients,1
10012,DEKALB REGIONAL MEDICAL CENTER,200 MED CENTER DRIVE,FORT PAYNE,35968,DE KALB,2568453150,Voluntary non-profit - Church,Surgical Infection Prevention,90 patients,1
10015,SOUTHWEST ALABAMA MEDICAL CENTER,33700 HIGHWAY 43,THOMASVILLE,36784,CLARKE,3346366221,Government - Federal,Heart Attack,0 patients,1
10015,SOUTHWEST ALABAMA MEDICAL CENTER,33700 HIGHWAY 43,THOMASVILLE,36784,CLARKE,3346366221,Government - Federal,Heart Attack,0 patients,1
10015,SOUTHWEST ALABAMA MEDICAL CENTER,33700 HIGHWAY 43,THOMASVILLE,36784,CLARKE,3346366221,Government - Federal,Heart Attack,0 patients,1
10015,SOUTHWEST ALABAMA MEDICAL CENTER,33700 HIGHWAY 43,THOMASVILLE,36784,CLARKE,3346366221,Government - Federal,Heart Attack,0 patients,1
10015,SOUTHWEST ALABAMA MEDICAL CENTER,33700 HIGHWAY 43,THOMASVILLE,36784,CLARKE,3346366221,Government - Federal,Heart Attack,0 patients,1
10015,SOUTHWEST ALABAMA MEDICAL CENTER,33700 HIGHWAY 43,THOMASVILLE,36784,CLARKE,3346366221,Government - Federal,Heart Attack,0 patients,1
10015,SOUTHWEST ALABAMA MEDICAL CENTER,33700 HIGHWAY 43,THOMASVILLE,36784,CLARKE,3346366221,Government - Federal,Heart Attack,0 patients,1
10015,SOUTHWEST ALABAMA MEDICAL CENTER,33700 HIGHWAY 43,THOMASVILLE,36784,CLARKE,3346366221,Government - Federal,Heart Failure,79 patients,1
10015,SOUTHWEST ALABAMA MEDICAL CENTER,33700 HIGHWAY 43,THOMASVILLE,36784,CLARKE,3346366221,Government - Federal,Heart Failure,91 patients,1
10015,SOUTHWEST ALABAMA MEDICAL CENTER,33700 HIGHWAY 43,THOMASVILLE,36784,CLARKE,3346366221,Government - Federal,Heart Failure,25 patients,1
10015,SOUTHWEST ALABAMA MEDICAL CENTER,33700 HIGHWAY 43,THOMASVILLE,36784,CLARKE,3346366221,Government - Federal,Heart Failure,17 patients,1
10015,SOUTHWEST ALABAMA MEDICAL CENTER,33700 HIGHWAY 43,THOMASVILLE,36784,CLARKE,3346366221,Government - Federal,Pneumonia,25 patients,1
10015,SOUTHWEST ALABAMA MEDICAL CENTER,33700 HIGHWAY 43,THOMASVILLE,36784,CLARKE,3346366221,Government - Federal,Pneumonia,24 patients,1
10015,SOUTHWEST ALABAMA MEDICAL CENTER,33700 HIGHWAY 43,THOMASVILLE,36784,CLARKE,3346366221,Government - Federal,Pneumonia,6 patients,1
10015,SOUTHWEST ALABAMA MEDICAL CENTER,33700 HIGHWAY 43,THOMASVILLE,36784,CLARKE,3346366221,Government - Federal,Pneumonia,24 patients,1
10015,SOUTHWEST ALABAMA MEDICAL CENTER,33700 HIGHWAY 43,THOMASVILLE,36784,CLARKE,3346366221,Government - Federal,Pneumonia,26 patients,1
10015,SOUTHWEST ALABAMA MEDICAL CENTER,33700 HIGHWAY 43,THOMASVILLE,36784,CLARKE,3346366221,Government - Federal,Pneumonia,24 patients,1
10015,SOUTHWEST ALABAMA MEDICAL CENTER,33700 HIGHWAY 43,THOMASVILLE,36784,CLARKE,3346366221,Government - Federal,Surgical Infection Prevention,Empty,1
10015,SOUTHWEST ALABAMA MEDICAL CENTER,33700 HIGHWAY 43,THOMASVILLE,36784,CLARKE,3346366221,Government - Federal,Surgical Infection Prevention,14 patients,1
10015,SOUTHWEST ALABAMA MEDICAL CENTER,33700 HIGHWAY 43,THOMASVILLE,36784,CLARKE,3346366221,Government - Federal,Surgical Infection Prevention,14 patients,1
10015,SOUTHWEST ALABAMA MEDICAL CENTER,33700 HIGHWAY 43,THOMASVILLE,36784,CLARKE,3346366221,Government - Federal,Surgical Infection Prevention,14 patients,1
10015,SOUTHWEST ALABAMA MEDICAL CENTER,33700 HIGHWAY 43,THOMASVILLE,36784,CLARKE,3346366221,Government - Federal,Surgical Infection Prevention,0 patients,1
10015,SOUTHWEST ALABAMA MEDICAL CENTER,33700 HIGHWAY 43,THOMASVILLE,36784,CLARKE,3346366221,Government - Federal,Surgical Infection Prevention,15 patients,1
10015,SOUTHWEST ALABAMA MEDICAL CENTER,33700 HIGHWAY 43,THOMASVILLE,36784,CLARKE,3346366221,Government - Federal,Surgical Infection Prevention,10 patients,1
10015,SOUTHWEST ALABAMA MEDICAL CENTER,33700 HIGHWAY 43,THOMASVILLE,36784,CLARKE,3346366221,Government - Federal,Surgical Infection Prevention,10 patients,1
10016,SHELBY BAPTIST MEDICAL CENTER,1000 FIRST STREET NORTH,ALABASTER,35007,SHELBY,2056208100,Voluntary non-profit - Church,Heart Attack,179 patients,1
10016,SHELBY BAPTIST MEDICAL CENTER,1000 FIRST STREET NORTH,ALABASTER,35007,SHELBY,2056208100,Voluntary non-profit - Church,Heart Attack,208 patients,1
10016,SHELBY BAPTIST MEDICAL CENTER,1000 FIRST STREET NORTH,ALABASTER,35007,SHELBY,2056208100,Voluntary non-profit - Church,Heart Attack,30 patients,1
10016,SHELBY BAPTIST MEDICAL CENTER,1000 FIRST STREET NORTH,ALABASTER,35007,SHELBY,2056208100,Voluntary non-profit - Church,Heart Attack,98 patients,1
10016,SHELBY BAPTIST MEDICAL CENTER,1000 FIRST STREET NORTH,ALABASTER,35007,SHELBY,2056208100,Voluntary non-profit - Church,Heart Attack,169 patients,1
10016,SHELBY BAPTIST MEDICAL CENTER,1000 FIRST STREET NORTH,ALABASTER,35007,SHELBY,2056208100,Voluntary non-profit - Church,Heart Attack,0 patients,1
10016,SHELBY BAPTIST MEDICAL CENTER,1000 FIRST STREET NORTH,ALABASTER,35007,SHELBY,2056208100,Voluntary non-profit - Church,Heart Attack,36 patients,1
10016,SHELBY BAPTIST MEDICAL CENTER,1000 FIRST STREET NORTH,ALABASTER,35007,SHELBY,2056208100,Voluntary non-profit - Church,Heart Failure,210 patients,1
10016,SHELBY BAPTIST MEDICAL CENTER,1000 FIRST STREET NORTH,ALABASTER,35007,SHELBY,2056208100,Voluntary non-profit - Church,Heart Failure,246 patients,1
10016,SHELBY BAPTIST MEDICAL CENTER,1000 FIRST STREET NORTH,ALABASTER,35007,SHELBY,2056208100,Voluntary non-profit - Church,Heart Failure,71 patients,1
10016,SHELBY BAPTIST MEDICAL CENTER,1000 FIRST STREET NORTH,ALABASTER,35007,SHELBY,2056208100,Voluntary non-profit - Church,Heart Failure,48 patients,1
10016,SHELBY BAPTIST MEDICAL CENTER,1000 FIRST STREET NORTH,ALABASTER,35007,SHELBY,2056208100,Voluntary non-profit - Church,Pneumonia,235 patients,1
10016,SHELBY BAPTIST MEDICAL CENTER,1000 FIRST STREET NORTH,ALABASTER,35007,SHELBY,2056208100,Voluntary non-profit - Church,Pneumonia,110 patients,1
10016,SHELBY BAPTIST MEDICAL CENTER,1000 FIRST STREET NORTH,ALABASTER,35007,SHELBY,2056208100,Voluntary non-profit - Church,Pneumonia,131 patients,1
10016,SHELBY BAPTIST MEDICAL CENTER,1000 FIRST STREET NORTH,ALABASTER,35007,SHELBY,2056208100,Voluntary non-profit - Church,Pneumonia,239 patients,1
10016,SHELBY BAPTIST MEDICAL CENTER,1000 FIRST STREET NORTH,ALABASTER,35007,SHELBY,2056208100,Voluntary non-profit - Church,Pneumonia,116 patients,1
10016,SHELBY BAPTIST MEDICAL CENTER,1000 FIRST STREET NORTH,ALABASTER,35007,SHELBY,2056208100,Voluntary non-profit - Church,Pneumonia,199 patients,1
10016,SHELBY BAPTIST MEDICAL CENTER,1000 FIRST STREET NORTH,ALABASTER,35007,SHELBY,2056208100,Voluntary non-profit - Church,Surgical Infection Prevention,96 patients,1
10016,SHELBY BAPTIST MEDICAL CENTER,1000 FIRST STREET NORTH,ALABASTER,35007,SHELBY,2056208100,Voluntary non-profit - Church,Surgical Infection Prevention,368 patients,1
10016,SHELBY BAPTIST MEDICAL CENTER,1000 FIRST STREET NORTH,ALABASTER,35007,SHELBY,2056208100,Voluntary non-profit - Church,Surgical Infection Prevention,370 patients,1
10016,SHELBY BAPTIST MEDICAL CENTER,1000 FIRST STREET NORTH,ALABASTER,35007,SHELBY,2056208100,Voluntary non-profit - Church,Surgical Infection Prevention,331 patients,1
10016,SHELBY BAPTIST MEDICAL CENTER,1000 FIRST STREET NORTH,ALABASTER,35007,SHELBY,2056208100,Voluntary non-profit - Church,Surgical Infection Prevention,116 patients,1
10016,SHELBY BAPTIST MEDICAL CENTER,1000 FIRST STREET NORTH,ALABASTER,35007,SHELBY,2056208100,Voluntary non-profit - Church,Surgical Infection Prevention,588 patients,1
10016,SHELBY BAPTIST MEDICAL CENTER,1000 FIRST STREET NORTH,ALABASTER,35007,SHELBY,2056208100,Voluntary non-profit - Church,Surgical Infection Prevention,226 patients,1
10016,SHELBY BAPTIST MEDICAL CENTER,1000 FIRST STREET NORTH,ALABASTER,35007,SHELBY,2056208100,Voluntary non-profit - Church,Surgical Infection Prevention,225 patients,1
10018,CALLAHAN EYE FOUNDATION HOSPITAL,1720 UNIVERSITY BLVD,BIRMINGHAM,35233,JEFFERSON,2053258100,Voluntary non-profit - Private,Heart Attack,Empty,1
10018,CALLAHAN EYE FOUNDATION HOSPITAL,1720 UNIVERSITY BLVD,BIRMINGHAM,35233,JEFFERSON,2053258100,Voluntary non-profit - Private,Heart Attack,Empty,1
10018,CALLAHAN EYE FOUNDATION HOSPITAL,1720 UNIVERSITY BLVD,BIRMINGHAM,35233,JEFFERSON,2053258100,Voluntary non-profit - Private,Heart Attack,Empty,1
10018,CALLAHAN EYE FOUNDATION HOSPITAL,1720 UNIVERSITY BLVD,BIRMINGHAM,35233,JEFFERSON,2053258100,Voluntary non-profit - Private,Heart Attack,Empty,1
10018,CALLAHAN EYE FOUNDATION HOSPITAL,1720 UNIVERSITY BLVD,BIRMINGHAM,35233,JEFFERSON,2053258100,Voluntary non-profit - Private,Heart Attack,Empty,1
10018,CALLAHAN EYE FOUNDATION HOSPITAL,1720 UNIVERSITY BLVD,BIRMINGHAM,35233,JEFFERSON,2053258100,Voluntary non-profit - Private,Heart Attack,Empty,1
10018,CALLAHAN EYE FOUNDATION HOSPITAL,1720 UNIVERSITY BLVD,BIRMINGHAM,35233,JEFFERSON,2053258100,Voluntary non-profit - Private,Heart Attack,Empty,1
10018,CALLAHAN EYE FOUNDATION HOSPITAL,1720 UNIVERSITY BLVD,BIRMINGHAM,35233,JEFFERSON,2053258100,Voluntary non-profit - Private,Heart Failure,Empty,1
10018,CALLAHAN EYE FOUNDATION HOSPITAL,1720 UNIVERSITY BLVD,BIRMINGHAM,35233,JEFFERSON,2053258100,Voluntary non-profit - Private,Heart Failure,Empty,1
10018,CALLAHAN EYE FOUNDATION HOSPITAL,1720 UNIVERSITY BLVD,BIRMINGHAM,35233,JEFFERSON,2053258100,Voluntary non-profit - Private,Heart Failure,Empty,1
10018,CALLAHAN EYE FOUNDATION HOSPITAL,1720 UNIVERSITY BLVD,BIRMINGHAM,35233,JEFFERSON,2053258100,Voluntary non-profit - Private,Heart Failure,Empty,1
10018,CALLAHAN EYE FOUNDATION HOSPITAL,1720 UNIVERSITY BLVD,BIRMINGHAM,35233,JEFFERSON,2053258100,Voluntary non-profit - Private,Pneumonia,Empty,1
10018,CALLAHAN EYE FOUNDATION HOSPITAL,1720 UNIVERSITY BLVD,BIRMINGHAM,35233,JEFFERSON,2053258100,Voluntary non-profit - Private,Pneumonia,Empty,1
10018,CALLAHAN EYE FOUNDATION HOSPITAL,1720 UNIVERSITY BLVD,BIRMINGHAM,35233,JEFFERSON,2053258100,Voluntary non-profit - Private,Pneumonia,Empty,1
10018,CALLAHAN EYE FOUNDATION HOSPITAL,1720 UNIVERSITY BLVD,BIRMINGHAM,35233,JEFFERSON,2053258100,Voluntary non-profit - Private,Pneumonia,Empty,1
10018,CALLAHAN EYE FOUNDATION HOSPITAL,1720 UNIVERSITY BLVD,BIRMINGHAM,35233,JEFFERSON,2053258100,Voluntary non-profit - Private,Pneumonia,Empty,1
10018,CALLAHAN EYE FOUNDATION HOSPITAL,1720 UNIVERSITY BLVD,BIRMINGHAM,35233,JEFFERSON,2053258100,Voluntary non-profit - Private,Pneumonia,Empty,1
10038,STRINGFELLOW MEMORIAL HOSPITAL,301 EAST 18TH ST,ANNISTON,36201,CALHOUN,2562358900,Proprietary,Children s Asthma Care,9 patients,1
10038,STRINGFELLOW MEMORIAL HOSPITAL,301 EAST 18TH ST,ANNISTON,36201,CALHOUN,2562358900,Proprietary,Children s Asthma Care,9 patients,1
10038,STRINGFELLOW MEMORIAL HOSPITAL,301 EAST 18TH ST,ANNISTON,36201,CALHOUN,2562358900,Proprietary,Heart Attack,81 patients,1
10038,STRINGFELLOW MEMORIAL HOSPITAL,301 EAST 18TH ST,ANNISTON,36201,CALHOUN,2562358900,Proprietary,Heart Attack,73 patients,1
10038,STRINGFELLOW MEMORIAL HOSPITAL,301 EAST 18TH ST,ANNISTON,36201,CALHOUN,2562358900,Proprietary,Heart Attack,14 patients,1
10038,STRINGFELLOW MEMORIAL HOSPITAL,301 EAST 18TH ST,ANNISTON,36201,CALHOUN,2562358900,Proprietary,Heart Attack,29 patients,1
10038,STRINGFELLOW MEMORIAL HOSPITAL,301 EAST 18TH ST,ANNISTON,36201,CALHOUN,2562358900,Proprietary,Heart Attack,67 patients,1
10038,STRINGFELLOW MEMORIAL HOSPITAL,301 EAST 18TH ST,ANNISTON,36201,CALHOUN,2562358900,Proprietary,Heart Attack,1 patients,1
10038,STRINGFELLOW MEMORIAL HOSPITAL,301 EAST 18TH ST,ANNISTON,36201,CALHOUN,2562358900,Proprietary,Heart Attack,15 patients,1
10038,STRINGFELLOW MEMORIAL HOSPITAL,301 EAST 18TH ST,ANNISTON,36201,CALHOUN,2562358900,Proprietary,Heart Failure,142 patients,1
10038,STRINGFELLOW MEMORIAL HOSPITAL,301 EAST 18TH ST,ANNISTON,36201,CALHOUN,2562358900,Proprietary,Heart Failure,157 patients,1
10038,STRINGFELLOW MEMORIAL HOSPITAL,301 EAST 18TH ST,ANNISTON,36201,CALHOUN,2562358900,Proprietary,Heart Failure,49 patients,1
10038,STRINGFELLOW MEMORIAL HOSPITAL,301 EAST 18TH ST,ANNISTON,36201,CALHOUN,2562358900,Proprietary,Heart Failure,41 patients,1
10038,STRINGFELLOW MEMORIAL HOSPITAL,301 EAST 18TH ST,ANNISTON,36201,CALHOUN,2562358900,Proprietary,Pneumonia,110 patients,1
10038,STRINGFELLOW MEMORIAL HOSPITAL,301 EAST 18TH ST,ANNISTON,36201,CALHOUN,2562358900,Proprietary,Pneumonia,102 patients,1
10038,STRINGFELLOW MEMORIAL HOSPITAL,301 EAST 18TH ST,ANNISTON,36201,CALHOUN,2562358900,Proprietary,Pneumonia,83 patients,1
10038,STRINGFELLOW MEMORIAL HOSPITAL,301 EAST 18TH ST,ANNISTON,36201,CALHOUN,2562358900,Proprietary,Pneumonia,145 patients,1
10038,STRINGFELLOW MEMORIAL HOSPITAL,301 EAST 18TH ST,ANNISTON,36201,CALHOUN,2562358900,Proprietary,Pneumonia,99 patients,1
10038,STRINGFELLOW MEMORIAL HOSPITAL,301 EAST 18TH ST,ANNISTON,36201,CALHOUN,2562358900,Proprietary,Pneumonia,87 patients,1
10038,STRINGFELLOW MEMORIAL HOSPITAL,301 EAST 18TH ST,ANNISTON,36201,CALHOUN,2562358900,Proprietary,Surgical Infection Prevention,23 patients,1
10055,FLOWERS HOSPITAL,4370 WEST MAIN STREET,DOTHAN,36305,HOUSTON,3347935000,Proprietary,Heart Failure,342 patients,1
10055,FLOWERS HOSPITAL,4370 WEST MAIN STREET,DOTHAN,36305,HOUSTON,3347935000,Proprietary,Heart Failure,94 patients,1
10055,FLOWERS HOSPITAL,4370 WEST MAIN STREET,DOTHAN,36305,HOUSTON,3347935000,Proprietary,Heart Failure,62 patients,1
10055,FLOWERS HOSPITAL,4370 WEST MAIN STREET,DOTHAN,36305,HOUSTON,3347935000,Proprietary,Pneumonia,166 patients,1
10055,FLOWERS HOSPITAL,4370 WEST MAIN STREET,DOTHAN,36305,HOUSTON,3347935000,Proprietary,Pneumonia,152 patients,1
10055,FLOWERS HOSPITAL,4370 WEST MAIN STREET,DOTHAN,36305,HOUSTON,3347935000,Proprietary,Pneumonia,77 patients,1
10055,FLOWERS HOSPITAL,4370 WEST MAIN STREET,DOTHAN,36305,HOUSTON,3347935000,Proprietary,Pneumonia,146 patients,1
10055,FLOWERS HOSPITAL,4370 WEST MAIN STREET,DOTHAN,36305,HOUSTON,3347935000,Proprietary,Pneumonia,112 patients,1
10055,FLOWERS HOSPITAL,4370 WEST MAIN STREET,DOTHAN,36305,HOUSTON,3347935000,Proprietary,Pneumonia,128 patients,1
10055,FLOWERS HOSPITAL,4370 WEST MAIN STREET,DOTHAN,36305,HOUSTON,3347935000,Proprietary,Surgical Infection Prevention,147 patients,1
10055,FLOWERS HOSPITAL,4370 WEST MAIN STREET,DOTHAN,36305,HOUSTON,3347935000,Proprietary,Surgical Infection Prevention,950 patients,1
10055,FLOWERS HOSPITAL,4370 WEST MAIN STREET,DOTHAN,36305,HOUSTON,3347935000,Proprietary,Surgical Infection Prevention,957 patients,1
10055,FLOWERS HOSPITAL,4370 WEST MAIN STREET,DOTHAN,36305,HOUSTON,3347935000,Proprietary,Surgical Infection Prevention,882 patients,1
10055,FLOWERS HOSPITAL,4370 WEST MAIN STREET,DOTHAN,36305,HOUSTON,3347935000,Proprietary,Surgical Infection Prevention,165 patients,1
10055,FLOWERS HOSPITAL,4370 WEST MAIN STREET,DOTHAN,36305,HOUSTON,3347935000,Proprietary,Surgical Infection Prevention,1295 patients,1
10055,FLOWERS HOSPITAL,4370 WEST MAIN STREET,DOTHAN,36305,HOUSTON,3347935000,Proprietary,Surgical Infection Prevention,497 patients,1
10055,FLOWERS HOSPITAL,4370 WEST MAIN STREET,DOTHAN,36305,HOUSTON,3347935000,Proprietary,Surgical Infection Prevention,497 patients,1
10056,ST VINCENTS HOSPITAL,810 ST VINCENTS DRIVE,BIRMINGHAM,35205,JEFFERSON,2059397000,Voluntary non-profit - Other,Heart Attack,239 patients,1
10056,ST VINCENTS HOSPITAL,810 ST VINCENTS DRIVE,BIRMINGHAM,35205,JEFFERSON,2059397000,Voluntary non-profit - Other,Heart Attack,260 patients,1
10056,ST VINCENTS HOSPITAL,810 ST VINCENTS DRIVE,BIRMINGHAM,35205,JEFFERSON,2059397000,Voluntary non-profit - Other,Heart Attack,41 patients,1
10056,ST VINCENTS HOSPITAL,810 ST VINCENTS DRIVE,BIRMINGHAM,35205,JEFFERSON,2059397000,Voluntary non-profit - Other,Heart Attack,63 patients,1
10056,ST VINCENTS HOSPITAL,810 ST VINCENTS DRIVE,BIRMINGHAM,35205,JEFFERSON,2059397000,Voluntary non-profit - Other,Heart Attack,242 patients,1
10085,DECATUR GENERAL HOSPITAL,1201 7TH STREET SE,DECATUR,35609,MORGAN,2563412000,Government - Hospital District or Authority,Surgical Infection Prevention,205 patients,1
10086,NORTHWEST MEDICAL CENTER,1530 U S HIGHWAY 43,WINFIELD,35594,MARION,2054877736,Proprietary,Heart Attack,10 patients,1
10086,NORTHWEST MEDICAL CENTER,1530 U S HIGHWAY 43,WINFIELD,35594,MARION,2054877736,Proprietary,Heart Attack,7 patients,1
10086,NORTHWEST MEDICAL CENTER,1530 U S HIGHWAY 43,WINFIELD,35594,MARION,2054877736,Proprietary,Heart Attack,2 patients,1
10086,NORTHWEST MEDICAL CENTER,1530 U S HIGHWAY 43,WINFIELD,35594,MARION,2054877736,Proprietary,Heart Attack,1 patients,1
10086,NORTHWEST MEDICAL CENTER,1530 U S HIGHWAY 43,WINFIELD,35594,MARION,2054877736,Proprietary,Heart Attack,8 patients,1
10086,NORTHWEST MEDICAL CENTER,1530 U S HIGHWAY 43,WINFIELD,35594,MARION,2054877736,Proprietary,Heart Attack,1 patients,1
10086,NORTHWEST MEDICAL CENTER,1530 U S HIGHWAY 43,WINFIELD,35594,MARION,2054877736,Proprietary,Heart Attack,0 patients,1
10086,NORTHWEST MEDICAL CENTER,1530 U S HIGHWAY 43,WINFIELD,35594,MARION,2054877736,Proprietary,Heart Failure,48 patients,1
10086,NORTHWEST MEDICAL CENTER,1530 U S HIGHWAY 43,WINFIELD,35594,MARION,2054877736,Proprietary,Heart Failure,59 patients,1
10086,NORTHWEST MEDICAL CENTER,1530 U S HIGHWAY 43,WINFIELD,35594,MARION,2054877736,Proprietary,Heart Failure,13 patients,1
10086,NORTHWEST MEDICAL CENTER,1530 U S HIGHWAY 43,WINFIELD,35594,MARION,2054877736,Proprietary,Heart Failure,14 patients,1
10086,NORTHWEST MEDICAL CENTER,1530 U S HIGHWAY 43,WINFIELD,35594,MARION,2054877736,Proprietary,Pneumonia,66 patients,1
10086,NORTHWEST MEDICAL CENTER,1530 U S HIGHWAY 43,WINFIELD,35594,MARION,2054877736,Proprietary,Pneumonia,59 patients,1
10086,NORTHWEST MEDICAL CENTER,1530 U S HIGHWAY 43,WINFIELD,35594,MARION,2054877736,Proprietary,Pneumonia,40 patients,1
10086,NORTHWEST MEDICAL CENTER,1530 U S HIGHWAY 43,WINFIELD,35594,MARION,2054877736,Proprietary,Pneumonia,85 patients,1
10086,NORTHWEST MEDICAL CENTER,1530 U S HIGHWAY 43,WINFIELD,35594,MARION,2054877736,Proprietary,Pneumonia,62 patients,1
10086,NORTHWEST MEDICAL CENTER,1530 U S HIGHWAY 43,WINFIELD,35594,MARION,2054877736,Proprietary,Pneumonia,45 patients,1
10086,NORTHWEST MEDICAL CENTER,1530 U S HIGHWAY 43,WINFIELD,35594,MARION,2054877736,Proprietary,Surgical Infection Prevention,19 patients,1
10086,NORTHWEST MEDICAL CENTER,1530 U S HIGHWAY 43,WINFIELD,35594,MARION,2054877736,Proprietary,Surgical Infection Prevention,102 patients,1
10086,NORTHWEST MEDICAL CENTER,1530 U S HIGHWAY 43,WINFIELD,35594,MARION,2054877736,Proprietary,Surgical Infection Prevention,103 patients,1
10086,NORTHWEST MEDICAL CENTER,1530 U S HIGHWAY 43,WINFIELD,35594,MARION,2054877736,Proprietary,Surgical Infection Prevention,98 patients,1
10086,NORTHWEST MEDICAL CENTER,1530 U S HIGHWAY 43,WINFIELD,35594,MARION,2054877736,Proprietary,Surgical Infection Prevention,0 patients,1
10086,NORTHWEST MEDICAL CENTER,1530 U S HIGHWAY 43,WINFIELD,35594,MARION,2054877736,Proprietary,Surgical Infection Prevention,146 patients,1
10086,NORTHWEST MEDICAL CENTER,1530 U S HIGHWAY 43,WINFIELD,35594,MARION,2054877736,Proprietary,Surgical Infection Prevention,58 patients,1
10086,NORTHWEST MEDICAL CENTER,1530 U S HIGHWAY 43,WINFIELD,35594,MARION,2054877736,Proprietary,Surgical Infection Prevention,58 patients,1
10087,UNIV OF SOUTH ALABAMA MEDICAL CENTER,2451 FILLINGIM STREET,MOBILE,36617,MOBILE,2514717110,Government - State,Heart Attack,86 patients,1
10087,UNIV OF SOUTH ALABAMA MEDICAL CENTER,2451 FILLINGIM STREET,MOBILE,36617,MOBILE,2514717110,Government - State,Heart Attack,91 patients,1
10087,UNIV OF SOUTH ALABAMA MEDICAL CENTER,2451 FILLINGIM STREET,MOBILE,36617,MOBILE,2514717110,Government - State,Heart Attack,22 patients,1
10087,UNIV OF SOUTH ALABAMA MEDICAL CENTER,2451 FILLINGIM STREET,MOBILE,36617,MOBILE,2514717110,Government - State,Heart Attack,58 patients,1
10087,UNIV OF SOUTH ALABAMA MEDICAL CENTER,2451 FILLINGIM STREET,MOBILE,36617,MOBILE,2514717110,Government - State,Heart Attack,96 patients,1
10087,UNIV OF SOUTH ALABAMA MEDICAL CENTER,2451 FILLINGIM STREET,MOBILE,36617,MOBILE,2514717110,Government - State,Heart Attack,0 patients,1
10087,UNIV OF SOUTH ALABAMA MEDICAL CENTER,2451 FILLINGIM STREET,MOBILE,36617,MOBILE,2514717110,Government - State,Heart Attack,16 patients,1
10087,UNIV OF SOUTH ALABAMA MEDICAL CENTER,2451 FILLINGIM STREET,MOBILE,36617,MOBILE,2514717110,Government - State,Heart Failure,146 patients,1
10087,UNIV OF SOUTH ALABAMA MEDICAL CENTER,2451 FILLINGIM STREET,MOBILE,36617,MOBILE,2514717110,Government - State,Heart Failure,150 patients,1
10087,UNIV OF SOUTH ALABAMA MEDICAL CENTER,2451 FILLINGIM STREET,MOBILE,36617,MOBILE,2514717110,Government - State,Heart Failure,84 patients,1
10087,UNIV OF SOUTH ALABAMA MEDICAL CENTER,2451 FILLINGIM STREET,MOBILE,36617,MOBILE,2514717110,Government - State,Heart Failure,45 patients,1
10087,UNIV OF SOUTH ALABAMA MEDICAL CENTER,2451 FILLINGIM STREET,MOBILE,36617,MOBILE,2514717110,Government - State,Pneumonia,7 patients,1
10087,UNIV OF SOUTH ALABAMA MEDICAL CENTER,2451 FILLINGIM STREET,MOBILE,36617,MOBILE,2514717110,Government - State,Pneumonia,35 patients,1
10108,PRATTVILLE BAPTIST HOSPITAL,124 S MEMORIAL DR,PRATTVILLE,36067,AUTAUGA,3343614267,Voluntary non-profit - Private,Heart Attack,4 patients,1
10108,PRATTVILLE BAPTIST HOSPITAL,124 S MEMORIAL DR,PRATTVILLE,36067,AUTAUGA,3343614267,Voluntary non-profit - Private,Heart Attack,3 patients,1
10108,PRATTVILLE BAPTIST HOSPITAL,124 S MEMORIAL DR,PRATTVILLE,36067,AUTAUGA,3343614267,Voluntary non-profit - Private,Heart Attack,0 patients,1
10108,PRATTVILLE BAPTIST HOSPITAL,124 S MEMORIAL DR,PRATTVILLE,36067,AUTAUGA,3343614267,Voluntary non-profit - Private,Heart Attack,5 patients,1
10108,PRATTVILLE BAPTIST HOSPITAL,124 S MEMORIAL DR,PRATTVILLE,36067,AUTAUGA,3343614267,Voluntary non-profit - Private,Heart Attack,0 patients,1
10108,PRATTVILLE BAPTIST HOSPITAL,124 S MEMORIAL DR,PRATTVILLE,36067,AUTAUGA,3343614267,Voluntary non-profit - Private,Heart Attack,0 patients,1
10108,PRATTVILLE BAPTIST HOSPITAL,124 S MEMORIAL DR,PRATTVILLE,36067,AUTAUGA,3343614267,Voluntary non-profit - Private,Heart Failure,75 patients,1
10108,PRATTVILLE BAPTIST HOSPITAL,124 S MEMORIAL DR,PRATTVILLE,36067,AUTAUGA,3343614267,Voluntary non-profit - Private,Heart Failure,93 patients,1
10108,PRATTVILLE BAPTIST HOSPITAL,124 S MEMORIAL DR,PRATTVILLE,36067,AUTAUGA,3343614267,Voluntary non-profit - Private,Heart Failure,18 patients,1
10108,PRATTVILLE BAPTIST HOSPITAL,124 S MEMORIAL DR,PRATTVILLE,36067,AUTAUGA,3343614267,Voluntary non-profit - Private,Heart Failure,27 patients,1
10108,PRATTVILLE BAPTIST HOSPITAL,124 S MEMORIAL DR,PRATTVILLE,36067,AUTAUGA,3343614267,Voluntary non-profit - Private,Pneumonia,116 patients,1
10108,PRATTVILLE BAPTIST HOSPITAL,124 S MEMORIAL DR,PRATTVILLE,36067,AUTAUGA,3343614267,Voluntary non-profit - Private,Pneumonia,138 patients,1
10108,PRATTVILLE BAPTIST HOSPITAL,124 S MEMORIAL DR,PRATTVILLE,36067,AUTAUGA,3343614267,Voluntary non-profit - Private,Pneumonia,67 patients,1
10108,PRATTVILLE BAPTIST HOSPITAL,124 S MEMORIAL DR,PRATTVILLE,36067,AUTAUGA,3343614267,Voluntary non-profit - Private,Pneumonia,131 patients,1
10108,PRATTVILLE BAPTIST HOSPITAL,124 S MEMORIAL DR,PRATTVILLE,36067,AUTAUGA,3343614267,Voluntary non-profit - Private,Pneumonia,93 patients,1
10108,PRATTVILLE BAPTIST HOSPITAL,124 S MEMORIAL DR,PRATTVILLE,36067,AUTAUGA,3343614267,Voluntary non-profit - Private,Pneumonia,89 patients,1
10108,PRATTVILLE BAPTIST HOSPITAL,124 S MEMORIAL DR,PRATTVILLE,36067,AUTAUGA,3343614267,Voluntary non-profit - Private,Surgical Infection Prevention,1 patients,1
10108,PRATTVILLE BAPTIST HOSPITAL,124 S MEMORIAL DR,PRATTVILLE,36067,AUTAUGA,3343614267,Voluntary non-profit - Private,Surgical Infection Prevention,10 patients,1
10108,PRATTVILLE BAPTIST HOSPITAL,124 S MEMORIAL DR,PRATTVILLE,36067,AUTAUGA,3343614267,Voluntary non-profit - Private,Surgical Infection Prevention,10 patients,1
10108,PRATTVILLE BAPTIST HOSPITAL,124 S MEMORIAL DR,PRATTVILLE,36067,AUTAUGA,3343614267,Voluntary non-profit - Private,Surgical Infection Prevention,10 patients,1
10158,RUSSELLVILLE HOSPITAL,15155 HIGHWAY 43,RUSSELLVILLE,35653,FRANKLIN,2563321611,Proprietary,Surgical Infection Prevention,125 patients,1
10158,RUSSELLVILLE HOSPITAL,15155 HIGHWAY 43,RUSSELLVILLE,35653,FRANKLIN,2563321611,Proprietary,Surgical Infection Prevention,125 patients,1
10164,COOSA VALLEY MEDICAL CENTER,315 W HICKORY ST,SYLACAUGA,35150,TALLADEGA,2562495000,Voluntary non-profit - Other,Heart Attack,10 patients,1
10164,COOSA VALLEY MEDICAL CENTER,315 W HICKORY ST,SYLACAUGA,35150,TALLADEGA,2562495000,Voluntary non-profit - Other,Heart Attack,3 patients,1
10164,COOSA VALLEY MEDICAL CENTER,315 W HICKORY ST,SYLACAUGA,35150,TALLADEGA,2562495000,Voluntary non-profit - Other,Heart Attack,1 patients,1
10164,COOSA VALLEY MEDICAL CENTER,315 W HICKORY ST,SYLACAUGA,35150,TALLADEGA,2562495000,Voluntary non-profit - Other,Heart Attack,0 patients,1
10164,COOSA VALLEY MEDICAL CENTER,315 W HICKORY ST,SYLACAUGA,35150,TALLADEGA,2562495000,Voluntary non-profit - Other,Heart Attack,4 patients,1
10164,COOSA VALLEY MEDICAL CENTER,315 W HICKORY ST,SYLACAUGA,35150,TALLADEGA,2562495000,Voluntary non-profit - Other,Heart Attack,0 patients,1
10164,COOSA VALLEY MEDICAL CENTER,315 W HICKORY ST,SYLACAUGA,35150,TALLADEGA,2562495000,Voluntary non-profit - Other,Heart Attack,0 patients,1
10164,COOSA VALLEY MEDICAL CENTER,315 W HICKORY ST,SYLACAUGA,35150,TALLADEGA,2562495000,Voluntary non-profit - Other,Heart Failure,78 patients,1
10164,COOSA VALLEY MEDICAL CENTER,315 W HICKORY ST,SYLACAUGA,35150,TALLADEGA,2562495000,Voluntary non-profit - Other,Heart Failure,105 patients,1
10164,COOSA VALLEY MEDICAL CENTER,315 W HICKORY ST,SYLACAUGA,35150,TALLADEGA,2562495000,Voluntary non-profit - Other,Heart Failure,46 patients,1
10164,COOSA VALLEY MEDICAL CENTER,315 W HICKORY ST,SYLACAUGA,35150,TALLADEGA,2562495000,Voluntary non-profit - Other,Heart Failure,12 patients,1
10164,COOSA VALLEY MEDICAL CENTER,315 W HICKORY ST,SYLACAUGA,35150,TALLADEGA,2562495000,Voluntary non-profit - Other,Pneumonia,69 patients,1
10164,COOSA VALLEY MEDICAL CENTER,315 W HICKORY ST,SYLACAUGA,35150,TALLADEGA,2562495000,Voluntary non-profit - Other,Pneumonia,95 patients,1
10164,COOSA VALLEY MEDICAL CENTER,315 W HICKORY ST,SYLACAUGA,35150,TALLADEGA,2562495000,Voluntary non-profit - Other,Pneumonia,47 patients,1
10164,COOSA VALLEY MEDICAL CENTER,315 W HICKORY ST,SYLACAUGA,35150,TALLADEGA,2562495000,Voluntary non-profit - Other,Pneumonia,101 patients,1
10164,COOSA VALLEY MEDICAL CENTER,315 W HICKORY ST,SYLACAUGA,35150,TALLADEGA,2562495000,Voluntary non-profit - Other,Pneumonia,57 patients,1
10164,COOSA VALLEY MEDICAL CENTER,315 W HICKORY ST,SYLACAUGA,35150,TALLADEGA,2562495000,Voluntary non-profit - Other,Pneumonia,51 patients,1
10164,COOSA VALLEY MEDICAL CENTER,315 W HICKORY ST,SYLACAUGA,35150,TALLADEGA,2562495000,Voluntary non-profit - Other,Surgical Infection Prevention,22 patients,1
20017,ALASKA REGIONAL HOSPITAL,2801 DEBARR ROAD,ANCHORAGE,99508,ANCHORAGE,9072761131,Proprietary,Heart Failure,57 patients,1
20017,ALASKA REGIONAL HOSPITAL,2801 DEBARR ROAD,ANCHORAGE,99508,ANCHORAGE,9072761131,Proprietary,Heart Failure,61 patients,1
20017,ALASKA REGIONAL HOSPITAL,2801 DEBARR ROAD,ANCHORAGE,99508,ANCHORAGE,9072761131,Proprietary,Heart Failure,33 patients,1
20017,ALASKA REGIONAL HOSPITAL,2801 DEBARR ROAD,ANCHORAGE,99508,ANCHORAGE,9072761131,Proprietary,Heart Failure,13 patients,1
20017,ALASKA REGIONAL HOSPITAL,2801 DEBARR ROAD,ANCHORAGE,99508,ANCHORAGE,9072761131,Proprietary,Pneumonia,37 patients,1
20017,ALASKA REGIONAL HOSPITAL,2801 DEBARR ROAD,ANCHORAGE,99508,ANCHORAGE,9072761131,Proprietary,Pneumonia,47 patients,1
20017,ALASKA REGIONAL HOSPITAL,2801 DEBARR ROAD,ANCHORAGE,99508,ANCHORAGE,9072761131,Proprietary,Pneumonia,26 patients,1
20017,ALASKA REGIONAL HOSPITAL,2801 DEBARR ROAD,ANCHORAGE,99508,ANCHORAGE,9072761131,Proprietary,Pneumonia,39 patients,1
20017,ALASKA REGIONAL HOSPITAL,2801 DEBARR ROAD,ANCHORAGE,99508,ANCHORAGE,9072761131,Proprietary,Pneumonia,22 patients,1
20017,ALASKA REGIONAL HOSPITAL,2801 DEBARR ROAD,ANCHORAGE,99508,ANCHORAGE,9072761131,Proprietary,Pneumonia,29 patients,1
20017,ALASKA REGIONAL HOSPITAL,2801 DEBARR ROAD,ANCHORAGE,99508,ANCHORAGE,9072761131,Proprietary,Surgical Infection Prevention,106 patients,1
20017,ALASKA REGIONAL HOSPITAL,2801 DEBARR ROAD,ANCHORAGE,99508,ANCHORAGE,9072761131,Proprietary,Surgical Infection Prevention,513 patients,1
20017,ALASKA REGIONAL HOSPITAL,2801 DEBARR ROAD,ANCHORAGE,99508,ANCHORAGE,9072761131,Proprietary,Surgical Infection Prevention,521 patients,1
20017,ALASKA REGIONAL HOSPITAL,2801 DEBARR ROAD,ANCHORAGE,99508,ANCHORAGE,9072761131,Proprietary,Surgical Infection Prevention,499 patients,1
20017,ALASKA REGIONAL HOSPITAL,2801 DEBARR ROAD,ANCHORAGE,99508,ANCHORAGE,9072761131,Proprietary,Surgical Infection Prevention,146 patients,1
20017,ALASKA REGIONAL HOSPITAL,2801 DEBARR ROAD,ANCHORAGE,99508,ANCHORAGE,9072761131,Proprietary,Surgical Infection Prevention,690 patients,1
20017,ALASKA REGIONAL HOSPITAL,2801 DEBARR ROAD,ANCHORAGE,99508,ANCHORAGE,9072761131,Proprietary,Surgical Infection Prevention,226 patients,1
20017,ALASKA REGIONAL HOSPITAL,2801 DEBARR ROAD,ANCHORAGE,99508,ANCHORAGE,9072761131,Proprietary,Surgical Infection Prevention,223 patients,1
20018,YUKON KUSKOKWIM DELTA REG HOSPITAL,PO BOX 287,BETHEL,99559,BETHEL,9075436300,Government - Federal,Heart Attack,Empty,1
20018,YUKON KUSKOKWIM DELTA REG HOSPITAL,PO BOX 287,BETHEL,99559,BETHEL,9075436300,Government - Federal,Heart Attack,Empty,1
10019,HELEN KELLER MEMORIAL HOSPITAL,1300 SOUTH MONTGOMERY AVENUE,SHEFFIELD,35660,JEFFERSON,2563864556,Government - Hospital District or Authority,Pneumonia,150 patients,1
10019,HELEN KELLER MEMORIAL HOSPITAL,1300 SOUTH MONTGOMERY AVENUE,SHEFFIELD,35660,JEFFERSON,2563864556,Government - Hospital District or Authority,Pneumonia,149 patients,1
10019,HELEN KELLER MEMORIAL HOSPITAL,1300 SOUTH MONTGOMERY AVENUE,SHEFFIELD,35660,JEFFERSON,2563864556,Government - Hospital District or Authority,Pneumonia,79 patients,1
10019,HELEN KELLER MEMORIAL HOSPITAL,1300 SOUTH MONTGOMERY AVENUE,SHEFFIELD,35660,JEFFERSON,2563864556,Government - Hospital District or Authority,Pneumonia,192 patients,1
10019,HELEN KELLER MEMORIAL HOSPITAL,1300 SOUTH MONTGOMERY AVENUE,SHEFFIELD,35660,JEFFERSON,2563864556,Government - Hospital District or Authority,Pneumonia,139 patients,1
10019,HELEN KELLER MEMORIAL HOSPITAL,1300 SOUTH MONTGOMERY AVENUE,SHEFFIELD,35660,JEFFERSON,2563864556,Government - Hospital District or Authority,Pneumonia,119 patients,1
10019,HELEN KELLER MEMORIAL HOSPITAL,1300 SOUTH MONTGOMERY AVENUE,SHEFFIELD,35660,JEFFERSON,2563864556,Government - Hospital District or Authority,Surgical Infection Prevention,54 patients,1
10019,HELEN KELLER MEMORIAL HOSPITAL,1300 SOUTH MONTGOMERY AVENUE,SHEFFIELD,35660,JEFFERSON,2563864556,Government - Hospital District or Authority,Surgical Infection Prevention,253 patients,1
10019,HELEN KELLER MEMORIAL HOSPITAL,1300 SOUTH MONTGOMERY AVENUE,SHEFFIELD,35660,JEFFERSON,2563864556,Government - Hospital District or Authority,Surgical Infection Prevention,255 patients,1
10019,HELEN KELLER MEMORIAL HOSPITAL,1300 SOUTH MONTGOMERY AVENUE,SHEFFIELD,35660,JEFFERSON,2563864556,Government - Hospital District or Authority,Surgical Infection Prevention,245 patients,1
10019,HELEN KELLER MEMORIAL HOSPITAL,1300 SOUTH MONTGOMERY AVENUE,SHEFFIELD,35660,JEFFERSON,2563864556,Government - Hospital District or Authority,Surgical Infection Prevention,0 patients,1
10019,HELEN KELLER MEMORIAL HOSPITAL,1300 SOUTH MONTGOMERY AVENUE,SHEFFIELD,35660,JEFFERSON,2563864556,Government - Hospital District or Authority,Surgical Infection Prevention,369 patients,1
10019,HELEN KELLER MEMORIAL HOSPITAL,1300 SOUTH MONTGOMERY AVENUE,SHEFFIELD,35660,JEFFERSON,2563864556,Government - Hospital District or Authority,Surgical Infection Prevention,144 patients,1
10019,HELEN KELLER MEMORIAL HOSPITAL,1300 SOUTH MONTGOMERY AVENUE,SHEFFIELD,35660,JEFFERSON,2563864556,Government - Hospital District or Authority,Surgical Infection Prevention,142 patients,1
10021,DALE MEDICAL CENTER,126 HOSPITAL AVE,OZARK,36360,DALE,3347742601,Government - Hospital District or Authority,Heart Attack,11 patients,1
10021,DALE MEDICAL CENTER,126 HOSPITAL AVE,OZARK,36360,DALE,3347742601,Government - Hospital District or Authority,Heart Attack,5 patients,1
10021,DALE MEDICAL CENTER,126 HOSPITAL AVE,OZARK,36360,DALE,3347742601,Government - Hospital District or Authority,Heart Attack,0 patients,1
10021,DALE MEDICAL CENTER,126 HOSPITAL AVE,OZARK,36360,DALE,3347742601,Government - Hospital District or Authority,Heart Attack,3 patients,1
10021,DALE MEDICAL CENTER,126 HOSPITAL AVE,OZARK,36360,DALE,3347742601,Government - Hospital District or Authority,Heart Attack,6 patients,1
10021,DALE MEDICAL CENTER,126 HOSPITAL AVE,OZARK,36360,DALE,3347742601,Government - Hospital District or Authority,Heart Attack,2 patients,1
10021,DALE MEDICAL CENTER,126 HOSPITAL AVE,OZARK,36360,DALE,3347742601,Government - Hospital District or Authority,Heart Attack,0 patients,1
10021,DALE MEDICAL CENTER,126 HOSPITAL AVE,OZARK,36360,DALE,3347742601,Government - Hospital District or Authority,Heart Failure,79 patients,1
10021,DALE MEDICAL CENTER,126 HOSPITAL AVE,OZARK,36360,DALE,3347742601,Government - Hospital District or Authority,Heart Failure,94 patients,1
10021,DALE MEDICAL CENTER,126 HOSPITAL AVE,OZARK,36360,DALE,3347742601,Government - Hospital District or Authority,Heart Failure,18 patients,1
10021,DALE MEDICAL CENTER,126 HOSPITAL AVE,OZARK,36360,DALE,3347742601,Government - Hospital District or Authority,Heart Failure,32 patients,1
10021,DALE MEDICAL CENTER,126 HOSPITAL AVE,OZARK,36360,DALE,3347742601,Government - Hospital District or Authority,Pneumonia,80 patients,1
10021,DALE MEDICAL CENTER,126 HOSPITAL AVE,OZARK,36360,DALE,3347742601,Government - Hospital District or Authority,Pneumonia,67 patients,1
10021,DALE MEDICAL CENTER,126 HOSPITAL AVE,OZARK,36360,DALE,3347742601,Government - Hospital District or Authority,Pneumonia,39 patients,1
10021,DALE MEDICAL CENTER,126 HOSPITAL AVE,OZARK,36360,DALE,3347742601,Government - Hospital District or Authority,Pneumonia,74 patients,1
10021,DALE MEDICAL CENTER,126 HOSPITAL AVE,OZARK,36360,DALE,3347742601,Government - Hospital District or Authority,Pneumonia,59 patients,1
10021,DALE MEDICAL CENTER,126 HOSPITAL AVE,OZARK,36360,DALE,3347742601,Government - Hospital District or Authority,Pneumonia,62 patients,1
10021,DALE MEDICAL CENTER,126 HOSPITAL AVE,OZARK,36360,DALE,3347742601,Government - Hospital District or Authority,Surgical Infection Prevention,12 patients,1
10021,DALE MEDICAL CENTER,126 HOSPITAL AVE,OZARK,36360,DALE,3347742601,Government - Hospital District or Authority,Surgical Infection Prevention,52 patients,1
10021,DALE MEDICAL CENTER,126 HOSPITAL AVE,OZARK,36360,DALE,3347742601,Government - Hospital District or Authority,Surgical Infection Prevention,52 patients,1
10021,DALE MEDICAL CENTER,126 HOSPITAL AVE,OZARK,36360,DALE,3347742601,Government - Hospital District or Authority,Surgical Infection Prevention,48 patients,1
10021,DALE MEDICAL CENTER,126 HOSPITAL AVE,OZARK,36360,DALE,3347742601,Government - Hospital District or Authority,Surgical Infection Prevention,0 patients,1
10021,DALE MEDICAL CENTER,126 HOSPITAL AVE,OZARK,36360,DALE,3347742601,Government - Hospital District or Authority,Surgical Infection Prevention,94 patients,1
10021,DALE MEDICAL CENTER,126 HOSPITAL AVE,OZARK,36360,DALE,3347742601,Government - Hospital District or Authority,Surgical Infection Prevention,50 patients,1
10021,DALE MEDICAL CENTER,126 HOSPITAL AVE,OZARK,36360,DALE,3347742601,Government - Hospital District or Authority,Surgical Infection Prevention,50 patients,1
10022,CHEROKEE MEDICAL CENTER,400 NORTHWOOD DR,CENTRE,35960,CHEROKEE,2569275531,Voluntary non-profit - Private,Heart Attack,0 patients,1
10022,CHEROKEE MEDICAL CENTER,400 NORTHWOOD DR,CENTRE,35960,CHEROKEE,2569275531,Voluntary non-profit - Private,Heart Attack,1 patients,1
10022,CHEROKEE MEDICAL CENTER,400 NORTHWOOD DR,CENTRE,35960,CHEROKEE,2569275531,Voluntary non-profit - Private,Heart Attack,0 patients,1
10022,CHEROKEE MEDICAL CENTER,400 NORTHWOOD DR,CENTRE,35960,CHEROKEE,2569275531,Voluntary non-profit - Private,Heart Attack,0 patients,1
10022,CHEROKEE MEDICAL CENTER,400 NORTHWOOD DR,CENTRE,35960,CHEROKEE,2569275531,Voluntary non-profit - Private,Heart Attack,0 patients,1
10022,CHEROKEE MEDICAL CENTER,400 NORTHWOOD DR,CENTRE,35960,CHEROKEE,2569275531,Voluntary non-profit - Private,Heart Attack,0 patients,1
10022,CHEROKEE MEDICAL CENTER,400 NORTHWOOD DR,CENTRE,35960,CHEROKEE,2569275531,Voluntary non-profit - Private,Heart Attack,0 patients,1
10022,CHEROKEE MEDICAL CENTER,400 NORTHWOOD DR,CENTRE,35960,CHEROKEE,2569275531,Voluntary non-profit - Private,Heart Failure,35 patients,1
10022,CHEROKEE MEDICAL CENTER,400 NORTHWOOD DR,CENTRE,35960,CHEROKEE,2569275531,Voluntary non-profit - Private,Heart Failure,48 patients,1
10022,CHEROKEE MEDICAL CENTER,400 NORTHWOOD DR,CENTRE,35960,CHEROKEE,2569275531,Voluntary non-profit - Private,Heart Failure,10 patients,1
10022,CHEROKEE MEDICAL CENTER,400 NORTHWOOD DR,CENTRE,35960,CHEROKEE,2569275531,Voluntary non-profit - Private,Heart Failure,15 patients,1
10022,CHEROKEE MEDICAL CENTER,400 NORTHWOOD DR,CENTRE,35960,CHEROKEE,2569275531,Voluntary non-profit - Private,Pneumonia,44 patients,1
10022,CHEROKEE MEDICAL CENTER,400 NORTHWOOD DR,CENTRE,35960,CHEROKEE,2569275531,Voluntary non-profit - Private,Pneumonia,33 patients,1
10022,CHEROKEE MEDICAL CENTER,400 NORTHWOOD DR,CENTRE,35960,CHEROKEE,2569275531,Voluntary non-profit - Private,Pneumonia,20 patients,1
10022,CHEROKEE MEDICAL CENTER,400 NORTHWOOD DR,CENTRE,35960,CHEROKEE,2569275531,Voluntary non-profit - Private,Pneumonia,56 patients,1
10022,CHEROKEE MEDICAL CENTER,400 NORTHWOOD DR,CENTRE,35960,CHEROKEE,2569275531,Voluntary non-profit - Private,Pneumonia,44 patients,1
10022,CHEROKEE MEDICAL CENTER,400 NORTHWOOD DR,CENTRE,35960,CHEROKEE,2569275531,Voluntary non-profit - Private,Pneumonia,31 patients,1
10022,CHEROKEE MEDICAL CENTER,400 NORTHWOOD DR,CENTRE,35960,CHEROKEE,2569275531,Voluntary non-profit - Private,Surgical Infection Prevention,Empty,1
10022,CHEROKEE MEDICAL CENTER,400 NORTHWOOD DR,CENTRE,35960,CHEROKEE,2569275531,Voluntary non-profit - Private,Surgical Infection Prevention,2 patients,1
10022,CHEROKEE MEDICAL CENTER,400 NORTHWOOD DR,CENTRE,35960,CHEROKEE,2569275531,Voluntary non-profit - Private,Surgical Infection Prevention,2 patients,1
10022,CHEROKEE MEDICAL CENTER,400 NORTHWOOD DR,CENTRE,35960,CHEROKEE,2569275531,Voluntary non-profit - Private,Surgical Infection Prevention,1 patients,1
10022,CHEROKEE MEDICAL CENTER,400 NORTHWOOD DR,CENTRE,35960,CHEROKEE,2569275531,Voluntary non-profit - Private,Surgical Infection Prevention,0 patients,1
10022,CHEROKEE MEDICAL CENTER,400 NORTHWOOD DR,CENTRE,35960,CHEROKEE,2569275531,Voluntary non-profit - Private,Surgical Infection Prevention,6 patients,1
10022,CHEROKEE MEDICAL CENTER,400 NORTHWOOD DR,CENTRE,35960,CHEROKEE,2569275531,Voluntary non-profit - Private,Surgical Infection Prevention,5 patients,1
10022,CHEROKEE MEDICAL CENTER,400 NORTHWOOD DR,CENTRE,35960,CHEROKEE,2569275531,Voluntary non-profit - Private,Surgical Infection Prevention,5 patients,1
10023,BAPTIST MEDICAL CENTER SOUTH,2105 EAST SOUTH BOULEVARD,MONTGOMERY,36116,MONTGOMERY,3342882100,Voluntary non-profit - Church,Heart Attack,134 patients,1
10023,BAPTIST MEDICAL CENTER SOUTH,2105 EAST SOUTH BOULEVARD,MONTGOMERY,36116,MONTGOMERY,3342882100,Voluntary non-profit - Church,Heart Attack,282 patients,1
10023,BAPTIST MEDICAL CENTER SOUTH,2105 EAST SOUTH BOULEVARD,MONTGOMERY,36116,MONTGOMERY,3342882100,Voluntary non-profit - Church,Heart Attack,53 patients,1
10023,BAPTIST MEDICAL CENTER SOUTH,2105 EAST SOUTH BOULEVARD,MONTGOMERY,36116,MONTGOMERY,3342882100,Voluntary non-profit - Church,Heart Attack,119 patients,1
10023,BAPTIST MEDICAL CENTER SOUTH,2105 EAST SOUTH BOULEVARD,MONTGOMERY,36116,MONTGOMERY,3342882100,Voluntary non-profit - Church,Heart Attack,254 patients,1
10023,BAPTIST MEDICAL CENTER SOUTH,2105 EAST SOUTH BOULEVARD,MONTGOMERY,36116,MONTGOMERY,3342882100,Voluntary non-profit - Church,Heart Attack,0 patients,1
10023,BAPTIST MEDICAL CENTER SOUTH,2105 EAST SOUTH BOULEVARD,MONTGOMERY,36116,MONTGOMERY,3342882100,Voluntary non-profit - Church,Heart Attack,27 patients,1
10023,BAPTIST MEDICAL CENTER SOUTH,2105 EAST SOUTH BOULEVARD,MONTGOMERY,36116,MONTGOMERY,3342882100,Voluntary non-profit - Church,Heart Failure,257 patients,1
10023,BAPTIST MEDICAL CENTER SOUTH,2105 EAST SOUTH BOULEVARD,MONTGOMERY,36116,MONTGOMERY,3342882100,Voluntary non-profit - Church,Heart Failure,292 patients,1
10023,BAPTIST MEDICAL CENTER SOUTH,2105 EAST SOUTH BOULEVARD,MONTGOMERY,36116,MONTGOMERY,3342882100,Voluntary non-profit - Church,Heart Failure,98 patients,1
10023,BAPTIST MEDICAL CENTER SOUTH,2105 EAST SOUTH BOULEVARD,MONTGOMERY,36116,MONTGOMERY,3342882100,Voluntary non-profit - Church,Heart Failure,77 patients,1
10023,BAPTIST MEDICAL CENTER SOUTH,2105 EAST SOUTH BOULEVARD,MONTGOMERY,36116,MONTGOMERY,3342882100,Voluntary non-profit - Church,Pneumonia,99 patients,1
10023,BAPTIST MEDICAL CENTER SOUTH,2105 EAST SOUTH BOULEVARD,MONTGOMERY,36116,MONTGOMERY,3342882100,Voluntary non-profit - Church,Pneumonia,103 patients,1
10023,BAPTIST MEDICAL CENTER SOUTH,2105 EAST SOUTH BOULEVARD,MONTGOMERY,36116,MONTGOMERY,3342882100,Voluntary non-profit - Church,Pneumonia,80 patients,1
10023,BAPTIST MEDICAL CENTER SOUTH,2105 EAST SOUTH BOULEVARD,MONTGOMERY,36116,MONTGOMERY,3342882100,Voluntary non-profit - Church,Pneumonia,101 patients,1
10023,BAPTIST MEDICAL CENTER SOUTH,2105 EAST SOUTH BOULEVARD,MONTGOMERY,36116,MONTGOMERY,3342882100,Voluntary non-profit - Church,Pneumonia,71 patients,1
10023,BAPTIST MEDICAL CENTER SOUTH,2105 EAST SOUTH BOULEVARD,MONTGOMERY,36116,MONTGOMERY,3342882100,Voluntary non-profit - Church,Pneumonia,87 patients,1
10023,BAPTIST MEDICAL CENTER SOUTH,2105 EAST SOUTH BOULEVARD,MONTGOMERY,36116,MONTGOMERY,3342882100,Voluntary non-profit - Church,Surgical Infection Prevention,89 patients,1
10023,BAPTIST MEDICAL CENTER SOUTH,2105 EAST SOUTH BOULEVARD,MONTGOMERY,36116,MONTGOMERY,3342882100,Voluntary non-profit - Church,Surgical Infection Prevention,412 patients,1
10023,BAPTIST MEDICAL CENTER SOUTH,2105 EAST SOUTH BOULEVARD,MONTGOMERY,36116,MONTGOMERY,3342882100,Voluntary non-profit - Church,Surgical Infection Prevention,423 patients,1
10023,BAPTIST MEDICAL CENTER SOUTH,2105 EAST SOUTH BOULEVARD,MONTGOMERY,36116,MONTGOMERY,3342882100,Voluntary non-profit - Church,Surgical Infection Prevention,392 patients,1
10023,BAPTIST MEDICAL CENTER SOUTH,2105 EAST SOUTH BOULEVARD,MONTGOMERY,36116,MONTGOMERY,3342882100,Voluntary non-profit - Church,Surgical Infection Prevention,125 patients,1
10023,BAPTIST MEDICAL CENTER SOUTH,2105 EAST SOUTH BOULEVARD,MONTGOMERY,36116,MONTGOMERY,3342882100,Voluntary non-profit - Church,Surgical Infection Prevention,575 patients,1
10023,BAPTIST MEDICAL CENTER SOUTH,2105 EAST SOUTH BOULEVARD,MONTGOMERY,36116,MONTGOMERY,3342882100,Voluntary non-profit - Church,Surgical Infection Prevention,179 patients,1
10023,BAPTIST MEDICAL CENTER SOUTH,2105 EAST SOUTH BOULEVARD,MONTGOMERY,36116,MONTGOMERY,3342882100,Voluntary non-profit - Church,Surgical Infection Prevention,179 patients,1
10024,JACKSON HOSPITAL & CLINIC INC,1725 PINE STREET,MONTGOMERY,36106,MONTGOMERY,3342938000,Voluntary non-profit - Private,Heart Attack,111 patients,1
10024,JACKSON HOSPITAL & CLINIC INC,1725 PINE STREET,MONTGOMERY,36106,MONTGOMERY,3342938000,Voluntary non-profit - Private,Heart Attack,165 patients,1
10024,JACKSON HOSPITAL & CLINIC INC,1725 PINE STREET,MONTGOMERY,36106,MONTGOMERY,3342938000,Voluntary non-profit - Private,Heart Attack,24 patients,1
10024,JACKSON HOSPITAL & CLINIC INC,1725 PINE STREET,MONTGOMERY,36106,MONTGOMERY,3342938000,Voluntary non-profit - Private,Heart Attack,65 patients,1
10024,JACKSON HOSPITAL & CLINIC INC,1725 PINE STREET,MONTGOMERY,36106,MONTGOMERY,3342938000,Voluntary non-profit - Private,Heart Attack,173 patients,1
10024,JACKSON HOSPITAL & CLINIC INC,1725 PINE STREET,MONTGOMERY,36106,MONTGOMERY,3342938000,Voluntary non-profit - Private,Heart Attack,0 patients,1
10024,JACKSON HOSPITAL & CLINIC INC,1725 PINE STREET,MONTGOMERY,36106,MONTGOMERY,3342938000,Voluntary non-profit - Private,Heart Attack,15 patients,1
10024,JACKSON HOSPITAL & CLINIC INC,1725 PINE STREET,MONTGOMERY,36106,MONTGOMERY,3342938000,Voluntary non-profit - Private,Heart Failure,430 patients,1
10024,JACKSON HOSPITAL & CLINIC INC,1725 PINE STREET,MONTGOMERY,36106,MONTGOMERY,3342938000,Voluntary non-profit - Private,Heart Failure,518 patients,1
10024,JACKSON HOSPITAL & CLINIC INC,1725 PINE STREET,MONTGOMERY,36106,MONTGOMERY,3342938000,Voluntary non-profit - Private,Heart Failure,146 patients,1
10024,JACKSON HOSPITAL & CLINIC INC,1725 PINE STREET,MONTGOMERY,36106,MONTGOMERY,3342938000,Voluntary non-profit - Private,Heart Failure,93 patients,1
10024,JACKSON HOSPITAL & CLINIC INC,1725 PINE STREET,MONTGOMERY,36106,MONTGOMERY,3342938000,Voluntary non-profit - Private,Pneumonia,243 patients,1
10024,JACKSON HOSPITAL & CLINIC INC,1725 PINE STREET,MONTGOMERY,36106,MONTGOMERY,3342938000,Voluntary non-profit - Private,Pneumonia,230 patients,1
10024,JACKSON HOSPITAL & CLINIC INC,1725 PINE STREET,MONTGOMERY,36106,MONTGOMERY,3342938000,Voluntary non-profit - Private,Pneumonia,74 patients,1
10024,JACKSON HOSPITAL & CLINIC INC,1725 PINE STREET,MONTGOMERY,36106,MONTGOMERY,3342938000,Voluntary non-profit - Private,Pneumonia,233 patients,1
10024,JACKSON HOSPITAL & CLINIC INC,1725 PINE STREET,MONTGOMERY,36106,MONTGOMERY,3342938000,Voluntary non-profit - Private,Pneumonia,97 patients,1
10024,JACKSON HOSPITAL & CLINIC INC,1725 PINE STREET,MONTGOMERY,36106,MONTGOMERY,3342938000,Voluntary non-profit - Private,Pneumonia,184 patients,1
10024,JACKSON HOSPITAL & CLINIC INC,1725 PINE STREET,MONTGOMERY,36106,MONTGOMERY,3342938000,Voluntary non-profit - Private,Surgical Infection Prevention,180 patients,1
10024,JACKSON HOSPITAL & CLINIC INC,1725 PINE STREET,MONTGOMERY,36106,MONTGOMERY,3342938000,Voluntary non-profit - Private,Surgical Infection Prevention,844 patients,1
10024,JACKSON HOSPITAL & CLINIC INC,1725 PINE STREET,MONTGOMERY,36106,MONTGOMERY,3342938000,Voluntary non-profit - Private,Surgical Infection Prevention,827 patients,1
10024,JACKSON HOSPITAL & CLINIC INC,1725 PINE STREET,MONTGOMERY,36106,MONTGOMERY,3342938000,Voluntary non-profit - Private,Surgical Infection Prevention,817 patients,1
10024,JACKSON HOSPITAL & CLINIC INC,1725 PINE STREET,MONTGOMERY,36106,MONTGOMERY,3342938000,Voluntary non-profit - Private,Surgical Infection Prevention,270 patients,1
10024,JACKSON HOSPITAL & CLINIC INC,1725 PINE STREET,MONTGOMERY,36106,MONTGOMERY,3342938000,Voluntary non-profit - Private,Surgical Infection Prevention,1062 patients,1
10024,JACKSON HOSPITAL & CLINIC INC,1725 PINE STREET,MONTGOMERY,36106,MONTGOMERY,3342938000,Voluntary non-profit - Private,Surgical Infection Prevention,263 patients,1
10024,JACKSON HOSPITAL & CLINIC INC,1725 PINE STREET,MONTGOMERY,36106,MONTGOMERY,3342938000,Voluntary non-profit - Private,Surgical Infection Prevention,259 patients,1
10025,G H LANIER MEMORIAL HOSPITAL,4800 48TH ST,VALLEY,36854,CHAMBERS,3347561400,Voluntary non-profit - Other,Heart Attack,24 patients,1
10025,G H LANIER MEMORIAL HOSPITAL,4800 48TH ST,VALLEY,36854,CHAMBERS,3347561400,Voluntary non-profit - Other,Heart Attack,10 patients,1
10025,G H LANIER MEMORIAL HOSPITAL,4800 48TH ST,VALLEY,36854,CHAMBERS,3347561400,Voluntary non-profit - Other,Heart Attack,1 patients,1
10025,G H LANIER MEMORIAL HOSPITAL,4800 48TH ST,VALLEY,36854,CHAMBERS,3347561400,Voluntary non-profit - Other,Heart Attack,4 patients,1
10025,G H LANIER MEMORIAL HOSPITAL,4800 48TH ST,VALLEY,36854,CHAMBERS,3347561400,Voluntary non-profit - Other,Heart Attack,13 patients,1
10025,G H LANIER MEMORIAL HOSPITAL,4800 48TH ST,VALLEY,36854,CHAMBERS,3347561400,Voluntary non-profit - Other,Heart Attack,2 patients,1
10025,G H LANIER MEMORIAL HOSPITAL,4800 48TH ST,VALLEY,36854,CHAMBERS,3347561400,Voluntary non-profit - Other,Heart Attack,0 patients,1
10025,G H LANIER MEMORIAL HOSPITAL,4800 48TH ST,VALLEY,36854,CHAMBERS,3347561400,Voluntary non-profit - Other,Heart Failure,137 patients,1
10025,G H LANIER MEMORIAL HOSPITAL,4800 48TH ST,VALLEY,36854,CHAMBERS,3347561400,Voluntary non-profit - Other,Heart Failure,164 patients,1
10025,G H LANIER MEMORIAL HOSPITAL,4800 48TH ST,VALLEY,36854,CHAMBERS,3347561400,Voluntary non-profit - Other,Heart Failure,75 patients,1
10025,G H LANIER MEMORIAL HOSPITAL,4800 48TH ST,VALLEY,36854,CHAMBERS,3347561400,Voluntary non-profit - Other,Heart Failure,38 patients,1
10025,G H LANIER MEMORIAL HOSPITAL,4800 48TH ST,VALLEY,36854,CHAMBERS,3347561400,Voluntary non-profit - Other,Pneumonia,55 patients,1
10025,G H LANIER MEMORIAL HOSPITAL,4800 48TH ST,VALLEY,36854,CHAMBERS,3347561400,Voluntary non-profit - Other,Pneumonia,43 patients,1
10025,G H LANIER MEMORIAL HOSPITAL,4800 48TH ST,VALLEY,36854,CHAMBERS,3347561400,Voluntary non-profit - Other,Pneumonia,34 patients,1
10025,G H LANIER MEMORIAL HOSPITAL,4800 48TH ST,VALLEY,36854,CHAMBERS,3347561400,Voluntary non-profit - Other,Pneumonia,50 patients,1
10025,G H LANIER MEMORIAL HOSPITAL,4800 48TH ST,VALLEY,36854,CHAMBERS,3347561400,Voluntary non-profit - Other,Pneumonia,52 patients,1
10025,G H LANIER MEMORIAL HOSPITAL,4800 48TH ST,VALLEY,36854,CHAMBERS,3347561400,Voluntary non-profit - Other,Pneumonia,60 patients,1
10025,G H LANIER MEMORIAL HOSPITAL,4800 48TH ST,VALLEY,36854,CHAMBERS,3347561400,Voluntary non-profit - Other,Surgical Infection Prevention,19 patients,1
10025,G H LANIER MEMORIAL HOSPITAL,4800 48TH ST,VALLEY,36854,CHAMBERS,3347561400,Voluntary non-profit - Other,Surgical Infection Prevention,117 patients,1
10025,G H LANIER MEMORIAL HOSPITAL,4800 48TH ST,VALLEY,36854,CHAMBERS,3347561400,Voluntary non-profit - Other,Surgical Infection Prevention,118 patients,1
10025,G H LANIER MEMORIAL HOSPITAL,4800 48TH ST,VALLEY,36854,CHAMBERS,3347561400,Voluntary non-profit - Other,Surgical Infection Prevention,116 patients,1
10025,G H LANIER MEMORIAL HOSPITAL,4800 48TH ST,VALLEY,36854,CHAMBERS,3347561400,Voluntary non-profit - Other,Surgical Infection Prevention,0 patients,1
10025,G H LANIER MEMORIAL HOSPITAL,4800 48TH ST,VALLEY,36854,CHAMBERS,3347561400,Voluntary non-profit - Other,Surgical Infection Prevention,172 patients,1
10025,G H LANIER MEMORIAL HOSPITAL,4800 48TH ST,VALLEY,36854,CHAMBERS,3347561400,Voluntary non-profit - Other,Surgical Infection Prevention,85 patients,1
10025,G H LANIER MEMORIAL HOSPITAL,4800 48TH ST,VALLEY,36854,CHAMBERS,3347561400,Voluntary non-profit - Other,Surgical Infection Prevention,84 patients,1
10027,ELBA GENERAL HOSPITAL,987 DRAYTON STREET,ELBA,36323,COFFEE,3348972257,Voluntary non-profit - Other,Heart Attack,Empty,1
10027,ELBA GENERAL HOSPITAL,987 DRAYTON STREET,ELBA,36323,COFFEE,3348972257,Voluntary non-profit - Other,Heart Attack,Empty,1
10027,ELBA GENERAL HOSPITAL,987 DRAYTON STREET,ELBA,36323,COFFEE,3348972257,Voluntary non-profit - Other,Heart Attack,Empty,1
10027,ELBA GENERAL HOSPITAL,987 DRAYTON STREET,ELBA,36323,COFFEE,3348972257,Voluntary non-profit - Other,Heart Attack,Empty,1
10027,ELBA GENERAL HOSPITAL,987 DRAYTON STREET,ELBA,36323,COFFEE,3348972257,Voluntary non-profit - Other,Heart Attack,Empty,1
10027,ELBA GENERAL HOSPITAL,987 DRAYTON STREET,ELBA,36323,COFFEE,3348972257,Voluntary non-profit - Other,Heart Attack,Empty,1
10027,ELBA GENERAL HOSPITAL,987 DRAYTON STREET,ELBA,36323,COFFEE,3348972257,Voluntary non-profit - Other,Heart Attack,Empty,1
10027,ELBA GENERAL HOSPITAL,987 DRAYTON STREET,ELBA,36323,COFFEE,3348972257,Voluntary non-profit - Other,Heart Failure,2 patients,1
10027,ELBA GENERAL HOSPITAL,987 DRAYTON STREET,ELBA,36323,COFFEE,3348972257,Voluntary non-profit - Other,Heart Failure,3 patients,1
10027,ELBA GENERAL HOSPITAL,987 DRAYTON STREET,ELBA,36323,COFFEE,3348972257,Voluntary non-profit - Other,Heart Failure,0 patients,1
10027,ELBA GENERAL HOSPITAL,987 DRAYTON STREET,ELBA,36323,COFFEE,3348972257,Voluntary non-profit - Other,Heart Failure,0 patients,1
10027,ELBA GENERAL HOSPITAL,987 DRAYTON STREET,ELBA,36323,COFFEE,3348972257,Voluntary non-profit - Other,Pneumonia,31 patients,1
10027,ELBA GENERAL HOSPITAL,987 DRAYTON STREET,ELBA,36323,COFFEE,3348972257,Voluntary non-profit - Other,Pneumonia,19 patients,1
10027,ELBA GENERAL HOSPITAL,987 DRAYTON STREET,ELBA,36323,COFFEE,3348972257,Voluntary non-profit - Other,Pneumonia,12 patients,1
10027,ELBA GENERAL HOSPITAL,987 DRAYTON STREET,ELBA,36323,COFFEE,3348972257,Voluntary non-profit - Other,Pneumonia,40 patients,1
10027,ELBA GENERAL HOSPITAL,987 DRAYTON STREET,ELBA,36323,COFFEE,3348972257,Voluntary non-profit - Other,Pneumonia,30 patients,1
10027,ELBA GENERAL HOSPITAL,987 DRAYTON STREET,ELBA,36323,COFFEE,3348972257,Voluntary non-profit - Other,Pneumonia,23 patients,1
10027,ELBA GENERAL HOSPITAL,987 DRAYTON STREET,ELBA,36323,COFFEE,3348972257,Voluntary non-profit - Other,Surgical Infection Prevention,Empty,1
10027,ELBA GENERAL HOSPITAL,987 DRAYTON STREET,ELBA,36323,COFFEE,3348972257,Voluntary non-profit - Other,Surgical Infection Prevention,Empty,1
10027,ELBA GENERAL HOSPITAL,987 DRAYTON STREET,ELBA,36323,COFFEE,3348972257,Voluntary non-profit - Other,Surgical Infection Prevention,Empty,1
10027,ELBA GENERAL HOSPITAL,987 DRAYTON STREET,ELBA,36323,COFFEE,3348972257,Voluntary non-profit - Other,Surgical Infection Prevention,Empty,1
10027,ELBA GENERAL HOSPITAL,987 DRAYTON STREET,ELBA,36323,COFFEE,3348972257,Voluntary non-profit - Other,Surgical Infection Prevention,Empty,1
10027,ELBA GENERAL HOSPITAL,987 DRAYTON STREET,ELBA,36323,COFFEE,3348972257,Voluntary non-profit - Other,Surgical Infection Prevention,Empty,1
10027,ELBA GENERAL HOSPITAL,987 DRAYTON STREET,ELBA,36323,COFFEE,3348972257,Voluntary non-profit - Other,Surgical Infection Prevention,Empty,1
10027,ELBA GENERAL HOSPITAL,987 DRAYTON STREET,ELBA,36323,COFFEE,3348972257,Voluntary non-profit - Other,Surgical Infection Prevention,Empty,1
10029,EAST ALABAMA MEDICAL CENTER AND SNF,2000 PEPPERELL PARKWAY,OPELIKA,36801,LEE,3347493411,Government - Hospital District or Authority,Heart Attack,185 patients,1
10029,EAST ALABAMA MEDICAL CENTER AND SNF,2000 PEPPERELL PARKWAY,OPELIKA,36801,LEE,3347493411,Government - Hospital District or Authority,Heart Attack,290 patients,1
10029,EAST ALABAMA MEDICAL CENTER AND SNF,2000 PEPPERELL PARKWAY,OPELIKA,36801,LEE,3347493411,Government - Hospital District or Authority,Heart Attack,72 patients,1
10029,EAST ALABAMA MEDICAL CENTER AND SNF,2000 PEPPERELL PARKWAY,OPELIKA,36801,LEE,3347493411,Government - Hospital District or Authority,Heart Attack,122 patients,1
10029,EAST ALABAMA MEDICAL CENTER AND SNF,2000 PEPPERELL PARKWAY,OPELIKA,36801,LEE,3347493411,Government - Hospital District or Authority,Heart Attack,281 patients,1
10029,EAST ALABAMA MEDICAL CENTER AND SNF,2000 PEPPERELL PARKWAY,OPELIKA,36801,LEE,3347493411,Government - Hospital District or Authority,Heart Attack,0 patients,1
10029,EAST ALABAMA MEDICAL CENTER AND SNF,2000 PEPPERELL PARKWAY,OPELIKA,36801,LEE,3347493411,Government - Hospital District or Authority,Heart Attack,26 patients,1
10029,EAST ALABAMA MEDICAL CENTER AND SNF,2000 PEPPERELL PARKWAY,OPELIKA,36801,LEE,3347493411,Government - Hospital District or Authority,Heart Failure,527 patients,1
10029,EAST ALABAMA MEDICAL CENTER AND SNF,2000 PEPPERELL PARKWAY,OPELIKA,36801,LEE,3347493411,Government - Hospital District or Authority,Heart Failure,570 patients,1
10029,EAST ALABAMA MEDICAL CENTER AND SNF,2000 PEPPERELL PARKWAY,OPELIKA,36801,LEE,3347493411,Government - Hospital District or Authority,Heart Failure,272 patients,1
10029,EAST ALABAMA MEDICAL CENTER AND SNF,2000 PEPPERELL PARKWAY,OPELIKA,36801,LEE,3347493411,Government - Hospital District or Authority,Heart Failure,101 patients,1
10029,EAST ALABAMA MEDICAL CENTER AND SNF,2000 PEPPERELL PARKWAY,OPELIKA,36801,LEE,3347493411,Government - Hospital District or Authority,Pneumonia,114 patients,1
10029,EAST ALABAMA MEDICAL CENTER AND SNF,2000 PEPPERELL PARKWAY,OPELIKA,36801,LEE,3347493411,Government - Hospital District or Authority,Pneumonia,129 patients,1
10029,EAST ALABAMA MEDICAL CENTER AND SNF,2000 PEPPERELL PARKWAY,OPELIKA,36801,LEE,3347493411,Government - Hospital District or Authority,Pneumonia,59 patients,1
10029,EAST ALABAMA MEDICAL CENTER AND SNF,2000 PEPPERELL PARKWAY,OPELIKA,36801,LEE,3347493411,Government - Hospital District or Authority,Pneumonia,153 patients,1
10029,EAST ALABAMA MEDICAL CENTER AND SNF,2000 PEPPERELL PARKWAY,OPELIKA,36801,LEE,3347493411,Government - Hospital District or Authority,Pneumonia,115 patients,1
10029,EAST ALABAMA MEDICAL CENTER AND SNF,2000 PEPPERELL PARKWAY,OPELIKA,36801,LEE,3347493411,Government - Hospital District or Authority,Pneumonia,89 patients,1
10029,EAST ALABAMA MEDICAL CENTER AND SNF,2000 PEPPERELL PARKWAY,OPELIKA,36801,LEE,3347493411,Government - Hospital District or Authority,Surgical Infection Prevention,208 patients,1
10029,EAST ALABAMA MEDICAL CENTER AND SNF,2000 PEPPERELL PARKWAY,OPELIKA,36801,LEE,3347493411,Government - Hospital District or Authority,Surgical Infection Prevention,1001 patients,1
10029,EAST ALABAMA MEDICAL CENTER AND SNF,2000 PEPPERELL PARKWAY,OPELIKA,36801,LEE,3347493411,Government - Hospital District or Authority,Surgical Infection Prevention,1016 patients,1
10029,EAST ALABAMA MEDICAL CENTER AND SNF,2000 PEPPERELL PARKWAY,OPELIKA,36801,LEE,3347493411,Government - Hospital District or Authority,Surgical Infection Prevention,962 patients,1
10029,EAST ALABAMA MEDICAL CENTER AND SNF,2000 PEPPERELL PARKWAY,OPELIKA,36801,LEE,3347493411,Government - Hospital District or Authority,Surgical Infection Prevention,241 patients,1
10029,EAST ALABAMA MEDICAL CENTER AND SNF,2000 PEPPERELL PARKWAY,OPELIKA,36801,LEE,3347493411,Government - Hospital District or Authority,Surgical Infection Prevention,1421 patients,1
10029,EAST ALABAMA MEDICAL CENTER AND SNF,2000 PEPPERELL PARKWAY,OPELIKA,36801,LEE,3347493411,Government - Hospital District or Authority,Surgical Infection Prevention,473 patients,1
10029,EAST ALABAMA MEDICAL CENTER AND SNF,2000 PEPPERELL PARKWAY,OPELIKA,36801,LEE,3347493411,Government - Hospital District or Authority,Surgical Infection Prevention,473 patients,1
10032,WEDOWEE HOSPITAL,209 NORTH MAIN STREET,WEDOWEE,36278,RANDOLPH,2563572111,Government - Local,Heart Attack,4 patients,1
10032,WEDOWEE HOSPITAL,209 NORTH MAIN STREET,WEDOWEE,36278,RANDOLPH,2563572111,Government - Local,Heart Attack,3 patients,1
10032,WEDOWEE HOSPITAL,209 NORTH MAIN STREET,WEDOWEE,36278,RANDOLPH,2563572111,Government - Local,Heart Attack,0 patients,1
10032,WEDOWEE HOSPITAL,209 NORTH MAIN STREET,WEDOWEE,36278,RANDOLPH,2563572111,Government - Local,Heart Attack,0 patients,1
10032,WEDOWEE HOSPITAL,209 NORTH MAIN STREET,WEDOWEE,36278,RANDOLPH,2563572111,Government - Local,Heart Attack,3 patients,1
10032,WEDOWEE HOSPITAL,209 NORTH MAIN STREET,WEDOWEE,36278,RANDOLPH,2563572111,Government - Local,Heart Attack,0 patients,1
10032,WEDOWEE HOSPITAL,209 NORTH MAIN STREET,WEDOWEE,36278,RANDOLPH,2563572111,Government - Local,Heart Attack,0 patients,1
10032,WEDOWEE HOSPITAL,209 NORTH MAIN STREET,WEDOWEE,36278,RANDOLPH,2563572111,Government - Local,Heart Failure,34 patients,1
10032,WEDOWEE HOSPITAL,209 NORTH MAIN STREET,WEDOWEE,36278,RANDOLPH,2563572111,Government - Local,Heart Failure,39 patients,1
10032,WEDOWEE HOSPITAL,209 NORTH MAIN STREET,WEDOWEE,36278,RANDOLPH,2563572111,Government - Local,Heart Failure,4 patients,1
10032,WEDOWEE HOSPITAL,209 NORTH MAIN STREET,WEDOWEE,36278,RANDOLPH,2563572111,Government - Local,Heart Failure,2 patients,1
10032,WEDOWEE HOSPITAL,209 NORTH MAIN STREET,WEDOWEE,36278,RANDOLPH,2563572111,Government - Local,Pneumonia,28 patients,1
10032,WEDOWEE HOSPITAL,209 NORTH MAIN STREET,WEDOWEE,36278,RANDOLPH,2563572111,Government - Local,Pneumonia,14 patients,1
10032,WEDOWEE HOSPITAL,209 NORTH MAIN STREET,WEDOWEE,36278,RANDOLPH,2563572111,Government - Local,Pneumonia,6 patients,1
10032,WEDOWEE HOSPITAL,209 NORTH MAIN STREET,WEDOWEE,36278,RANDOLPH,2563572111,Government - Local,Pneumonia,30 patients,1
10032,WEDOWEE HOSPITAL,209 NORTH MAIN STREET,WEDOWEE,36278,RANDOLPH,2563572111,Government - Local,Pneumonia,23 patients,1
10032,WEDOWEE HOSPITAL,209 NORTH MAIN STREET,WEDOWEE,36278,RANDOLPH,2563572111,Government - Local,Pneumonia,16 patients,1
10032,WEDOWEE HOSPITAL,209 NORTH MAIN STREET,WEDOWEE,36278,RANDOLPH,2563572111,Government - Local,Surgical Infection Prevention,Empty,1
10032,WEDOWEE HOSPITAL,209 NORTH MAIN STREET,WEDOWEE,36278,RANDOLPH,2563572111,Government - Local,Surgical Infection Prevention,Empty,1
10032,WEDOWEE HOSPITAL,209 NORTH MAIN STREET,WEDOWEE,36278,RANDOLPH,2563572111,Government - Local,Surgical Infection Prevention,Empty,1
10032,WEDOWEE HOSPITAL,209 NORTH MAIN STREET,WEDOWEE,36278,RANDOLPH,2563572111,Government - Local,Surgical Infection Prevention,Empty,1
10032,WEDOWEE HOSPITAL,209 NORTH MAIN STREET,WEDOWEE,36278,RANDOLPH,2563572111,Government - Local,Surgical Infection Prevention,Empty,1
10032,WEDOWEE HOSPITAL,209 NORTH MAIN STREET,WEDOWEE,36278,RANDOLPH,2563572111,Government - Local,Surgical Infection Prevention,Empty,1
10032,WEDOWEE HOSPITAL,209 NORTH MAIN STREET,WEDOWEE,36278,RANDOLPH,2563572111,Government - Local,Surgical Infection Prevention,Empty,1
10032,WEDOWEE HOSPITAL,209 NORTH MAIN STREET,WEDOWEE,36278,RANDOLPH,2563572111,Government - Local,Surgical Infection Prevention,Empty,1
10033,UNIVERSITY OF ALABAMA HOSPITAL,619 SOUTH 19TH STREET,BIRMINGHAM,35233,JEFFERSON,2059344011,Government - State,Heart Attack,229 patients,1
10033,UNIVERSITY OF ALABAMA HOSPITAL,619 SOUTH 19TH STREET,BIRMINGHAM,35233,JEFFERSON,2059344011,Government - State,Heart Attack,316 patients,1
10033,UNIVERSITY OF ALABAMA HOSPITAL,619 SOUTH 19TH STREET,BIRMINGHAM,35233,JEFFERSON,2059344011,Government - State,Heart Attack,87 patients,1
10033,UNIVERSITY OF ALABAMA HOSPITAL,619 SOUTH 19TH STREET,BIRMINGHAM,35233,JEFFERSON,2059344011,Government - State,Heart Attack,147 patients,1
10033,UNIVERSITY OF ALABAMA HOSPITAL,619 SOUTH 19TH STREET,BIRMINGHAM,35233,JEFFERSON,2059344011,Government - State,Heart Attack,331 patients,1
10033,UNIVERSITY OF ALABAMA HOSPITAL,619 SOUTH 19TH STREET,BIRMINGHAM,35233,JEFFERSON,2059344011,Government - State,Heart Attack,0 patients,1
10033,UNIVERSITY OF ALABAMA HOSPITAL,619 SOUTH 19TH STREET,BIRMINGHAM,35233,JEFFERSON,2059344011,Government - State,Heart Attack,47 patients,1
10033,UNIVERSITY OF ALABAMA HOSPITAL,619 SOUTH 19TH STREET,BIRMINGHAM,35233,JEFFERSON,2059344011,Government - State,Heart Failure,618 patients,1
10033,UNIVERSITY OF ALABAMA HOSPITAL,619 SOUTH 19TH STREET,BIRMINGHAM,35233,JEFFERSON,2059344011,Government - State,Heart Failure,681 patients,1
10033,UNIVERSITY OF ALABAMA HOSPITAL,619 SOUTH 19TH STREET,BIRMINGHAM,35233,JEFFERSON,2059344011,Government - State,Heart Failure,343 patients,1
10033,UNIVERSITY OF ALABAMA HOSPITAL,619 SOUTH 19TH STREET,BIRMINGHAM,35233,JEFFERSON,2059344011,Government - State,Heart Failure,130 patients,1
10033,UNIVERSITY OF ALABAMA HOSPITAL,619 SOUTH 19TH STREET,BIRMINGHAM,35233,JEFFERSON,2059344011,Government - State,Pneumonia,247 patients,1
10033,UNIVERSITY OF ALABAMA HOSPITAL,619 SOUTH 19TH STREET,BIRMINGHAM,35233,JEFFERSON,2059344011,Government - State,Pneumonia,378 patients,1
10033,UNIVERSITY OF ALABAMA HOSPITAL,619 SOUTH 19TH STREET,BIRMINGHAM,35233,JEFFERSON,2059344011,Government - State,Pneumonia,169 patients,1
10033,UNIVERSITY OF ALABAMA HOSPITAL,619 SOUTH 19TH STREET,BIRMINGHAM,35233,JEFFERSON,2059344011,Government - State,Pneumonia,357 patients,1
10033,UNIVERSITY OF ALABAMA HOSPITAL,619 SOUTH 19TH STREET,BIRMINGHAM,35233,JEFFERSON,2059344011,Government - State,Pneumonia,155 patients,1
10033,UNIVERSITY OF ALABAMA HOSPITAL,619 SOUTH 19TH STREET,BIRMINGHAM,35233,JEFFERSON,2059344011,Government - State,Pneumonia,242 patients,1
10033,UNIVERSITY OF ALABAMA HOSPITAL,619 SOUTH 19TH STREET,BIRMINGHAM,35233,JEFFERSON,2059344011,Government - State,Surgical Infection Prevention,94 patients,1
10033,UNIVERSITY OF ALABAMA HOSPITAL,619 SOUTH 19TH STREET,BIRMINGHAM,35233,JEFFERSON,2059344011,Government - State,Surgical Infection Prevention,324 patients,1
10033,UNIVERSITY OF ALABAMA HOSPITAL,619 SOUTH 19TH STREET,BIRMINGHAM,35233,JEFFERSON,2059344011,Government - State,Surgical Infection Prevention,350 patients,1
10033,UNIVERSITY OF ALABAMA HOSPITAL,619 SOUTH 19TH STREET,BIRMINGHAM,35233,JEFFERSON,2059344011,Government - State,Surgical Infection Prevention,317 patients,1
10033,UNIVERSITY OF ALABAMA HOSPITAL,619 SOUTH 19TH STREET,BIRMINGHAM,35233,JEFFERSON,2059344011,Government - State,Surgical Infection Prevention,140 patients,1
10033,UNIVERSITY OF ALABAMA HOSPITAL,619 SOUTH 19TH STREET,BIRMINGHAM,35233,JEFFERSON,2059344011,Government - State,Surgical Infection Prevention,585 patients,1
10033,UNIVERSITY OF ALABAMA HOSPITAL,619 SOUTH 19TH STREET,BIRMINGHAM,35233,JEFFERSON,2059344011,Government - State,Surgical Infection Prevention,230 patients,1
10033,UNIVERSITY OF ALABAMA HOSPITAL,619 SOUTH 19TH STREET,BIRMINGHAM,35233,JEFFERSON,2059344011,Government - State,Surgical Infection Prevention,224 patients,1
10034,COMMUNITY HOSPITAL INC,805 FRIENDSHIP ROAD,TALLASSEE,36078,ELMORE,3342836541,Voluntary non-profit - Private,Heart Attack,13 patients,1
10034,COMMUNITY HOSPITAL INC,805 FRIENDSHIP ROAD,TALLASSEE,36078,ELMORE,3342836541,Voluntary non-profit - Private,Heart Attack,4 patients,1
10034,COMMUNITY HOSPITAL INC,805 FRIENDSHIP ROAD,TALLASSEE,36078,ELMORE,3342836541,Voluntary non-profit - Private,Heart Attack,1 patients,1
10034,COMMUNITY HOSPITAL INC,805 FRIENDSHIP ROAD,TALLASSEE,36078,ELMORE,3342836541,Voluntary non-profit - Private,Heart Attack,0 patients,1
10034,COMMUNITY HOSPITAL INC,805 FRIENDSHIP ROAD,TALLASSEE,36078,ELMORE,3342836541,Voluntary non-profit - Private,Heart Attack,4 patients,1
10034,COMMUNITY HOSPITAL INC,805 FRIENDSHIP ROAD,TALLASSEE,36078,ELMORE,3342836541,Voluntary non-profit - Private,Heart Attack,0 patients,1
10034,COMMUNITY HOSPITAL INC,805 FRIENDSHIP ROAD,TALLASSEE,36078,ELMORE,3342836541,Voluntary non-profit - Private,Heart Attack,0 patients,1
10034,COMMUNITY HOSPITAL INC,805 FRIENDSHIP ROAD,TALLASSEE,36078,ELMORE,3342836541,Voluntary non-profit - Private,Heart Failure,65 patients,1
10034,COMMUNITY HOSPITAL INC,805 FRIENDSHIP ROAD,TALLASSEE,36078,ELMORE,3342836541,Voluntary non-profit - Private,Heart Failure,87 patients,1
10034,COMMUNITY HOSPITAL INC,805 FRIENDSHIP ROAD,TALLASSEE,36078,ELMORE,3342836541,Voluntary non-profit - Private,Heart Failure,30 patients,1
10034,COMMUNITY HOSPITAL INC,805 FRIENDSHIP ROAD,TALLASSEE,36078,ELMORE,3342836541,Voluntary non-profit - Private,Heart Failure,9 patients,1
10034,COMMUNITY HOSPITAL INC,805 FRIENDSHIP ROAD,TALLASSEE,36078,ELMORE,3342836541,Voluntary non-profit - Private,Pneumonia,70 patients,1
10034,COMMUNITY HOSPITAL INC,805 FRIENDSHIP ROAD,TALLASSEE,36078,ELMORE,3342836541,Voluntary non-profit - Private,Pneumonia,76 patients,1
10034,COMMUNITY HOSPITAL INC,805 FRIENDSHIP ROAD,TALLASSEE,36078,ELMORE,3342836541,Voluntary non-profit - Private,Pneumonia,41 patients,1
10034,COMMUNITY HOSPITAL INC,805 FRIENDSHIP ROAD,TALLASSEE,36078,ELMORE,3342836541,Voluntary non-profit - Private,Pneumonia,71 patients,1
10034,COMMUNITY HOSPITAL INC,805 FRIENDSHIP ROAD,TALLASSEE,36078,ELMORE,3342836541,Voluntary non-profit - Private,Pneumonia,52 patients,1
10034,COMMUNITY HOSPITAL INC,805 FRIENDSHIP ROAD,TALLASSEE,36078,ELMORE,3342836541,Voluntary non-profit - Private,Pneumonia,56 patients,1
10034,COMMUNITY HOSPITAL INC,805 FRIENDSHIP ROAD,TALLASSEE,36078,ELMORE,3342836541,Voluntary non-profit - Private,Surgical Infection Prevention,3 patients,1
10034,COMMUNITY HOSPITAL INC,805 FRIENDSHIP ROAD,TALLASSEE,36078,ELMORE,3342836541,Voluntary non-profit - Private,Surgical Infection Prevention,10 patients,1
10034,COMMUNITY HOSPITAL INC,805 FRIENDSHIP ROAD,TALLASSEE,36078,ELMORE,3342836541,Voluntary non-profit - Private,Surgical Infection Prevention,10 patients,1
10034,COMMUNITY HOSPITAL INC,805 FRIENDSHIP ROAD,TALLASSEE,36078,ELMORE,3342836541,Voluntary non-profit - Private,Surgical Infection Prevention,9 patients,1
10034,COMMUNITY HOSPITAL INC,805 FRIENDSHIP ROAD,TALLASSEE,36078,ELMORE,3342836541,Voluntary non-profit - Private,Surgical Infection Prevention,0 patients,1
10034,COMMUNITY HOSPITAL INC,805 FRIENDSHIP ROAD,TALLASSEE,36078,ELMORE,3342836541,Voluntary non-profit - Private,Surgical Infection Prevention,33 patients,1
10034,COMMUNITY HOSPITAL INC,805 FRIENDSHIP ROAD,TALLASSEE,36078,ELMORE,3342836541,Voluntary non-profit - Private,Surgical Infection Prevention,24 patients,1
10034,COMMUNITY HOSPITAL INC,805 FRIENDSHIP ROAD,TALLASSEE,36078,ELMORE,3342836541,Voluntary non-profit - Private,Surgical Infection Prevention,24 patients,1
10035,CULLMAN REGIONAL MEDICAL CENTER,1912 ALABAMA HIGHWAY 157,CULLMAN,35058,CULLMAN,2567372000,Government - Hospital District or Authority,Heart Attack,51 patients,1
10035,CULLMAN REGIONAL MEDICAL CENTER,1912 ALABAMA HIGHWAY 157,CULLMAN,35058,CULLMAN,2567372000,Government - Hospital District or Authority,Heart Attack,26 patients,1
10035,CULLMAN REGIONAL MEDICAL CENTER,1912 ALABAMA HIGHWAY 157,CULLMAN,35058,CULLMAN,2567372000,Government - Hospital District or Authority,Heart Attack,3 patients,1
10035,CULLMAN REGIONAL MEDICAL CENTER,1912 ALABAMA HIGHWAY 157,CULLMAN,35058,CULLMAN,2567372000,Government - Hospital District or Authority,Heart Attack,3 patients,1
10035,CULLMAN REGIONAL MEDICAL CENTER,1912 ALABAMA HIGHWAY 157,CULLMAN,35058,CULLMAN,2567372000,Government - Hospital District or Authority,Heart Attack,23 patients,1
10035,CULLMAN REGIONAL MEDICAL CENTER,1912 ALABAMA HIGHWAY 157,CULLMAN,35058,CULLMAN,2567372000,Government - Hospital District or Authority,Heart Attack,0 patients,1
10035,CULLMAN REGIONAL MEDICAL CENTER,1912 ALABAMA HIGHWAY 157,CULLMAN,35058,CULLMAN,2567372000,Government - Hospital District or Authority,Heart Attack,0 patients,1
10035,CULLMAN REGIONAL MEDICAL CENTER,1912 ALABAMA HIGHWAY 157,CULLMAN,35058,CULLMAN,2567372000,Government - Hospital District or Authority,Heart Failure,158 patients,1
10035,CULLMAN REGIONAL MEDICAL CENTER,1912 ALABAMA HIGHWAY 157,CULLMAN,35058,CULLMAN,2567372000,Government - Hospital District or Authority,Heart Failure,200 patients,1
10035,CULLMAN REGIONAL MEDICAL CENTER,1912 ALABAMA HIGHWAY 157,CULLMAN,35058,CULLMAN,2567372000,Government - Hospital District or Authority,Heart Failure,37 patients,1
10035,CULLMAN REGIONAL MEDICAL CENTER,1912 ALABAMA HIGHWAY 157,CULLMAN,35058,CULLMAN,2567372000,Government - Hospital District or Authority,Heart Failure,42 patients,1
10035,CULLMAN REGIONAL MEDICAL CENTER,1912 ALABAMA HIGHWAY 157,CULLMAN,35058,CULLMAN,2567372000,Government - Hospital District or Authority,Pneumonia,155 patients,1
10035,CULLMAN REGIONAL MEDICAL CENTER,1912 ALABAMA HIGHWAY 157,CULLMAN,35058,CULLMAN,2567372000,Government - Hospital District or Authority,Pneumonia,138 patients,1
10035,CULLMAN REGIONAL MEDICAL CENTER,1912 ALABAMA HIGHWAY 157,CULLMAN,35058,CULLMAN,2567372000,Government - Hospital District or Authority,Pneumonia,90 patients,1
10035,CULLMAN REGIONAL MEDICAL CENTER,1912 ALABAMA HIGHWAY 157,CULLMAN,35058,CULLMAN,2567372000,Government - Hospital District or Authority,Pneumonia,160 patients,1
10035,CULLMAN REGIONAL MEDICAL CENTER,1912 ALABAMA HIGHWAY 157,CULLMAN,35058,CULLMAN,2567372000,Government - Hospital District or Authority,Pneumonia,136 patients,1
10035,CULLMAN REGIONAL MEDICAL CENTER,1912 ALABAMA HIGHWAY 157,CULLMAN,35058,CULLMAN,2567372000,Government - Hospital District or Authority,Pneumonia,125 patients,1
10035,CULLMAN REGIONAL MEDICAL CENTER,1912 ALABAMA HIGHWAY 157,CULLMAN,35058,CULLMAN,2567372000,Government - Hospital District or Authority,Surgical Infection Prevention,68 patients,1
10035,CULLMAN REGIONAL MEDICAL CENTER,1912 ALABAMA HIGHWAY 157,CULLMAN,35058,CULLMAN,2567372000,Government - Hospital District or Authority,Surgical Infection Prevention,411 patients,1
10035,CULLMAN REGIONAL MEDICAL CENTER,1912 ALABAMA HIGHWAY 157,CULLMAN,35058,CULLMAN,2567372000,Government - Hospital District or Authority,Surgical Infection Prevention,417 patients,1
10035,CULLMAN REGIONAL MEDICAL CENTER,1912 ALABAMA HIGHWAY 157,CULLMAN,35058,CULLMAN,2567372000,Government - Hospital District or Authority,Surgical Infection Prevention,405 patients,1
10035,CULLMAN REGIONAL MEDICAL CENTER,1912 ALABAMA HIGHWAY 157,CULLMAN,35058,CULLMAN,2567372000,Government - Hospital District or Authority,Surgical Infection Prevention,0 patients,1
10035,CULLMAN REGIONAL MEDICAL CENTER,1912 ALABAMA HIGHWAY 157,CULLMAN,35058,CULLMAN,2567372000,Government - Hospital District or Authority,Surgical Infection Prevention,598 patients,1
10035,CULLMAN REGIONAL MEDICAL CENTER,1912 ALABAMA HIGHWAY 157,CULLMAN,35058,CULLMAN,2567372000,Government - Hospital District or Authority,Surgical Infection Prevention,298 patients,1
10035,CULLMAN REGIONAL MEDICAL CENTER,1912 ALABAMA HIGHWAY 157,CULLMAN,35058,CULLMAN,2567372000,Government - Hospital District or Authority,Surgical Infection Prevention,298 patients,1
10036,ANDALUSIA REGIONAL HOSPITAL,849 SOUTH THREE NOTCH STREET,ANDALUSIA,36420,COVINGTON,3342228466,Proprietary,Heart Attack,8 patients,1
10036,ANDALUSIA REGIONAL HOSPITAL,849 SOUTH THREE NOTCH STREET,ANDALUSIA,36420,COVINGTON,3342228466,Proprietary,Heart Attack,5 patients,1
10036,ANDALUSIA REGIONAL HOSPITAL,849 SOUTH THREE NOTCH STREET,ANDALUSIA,36420,COVINGTON,3342228466,Proprietary,Heart Attack,3 patients,1
10036,ANDALUSIA REGIONAL HOSPITAL,849 SOUTH THREE NOTCH STREET,ANDALUSIA,36420,COVINGTON,3342228466,Proprietary,Heart Attack,0 patients,1
10036,ANDALUSIA REGIONAL HOSPITAL,849 SOUTH THREE NOTCH STREET,ANDALUSIA,36420,COVINGTON,3342228466,Proprietary,Heart Attack,6 patients,1
10036,ANDALUSIA REGIONAL HOSPITAL,849 SOUTH THREE NOTCH STREET,ANDALUSIA,36420,COVINGTON,3342228466,Proprietary,Heart Attack,0 patients,1
10036,ANDALUSIA REGIONAL HOSPITAL,849 SOUTH THREE NOTCH STREET,ANDALUSIA,36420,COVINGTON,3342228466,Proprietary,Heart Attack,0 patients,1
10036,ANDALUSIA REGIONAL HOSPITAL,849 SOUTH THREE NOTCH STREET,ANDALUSIA,36420,COVINGTON,3342228466,Proprietary,Heart Failure,121 patients,1
10036,ANDALUSIA REGIONAL HOSPITAL,849 SOUTH THREE NOTCH STREET,ANDALUSIA,36420,COVINGTON,3342228466,Proprietary,Heart Failure,139 patients,1
10036,ANDALUSIA REGIONAL HOSPITAL,849 SOUTH THREE NOTCH STREET,ANDALUSIA,36420,COVINGTON,3342228466,Proprietary,Heart Failure,21 patients,1
10036,ANDALUSIA REGIONAL HOSPITAL,849 SOUTH THREE NOTCH STREET,ANDALUSIA,36420,COVINGTON,3342228466,Proprietary,Heart Failure,32 patients,1
10036,ANDALUSIA REGIONAL HOSPITAL,849 SOUTH THREE NOTCH STREET,ANDALUSIA,36420,COVINGTON,3342228466,Proprietary,Pneumonia,77 patients,1
10036,ANDALUSIA REGIONAL HOSPITAL,849 SOUTH THREE NOTCH STREET,ANDALUSIA,36420,COVINGTON,3342228466,Proprietary,Pneumonia,55 patients,1
10036,ANDALUSIA REGIONAL HOSPITAL,849 SOUTH THREE NOTCH STREET,ANDALUSIA,36420,COVINGTON,3342228466,Proprietary,Pneumonia,43 patients,1
10036,ANDALUSIA REGIONAL HOSPITAL,849 SOUTH THREE NOTCH STREET,ANDALUSIA,36420,COVINGTON,3342228466,Proprietary,Pneumonia,93 patients,1
10036,ANDALUSIA REGIONAL HOSPITAL,849 SOUTH THREE NOTCH STREET,ANDALUSIA,36420,COVINGTON,3342228466,Proprietary,Pneumonia,64 patients,1
10036,ANDALUSIA REGIONAL HOSPITAL,849 SOUTH THREE NOTCH STREET,ANDALUSIA,36420,COVINGTON,3342228466,Proprietary,Pneumonia,52 patients,1
10036,ANDALUSIA REGIONAL HOSPITAL,849 SOUTH THREE NOTCH STREET,ANDALUSIA,36420,COVINGTON,3342228466,Proprietary,Surgical Infection Prevention,19 patients,1
10036,ANDALUSIA REGIONAL HOSPITAL,849 SOUTH THREE NOTCH STREET,ANDALUSIA,36420,COVINGTON,3342228466,Proprietary,Surgical Infection Prevention,139 patients,1
10036,ANDALUSIA REGIONAL HOSPITAL,849 SOUTH THREE NOTCH STREET,ANDALUSIA,36420,COVINGTON,3342228466,Proprietary,Surgical Infection Prevention,141 patients,1
10036,ANDALUSIA REGIONAL HOSPITAL,849 SOUTH THREE NOTCH STREET,ANDALUSIA,36420,COVINGTON,3342228466,Proprietary,Surgical Infection Prevention,136 patients,1
10036,ANDALUSIA REGIONAL HOSPITAL,849 SOUTH THREE NOTCH STREET,ANDALUSIA,36420,COVINGTON,3342228466,Proprietary,Surgical Infection Prevention,0 patients,1
10036,ANDALUSIA REGIONAL HOSPITAL,849 SOUTH THREE NOTCH STREET,ANDALUSIA,36420,COVINGTON,3342228466,Proprietary,Surgical Infection Prevention,204 patients,1
10036,ANDALUSIA REGIONAL HOSPITAL,849 SOUTH THREE NOTCH STREET,ANDALUSIA,36420,COVINGTON,3342228466,Proprietary,Surgical Infection Prevention,66 patients,1
10036,ANDALUSIA REGIONAL HOSPITAL,849 SOUTH THREE NOTCH STREET,ANDALUSIA,36420,COVINGTON,3342228466,Proprietary,Surgical Infection Prevention,66 patients,1
10038,STRINGFELLOW MEMORIAL HOSPITAL,301 EAST 18TH ST,ANNISTON,36201,CALHOUN,2562358900,Proprietary,Children s Asthma Care,9 patients,1
10038,STRINGFELLOW MEMORIAL HOSPITAL,301 EAST 18TH ST,ANNISTON,36201,CALHOUN,2562358900,Proprietary,Surgical Infection Prevention,96 patients,1
10038,STRINGFELLOW MEMORIAL HOSPITAL,301 EAST 18TH ST,ANNISTON,36201,CALHOUN,2562358900,Proprietary,Surgical Infection Prevention,98 patients,1
10038,STRINGFELLOW MEMORIAL HOSPITAL,301 EAST 18TH ST,ANNISTON,36201,CALHOUN,2562358900,Proprietary,Surgical Infection Prevention,95 patients,1
10038,STRINGFELLOW MEMORIAL HOSPITAL,301 EAST 18TH ST,ANNISTON,36201,CALHOUN,2562358900,Proprietary,Surgical Infection Prevention,0 patients,1
10038,STRINGFELLOW MEMORIAL HOSPITAL,301 EAST 18TH ST,ANNISTON,36201,CALHOUN,2562358900,Proprietary,Surgical Infection Prevention,195 patients,1
10038,STRINGFELLOW MEMORIAL HOSPITAL,301 EAST 18TH ST,ANNISTON,36201,CALHOUN,2562358900,Proprietary,Surgical Infection Prevention,117 patients,1
10038,STRINGFELLOW MEMORIAL HOSPITAL,301 EAST 18TH ST,ANNISTON,36201,CALHOUN,2562358900,Proprietary,Surgical Infection Prevention,116 patients,1
10039,HUNTSVILLE HOSPITAL,101 SIVLEY RD,HUNTSVILLE,35801,MADISON,2562651000,Government - Hospital District or Authority,Children s Asthma Care,193 patients,1
10039,HUNTSVILLE HOSPITAL,101 SIVLEY RD,HUNTSVILLE,35801,MADISON,2562651000,Government - Hospital District or Authority,Children s Asthma Care,193 patients,1
10039,HUNTSVILLE HOSPITAL,101 SIVLEY RD,HUNTSVILLE,35801,MADISON,2562651000,Government - Hospital District or Authority,Children s Asthma Care,193 patients,1
10039,HUNTSVILLE HOSPITAL,101 SIVLEY RD,HUNTSVILLE,35801,MADISON,2562651000,Government - Hospital District or Authority,Heart Attack,155 patients,1
10039,HUNTSVILLE HOSPITAL,101 SIVLEY RD,HUNTSVILLE,35801,MADISON,2562651000,Government - Hospital District or Authority,Heart Attack,323 patients,1
10039,HUNTSVILLE HOSPITAL,101 SIVLEY RD,HUNTSVILLE,35801,MADISON,2562651000,Government - Hospital District or Authority,Heart Attack,77 patients,1
10039,HUNTSVILLE HOSPITAL,101 SIVLEY RD,HUNTSVILLE,35801,MADISON,2562651000,Government - Hospital District or Authority,Heart Attack,135 patients,1
10039,HUNTSVILLE HOSPITAL,101 SIVLEY RD,HUNTSVILLE,35801,MADISON,2562651000,Government - Hospital District or Authority,Heart Attack,301 patients,1
10039,HUNTSVILLE HOSPITAL,101 SIVLEY RD,HUNTSVILLE,35801,MADISON,2562651000,Government - Hospital District or Authority,Heart Attack,0 patients,1
10039,HUNTSVILLE HOSPITAL,101 SIVLEY RD,HUNTSVILLE,35801,MADISON,2562651000,Government - Hospital District or Authority,Heart Attack,44 patients,1
10039,HUNTSVILLE HOSPITAL,101 SIVLEY RD,HUNTSVILLE,35801,MADISON,2562651000,Government - Hospital District or Authority,Heart Failure,264 patients,1
10039,HUNTSVILLE HOSPITAL,101 SIVLEY RD,HUNTSVILLE,35801,MADISON,2562651000,Government - Hospital District or Authority,Heart Failure,303 patients,1
10039,HUNTSVILLE HOSPITAL,101 SIVLEY RD,HUNTSVILLE,35801,MADISON,2562651000,Government - Hospital District or Authority,Heart Failure,102 patients,1
10039,HUNTSVILLE HOSPITAL,101 SIVLEY RD,HUNTSVILLE,35801,MADISON,2562651000,Government - Hospital District or Authority,Heart Failure,51 patients,1
10039,HUNTSVILLE HOSPITAL,101 SIVLEY RD,HUNTSVILLE,35801,MADISON,2562651000,Government - Hospital District or Authority,Pneumonia,509 patients,1
10039,HUNTSVILLE HOSPITAL,101 SIVLEY RD,HUNTSVILLE,35801,MADISON,2562651000,Government - Hospital District or Authority,Pneumonia,496 patients,1
10039,HUNTSVILLE HOSPITAL,101 SIVLEY RD,HUNTSVILLE,35801,MADISON,2562651000,Government - Hospital District or Authority,Pneumonia,294 patients,1
10039,HUNTSVILLE HOSPITAL,101 SIVLEY RD,HUNTSVILLE,35801,MADISON,2562651000,Government - Hospital District or Authority,Pneumonia,511 patients,1
10039,HUNTSVILLE HOSPITAL,101 SIVLEY RD,HUNTSVILLE,35801,MADISON,2562651000,Government - Hospital District or Authority,Pneumonia,313 patients,1
10039,HUNTSVILLE HOSPITAL,101 SIVLEY RD,HUNTSVILLE,35801,MADISON,2562651000,Government - Hospital District or Authority,Pneumonia,409 patients,1
10039,HUNTSVILLE HOSPITAL,101 SIVLEY RD,HUNTSVILLE,35801,MADISON,2562651000,Government - Hospital District or Authority,Surgical Infection Prevention,123 patients,1
10039,HUNTSVILLE HOSPITAL,101 SIVLEY RD,HUNTSVILLE,35801,MADISON,2562651000,Government - Hospital District or Authority,Surgical Infection Prevention,601 patients,1
10039,HUNTSVILLE HOSPITAL,101 SIVLEY RD,HUNTSVILLE,35801,MADISON,2562651000,Government - Hospital District or Authority,Surgical Infection Prevention,603 patients,1
10039,HUNTSVILLE HOSPITAL,101 SIVLEY RD,HUNTSVILLE,35801,MADISON,2562651000,Government - Hospital District or Authority,Surgical Infection Prevention,561 patients,1
10039,HUNTSVILLE HOSPITAL,101 SIVLEY RD,HUNTSVILLE,35801,MADISON,2562651000,Government - Hospital District or Authority,Surgical Infection Prevention,149 patients,1
10039,HUNTSVILLE HOSPITAL,101 SIVLEY RD,HUNTSVILLE,35801,MADISON,2562651000,Government - Hospital District or Authority,Surgical Infection Prevention,852 patients,1
10039,HUNTSVILLE HOSPITAL,101 SIVLEY RD,HUNTSVILLE,35801,MADISON,2562651000,Government - Hospital District or Authority,Surgical Infection Prevention,269 patients,1
10039,HUNTSVILLE HOSPITAL,101 SIVLEY RD,HUNTSVILLE,35801,MADISON,2562651000,Government - Hospital District or Authority,Surgical Infection Prevention,269 patients,1
10040,GADSDEN REGIONAL MEDICAL CENTER,1007 GOODYEAR AVENUE,GADSDEN,35903,ETOWAH,2564944000,Proprietary,Heart Attack,123 patients,1
10040,GADSDEN REGIONAL MEDICAL CENTER,1007 GOODYEAR AVENUE,GADSDEN,35903,ETOWAH,2564944000,Proprietary,Heart Attack,134 patients,1
10040,GADSDEN REGIONAL MEDICAL CENTER,1007 GOODYEAR AVENUE,GADSDEN,35903,ETOWAH,2564944000,Proprietary,Heart Attack,18 patients,1
10040,GADSDEN REGIONAL MEDICAL CENTER,1007 GOODYEAR AVENUE,GADSDEN,35903,ETOWAH,2564944000,Proprietary,Heart Attack,79 patients,1
10040,GADSDEN REGIONAL MEDICAL CENTER,1007 GOODYEAR AVENUE,GADSDEN,35903,ETOWAH,2564944000,Proprietary,Heart Attack,117 patients,1
10040,GADSDEN REGIONAL MEDICAL CENTER,1007 GOODYEAR AVENUE,GADSDEN,35903,ETOWAH,2564944000,Proprietary,Heart Attack,25 patients,1
10040,GADSDEN REGIONAL MEDICAL CENTER,1007 GOODYEAR AVENUE,GADSDEN,35903,ETOWAH,2564944000,Proprietary,Heart Attack,12 patients,1
10040,GADSDEN REGIONAL MEDICAL CENTER,1007 GOODYEAR AVENUE,GADSDEN,35903,ETOWAH,2564944000,Proprietary,Heart Failure,211 patients,1
10040,GADSDEN REGIONAL MEDICAL CENTER,1007 GOODYEAR AVENUE,GADSDEN,35903,ETOWAH,2564944000,Proprietary,Heart Failure,259 patients,1
10040,GADSDEN REGIONAL MEDICAL CENTER,1007 GOODYEAR AVENUE,GADSDEN,35903,ETOWAH,2564944000,Proprietary,Heart Failure,69 patients,1
10040,GADSDEN REGIONAL MEDICAL CENTER,1007 GOODYEAR AVENUE,GADSDEN,35903,ETOWAH,2564944000,Proprietary,Heart Failure,70 patients,1
10040,GADSDEN REGIONAL MEDICAL CENTER,1007 GOODYEAR AVENUE,GADSDEN,35903,ETOWAH,2564944000,Proprietary,Pneumonia,255 patients,1
10040,GADSDEN REGIONAL MEDICAL CENTER,1007 GOODYEAR AVENUE,GADSDEN,35903,ETOWAH,2564944000,Proprietary,Pneumonia,187 patients,1
10040,GADSDEN REGIONAL MEDICAL CENTER,1007 GOODYEAR AVENUE,GADSDEN,35903,ETOWAH,2564944000,Proprietary,Pneumonia,130 patients,1
10040,GADSDEN REGIONAL MEDICAL CENTER,1007 GOODYEAR AVENUE,GADSDEN,35903,ETOWAH,2564944000,Proprietary,Pneumonia,266 patients,1
10040,GADSDEN REGIONAL MEDICAL CENTER,1007 GOODYEAR AVENUE,GADSDEN,35903,ETOWAH,2564944000,Proprietary,Pneumonia,153 patients,1
10040,GADSDEN REGIONAL MEDICAL CENTER,1007 GOODYEAR AVENUE,GADSDEN,35903,ETOWAH,2564944000,Proprietary,Pneumonia,187 patients,1
10040,GADSDEN REGIONAL MEDICAL CENTER,1007 GOODYEAR AVENUE,GADSDEN,35903,ETOWAH,2564944000,Proprietary,Surgical Infection Prevention,109 patients,1
10040,GADSDEN REGIONAL MEDICAL CENTER,1007 GOODYEAR AVENUE,GADSDEN,35903,ETOWAH,2564944000,Proprietary,Surgical Infection Prevention,557 patients,1
10040,GADSDEN REGIONAL MEDICAL CENTER,1007 GOODYEAR AVENUE,GADSDEN,35903,ETOWAH,2564944000,Proprietary,Surgical Infection Prevention,564 patients,1
10040,GADSDEN REGIONAL MEDICAL CENTER,1007 GOODYEAR AVENUE,GADSDEN,35903,ETOWAH,2564944000,Proprietary,Surgical Infection Prevention,520 patients,1
10040,GADSDEN REGIONAL MEDICAL CENTER,1007 GOODYEAR AVENUE,GADSDEN,35903,ETOWAH,2564944000,Proprietary,Surgical Infection Prevention,186 patients,1
10040,GADSDEN REGIONAL MEDICAL CENTER,1007 GOODYEAR AVENUE,GADSDEN,35903,ETOWAH,2564944000,Proprietary,Surgical Infection Prevention,854 patients,1
10040,GADSDEN REGIONAL MEDICAL CENTER,1007 GOODYEAR AVENUE,GADSDEN,35903,ETOWAH,2564944000,Proprietary,Surgical Infection Prevention,315 patients,1
10040,GADSDEN REGIONAL MEDICAL CENTER,1007 GOODYEAR AVENUE,GADSDEN,35903,ETOWAH,2564944000,Proprietary,Surgical Infection Prevention,315 patients,1
10043,CHILTON MEDICAL CENTER,1010 LAY DAM ROAD,CLANTON,35045,CHILTON,2057552500,Voluntary non-profit - Private,Heart Attack,1 patients,1
10043,CHILTON MEDICAL CENTER,1010 LAY DAM ROAD,CLANTON,35045,CHILTON,2057552500,Voluntary non-profit - Private,Heart Attack,1 patients,1
10043,CHILTON MEDICAL CENTER,1010 LAY DAM ROAD,CLANTON,35045,CHILTON,2057552500,Voluntary non-profit - Private,Heart Attack,1 patients,1
10043,CHILTON MEDICAL CENTER,1010 LAY DAM ROAD,CLANTON,35045,CHILTON,2057552500,Voluntary non-profit - Private,Heart Attack,0 patients,1
10043,CHILTON MEDICAL CENTER,1010 LAY DAM ROAD,CLANTON,35045,CHILTON,2057552500,Voluntary non-profit - Private,Heart Attack,1 patients,1
10043,CHILTON MEDICAL CENTER,1010 LAY DAM ROAD,CLANTON,35045,CHILTON,2057552500,Voluntary non-profit - Private,Heart Attack,0 patients,1
10043,CHILTON MEDICAL CENTER,1010 LAY DAM ROAD,CLANTON,35045,CHILTON,2057552500,Voluntary non-profit - Private,Heart Attack,0 patients,1
10043,CHILTON MEDICAL CENTER,1010 LAY DAM ROAD,CLANTON,35045,CHILTON,2057552500,Voluntary non-profit - Private,Heart Failure,19 patients,1
10043,CHILTON MEDICAL CENTER,1010 LAY DAM ROAD,CLANTON,35045,CHILTON,2057552500,Voluntary non-profit - Private,Heart Failure,28 patients,1
10043,CHILTON MEDICAL CENTER,1010 LAY DAM ROAD,CLANTON,35045,CHILTON,2057552500,Voluntary non-profit - Private,Heart Failure,4 patients,1
10043,CHILTON MEDICAL CENTER,1010 LAY DAM ROAD,CLANTON,35045,CHILTON,2057552500,Voluntary non-profit - Private,Heart Failure,4 patients,1
10043,CHILTON MEDICAL CENTER,1010 LAY DAM ROAD,CLANTON,35045,CHILTON,2057552500,Voluntary non-profit - Private,Pneumonia,47 patients,1
10043,CHILTON MEDICAL CENTER,1010 LAY DAM ROAD,CLANTON,35045,CHILTON,2057552500,Voluntary non-profit - Private,Pneumonia,36 patients,1
10043,CHILTON MEDICAL CENTER,1010 LAY DAM ROAD,CLANTON,35045,CHILTON,2057552500,Voluntary non-profit - Private,Pneumonia,16 patients,1
10043,CHILTON MEDICAL CENTER,1010 LAY DAM ROAD,CLANTON,35045,CHILTON,2057552500,Voluntary non-profit - Private,Pneumonia,44 patients,1
10043,CHILTON MEDICAL CENTER,1010 LAY DAM ROAD,CLANTON,35045,CHILTON,2057552500,Voluntary non-profit - Private,Pneumonia,38 patients,1
10043,CHILTON MEDICAL CENTER,1010 LAY DAM ROAD,CLANTON,35045,CHILTON,2057552500,Voluntary non-profit - Private,Pneumonia,37 patients,1
10043,CHILTON MEDICAL CENTER,1010 LAY DAM ROAD,CLANTON,35045,CHILTON,2057552500,Voluntary non-profit - Private,Surgical Infection Prevention,2 patients,1
10043,CHILTON MEDICAL CENTER,1010 LAY DAM ROAD,CLANTON,35045,CHILTON,2057552500,Voluntary non-profit - Private,Surgical Infection Prevention,4 patients,1
10043,CHILTON MEDICAL CENTER,1010 LAY DAM ROAD,CLANTON,35045,CHILTON,2057552500,Voluntary non-profit - Private,Surgical Infection Prevention,4 patients,1
10043,CHILTON MEDICAL CENTER,1010 LAY DAM ROAD,CLANTON,35045,CHILTON,2057552500,Voluntary non-profit - Private,Surgical Infection Prevention,4 patients,1
10043,CHILTON MEDICAL CENTER,1010 LAY DAM ROAD,CLANTON,35045,CHILTON,2057552500,Voluntary non-profit - Private,Surgical Infection Prevention,0 patients,1
10043,CHILTON MEDICAL CENTER,1010 LAY DAM ROAD,CLANTON,35045,CHILTON,2057552500,Voluntary non-profit - Private,Surgical Infection Prevention,5 patients,1
10043,CHILTON MEDICAL CENTER,1010 LAY DAM ROAD,CLANTON,35045,CHILTON,2057552500,Voluntary non-profit - Private,Surgical Infection Prevention,0 patients,1
10043,CHILTON MEDICAL CENTER,1010 LAY DAM ROAD,CLANTON,35045,CHILTON,2057552500,Voluntary non-profit - Private,Surgical Infection Prevention,0 patients,1
10044,MARION REGIONAL MEDICAL CENTER,1256 MILITARY STREET SOUTH,HAMILTON,35570,MARION,2059216200,Voluntary non-profit - Private,Heart Attack,3 patients,1
10044,MARION REGIONAL MEDICAL CENTER,1256 MILITARY STREET SOUTH,HAMILTON,35570,MARION,2059216200,Voluntary non-profit - Private,Heart Attack,3 patients,1
10044,MARION REGIONAL MEDICAL CENTER,1256 MILITARY STREET SOUTH,HAMILTON,35570,MARION,2059216200,Voluntary non-profit - Private,Heart Attack,1 patients,1
10044,MARION REGIONAL MEDICAL CENTER,1256 MILITARY STREET SOUTH,HAMILTON,35570,MARION,2059216200,Voluntary non-profit - Private,Heart Attack,0 patients,1
10044,MARION REGIONAL MEDICAL CENTER,1256 MILITARY STREET SOUTH,HAMILTON,35570,MARION,2059216200,Voluntary non-profit - Private,Heart Attack,3 patients,1
10044,MARION REGIONAL MEDICAL CENTER,1256 MILITARY STREET SOUTH,HAMILTON,35570,MARION,2059216200,Voluntary non-profit - Private,Heart Attack,0 patients,1
10044,MARION REGIONAL MEDICAL CENTER,1256 MILITARY STREET SOUTH,HAMILTON,35570,MARION,2059216200,Voluntary non-profit - Private,Heart Attack,0 patients,1
10044,MARION REGIONAL MEDICAL CENTER,1256 MILITARY STREET SOUTH,HAMILTON,35570,MARION,2059216200,Voluntary non-profit - Private,Heart Failure,38 patients,1
10044,MARION REGIONAL MEDICAL CENTER,1256 MILITARY STREET SOUTH,HAMILTON,35570,MARION,2059216200,Voluntary non-profit - Private,Heart Failure,46 patients,1
10044,MARION REGIONAL MEDICAL CENTER,1256 MILITARY STREET SOUTH,HAMILTON,35570,MARION,2059216200,Voluntary non-profit - Private,Heart Failure,18 patients,1
10044,MARION REGIONAL MEDICAL CENTER,1256 MILITARY STREET SOUTH,HAMILTON,35570,MARION,2059216200,Voluntary non-profit - Private,Heart Failure,10 patients,1
10044,MARION REGIONAL MEDICAL CENTER,1256 MILITARY STREET SOUTH,HAMILTON,35570,MARION,2059216200,Voluntary non-profit - Private,Pneumonia,101 patients,1
10044,MARION REGIONAL MEDICAL CENTER,1256 MILITARY STREET SOUTH,HAMILTON,35570,MARION,2059216200,Voluntary non-profit - Private,Pneumonia,78 patients,1
10044,MARION REGIONAL MEDICAL CENTER,1256 MILITARY STREET SOUTH,HAMILTON,35570,MARION,2059216200,Voluntary non-profit - Private,Pneumonia,42 patients,1
10044,MARION REGIONAL MEDICAL CENTER,1256 MILITARY STREET SOUTH,HAMILTON,35570,MARION,2059216200,Voluntary non-profit - Private,Pneumonia,121 patients,1
10044,MARION REGIONAL MEDICAL CENTER,1256 MILITARY STREET SOUTH,HAMILTON,35570,MARION,2059216200,Voluntary non-profit - Private,Pneumonia,97 patients,1
10044,MARION REGIONAL MEDICAL CENTER,1256 MILITARY STREET SOUTH,HAMILTON,35570,MARION,2059216200,Voluntary non-profit - Private,Pneumonia,85 patients,1
10044,MARION REGIONAL MEDICAL CENTER,1256 MILITARY STREET SOUTH,HAMILTON,35570,MARION,2059216200,Voluntary non-profit - Private,Surgical Infection Prevention,3 patients,1
10044,MARION REGIONAL MEDICAL CENTER,1256 MILITARY STREET SOUTH,HAMILTON,35570,MARION,2059216200,Voluntary non-profit - Private,Surgical Infection Prevention,15 patients,1
10044,MARION REGIONAL MEDICAL CENTER,1256 MILITARY STREET SOUTH,HAMILTON,35570,MARION,2059216200,Voluntary non-profit - Private,Surgical Infection Prevention,15 patients,1
10044,MARION REGIONAL MEDICAL CENTER,1256 MILITARY STREET SOUTH,HAMILTON,35570,MARION,2059216200,Voluntary non-profit - Private,Surgical Infection Prevention,15 patients,1
10044,MARION REGIONAL MEDICAL CENTER,1256 MILITARY STREET SOUTH,HAMILTON,35570,MARION,2059216200,Voluntary non-profit - Private,Surgical Infection Prevention,0 patients,1
10044,MARION REGIONAL MEDICAL CENTER,1256 MILITARY STREET SOUTH,HAMILTON,35570,MARION,2059216200,Voluntary non-profit - Private,Surgical Infection Prevention,19 patients,1
10044,MARION REGIONAL MEDICAL CENTER,1256 MILITARY STREET SOUTH,HAMILTON,35570,MARION,2059216200,Voluntary non-profit - Private,Surgical Infection Prevention,4 patients,1
10044,MARION REGIONAL MEDICAL CENTER,1256 MILITARY STREET SOUTH,HAMILTON,35570,MARION,2059216200,Voluntary non-profit - Private,Surgical Infection Prevention,4 patients,1
10045,FAYETTE MEDICAL CENTER,1653 TEMPLE AVENUE NORTH,FAYETTE,35555,FAYETTE,2059325966,Voluntary non-profit - Other,Heart Attack,18 patients,1
10045,FAYETTE MEDICAL CENTER,1653 TEMPLE AVENUE NORTH,FAYETTE,35555,FAYETTE,2059325966,Voluntary non-profit - Other,Heart Attack,12 patients,1
10045,FAYETTE MEDICAL CENTER,1653 TEMPLE AVENUE NORTH,FAYETTE,35555,FAYETTE,2059325966,Voluntary non-profit - Other,Heart Attack,1 patients,1
10045,FAYETTE MEDICAL CENTER,1653 TEMPLE AVENUE NORTH,FAYETTE,35555,FAYETTE,2059325966,Voluntary non-profit - Other,Heart Attack,1 patients,1
10045,FAYETTE MEDICAL CENTER,1653 TEMPLE AVENUE NORTH,FAYETTE,35555,FAYETTE,2059325966,Voluntary non-profit - Other,Heart Attack,11 patients,1
10045,FAYETTE MEDICAL CENTER,1653 TEMPLE AVENUE NORTH,FAYETTE,35555,FAYETTE,2059325966,Voluntary non-profit - Other,Heart Attack,0 patients,1
10045,FAYETTE MEDICAL CENTER,1653 TEMPLE AVENUE NORTH,FAYETTE,35555,FAYETTE,2059325966,Voluntary non-profit - Other,Heart Attack,0 patients,1
10045,FAYETTE MEDICAL CENTER,1653 TEMPLE AVENUE NORTH,FAYETTE,35555,FAYETTE,2059325966,Voluntary non-profit - Other,Heart Failure,67 patients,1
10045,FAYETTE MEDICAL CENTER,1653 TEMPLE AVENUE NORTH,FAYETTE,35555,FAYETTE,2059325966,Voluntary non-profit - Other,Heart Failure,85 patients,1
10045,FAYETTE MEDICAL CENTER,1653 TEMPLE AVENUE NORTH,FAYETTE,35555,FAYETTE,2059325966,Voluntary non-profit - Other,Heart Failure,19 patients,1
10045,FAYETTE MEDICAL CENTER,1653 TEMPLE AVENUE NORTH,FAYETTE,35555,FAYETTE,2059325966,Voluntary non-profit - Other,Heart Failure,16 patients,1
10045,FAYETTE MEDICAL CENTER,1653 TEMPLE AVENUE NORTH,FAYETTE,35555,FAYETTE,2059325966,Voluntary non-profit - Other,Pneumonia,117 patients,1
10045,FAYETTE MEDICAL CENTER,1653 TEMPLE AVENUE NORTH,FAYETTE,35555,FAYETTE,2059325966,Voluntary non-profit - Other,Pneumonia,41 patients,1
10045,FAYETTE MEDICAL CENTER,1653 TEMPLE AVENUE NORTH,FAYETTE,35555,FAYETTE,2059325966,Voluntary non-profit - Other,Pneumonia,34 patients,1
10045,FAYETTE MEDICAL CENTER,1653 TEMPLE AVENUE NORTH,FAYETTE,35555,FAYETTE,2059325966,Voluntary non-profit - Other,Pneumonia,109 patients,1
10045,FAYETTE MEDICAL CENTER,1653 TEMPLE AVENUE NORTH,FAYETTE,35555,FAYETTE,2059325966,Voluntary non-profit - Other,Pneumonia,79 patients,1
10045,FAYETTE MEDICAL CENTER,1653 TEMPLE AVENUE NORTH,FAYETTE,35555,FAYETTE,2059325966,Voluntary non-profit - Other,Pneumonia,86 patients,1
10045,FAYETTE MEDICAL CENTER,1653 TEMPLE AVENUE NORTH,FAYETTE,35555,FAYETTE,2059325966,Voluntary non-profit - Other,Surgical Infection Prevention,0 patients,1
10045,FAYETTE MEDICAL CENTER,1653 TEMPLE AVENUE NORTH,FAYETTE,35555,FAYETTE,2059325966,Voluntary non-profit - Other,Surgical Infection Prevention,0 patients,1
10045,FAYETTE MEDICAL CENTER,1653 TEMPLE AVENUE NORTH,FAYETTE,35555,FAYETTE,2059325966,Voluntary non-profit - Other,Surgical Infection Prevention,0 patients,1
10045,FAYETTE MEDICAL CENTER,1653 TEMPLE AVENUE NORTH,FAYETTE,35555,FAYETTE,2059325966,Voluntary non-profit - Other,Surgical Infection Prevention,0 patients,1
10045,FAYETTE MEDICAL CENTER,1653 TEMPLE AVENUE NORTH,FAYETTE,35555,FAYETTE,2059325966,Voluntary non-profit - Other,Surgical Infection Prevention,0 patients,1
10045,FAYETTE MEDICAL CENTER,1653 TEMPLE AVENUE NORTH,FAYETTE,35555,FAYETTE,2059325966,Voluntary non-profit - Other,Surgical Infection Prevention,7 patients,1
10045,FAYETTE MEDICAL CENTER,1653 TEMPLE AVENUE NORTH,FAYETTE,35555,FAYETTE,2059325966,Voluntary non-profit - Other,Surgical Infection Prevention,3 patients,1
10045,FAYETTE MEDICAL CENTER,1653 TEMPLE AVENUE NORTH,FAYETTE,35555,FAYETTE,2059325966,Voluntary non-profit - Other,Surgical Infection Prevention,3 patients,1
10046,RIVERVIEW REGIONAL MEDICAL CENTER,600 SOUTH THIRD STREET,GADSDEN,35901,ETOWAH,2565435200,Proprietary,Children s Asthma Care,4 patients,1
10046,RIVERVIEW REGIONAL MEDICAL CENTER,600 SOUTH THIRD STREET,GADSDEN,35901,ETOWAH,2565435200,Proprietary,Children s Asthma Care,4 patients,1
10046,RIVERVIEW REGIONAL MEDICAL CENTER,600 SOUTH THIRD STREET,GADSDEN,35901,ETOWAH,2565435200,Proprietary,Children s Asthma Care,4 patients,1
10046,RIVERVIEW REGIONAL MEDICAL CENTER,600 SOUTH THIRD STREET,GADSDEN,35901,ETOWAH,2565435200,Proprietary,Heart Attack,126 patients,1
10046,RIVERVIEW REGIONAL MEDICAL CENTER,600 SOUTH THIRD STREET,GADSDEN,35901,ETOWAH,2565435200,Proprietary,Heart Attack,145 patients,1
10046,RIVERVIEW REGIONAL MEDICAL CENTER,600 SOUTH THIRD STREET,GADSDEN,35901,ETOWAH,2565435200,Proprietary,Heart Attack,25 patients,1
10046,RIVERVIEW REGIONAL MEDICAL CENTER,600 SOUTH THIRD STREET,GADSDEN,35901,ETOWAH,2565435200,Proprietary,Heart Attack,68 patients,1
10046,RIVERVIEW REGIONAL MEDICAL CENTER,600 SOUTH THIRD STREET,GADSDEN,35901,ETOWAH,2565435200,Proprietary,Heart Attack,125 patients,1
10046,RIVERVIEW REGIONAL MEDICAL CENTER,600 SOUTH THIRD STREET,GADSDEN,35901,ETOWAH,2565435200,Proprietary,Heart Attack,8 patients,1
10046,RIVERVIEW REGIONAL MEDICAL CENTER,600 SOUTH THIRD STREET,GADSDEN,35901,ETOWAH,2565435200,Proprietary,Heart Attack,16 patients,1
10046,RIVERVIEW REGIONAL MEDICAL CENTER,600 SOUTH THIRD STREET,GADSDEN,35901,ETOWAH,2565435200,Proprietary,Heart Failure,268 patients,1
10046,RIVERVIEW REGIONAL MEDICAL CENTER,600 SOUTH THIRD STREET,GADSDEN,35901,ETOWAH,2565435200,Proprietary,Heart Failure,350 patients,1
10046,RIVERVIEW REGIONAL MEDICAL CENTER,600 SOUTH THIRD STREET,GADSDEN,35901,ETOWAH,2565435200,Proprietary,Heart Failure,90 patients,1
10046,RIVERVIEW REGIONAL MEDICAL CENTER,600 SOUTH THIRD STREET,GADSDEN,35901,ETOWAH,2565435200,Proprietary,Heart Failure,85 patients,1
10046,RIVERVIEW REGIONAL MEDICAL CENTER,600 SOUTH THIRD STREET,GADSDEN,35901,ETOWAH,2565435200,Proprietary,Pneumonia,239 patients,1
10046,RIVERVIEW REGIONAL MEDICAL CENTER,600 SOUTH THIRD STREET,GADSDEN,35901,ETOWAH,2565435200,Proprietary,Pneumonia,196 patients,1
10046,RIVERVIEW REGIONAL MEDICAL CENTER,600 SOUTH THIRD STREET,GADSDEN,35901,ETOWAH,2565435200,Proprietary,Pneumonia,109 patients,1
10046,RIVERVIEW REGIONAL MEDICAL CENTER,600 SOUTH THIRD STREET,GADSDEN,35901,ETOWAH,2565435200,Proprietary,Pneumonia,261 patients,1
10046,RIVERVIEW REGIONAL MEDICAL CENTER,600 SOUTH THIRD STREET,GADSDEN,35901,ETOWAH,2565435200,Proprietary,Pneumonia,212 patients,1
10046,RIVERVIEW REGIONAL MEDICAL CENTER,600 SOUTH THIRD STREET,GADSDEN,35901,ETOWAH,2565435200,Proprietary,Pneumonia,178 patients,1
10046,RIVERVIEW REGIONAL MEDICAL CENTER,600 SOUTH THIRD STREET,GADSDEN,35901,ETOWAH,2565435200,Proprietary,Surgical Infection Prevention,107 patients,1
10046,RIVERVIEW REGIONAL MEDICAL CENTER,600 SOUTH THIRD STREET,GADSDEN,35901,ETOWAH,2565435200,Proprietary,Surgical Infection Prevention,402 patients,1
10046,RIVERVIEW REGIONAL MEDICAL CENTER,600 SOUTH THIRD STREET,GADSDEN,35901,ETOWAH,2565435200,Proprietary,Surgical Infection Prevention,404 patients,1
10046,RIVERVIEW REGIONAL MEDICAL CENTER,600 SOUTH THIRD STREET,GADSDEN,35901,ETOWAH,2565435200,Proprietary,Surgical Infection Prevention,352 patients,1
10046,RIVERVIEW REGIONAL MEDICAL CENTER,600 SOUTH THIRD STREET,GADSDEN,35901,ETOWAH,2565435200,Proprietary,Surgical Infection Prevention,114 patients,1
10046,RIVERVIEW REGIONAL MEDICAL CENTER,600 SOUTH THIRD STREET,GADSDEN,35901,ETOWAH,2565435200,Proprietary,Surgical Infection Prevention,607 patients,1
10046,RIVERVIEW REGIONAL MEDICAL CENTER,600 SOUTH THIRD STREET,GADSDEN,35901,ETOWAH,2565435200,Proprietary,Surgical Infection Prevention,280 patients,1
10046,RIVERVIEW REGIONAL MEDICAL CENTER,600 SOUTH THIRD STREET,GADSDEN,35901,ETOWAH,2565435200,Proprietary,Surgical Infection Prevention,280 patients,1
10047,GEORGIANA HOSPITAL,515 MIRANDA ST,GEORGIANA,36033,BUTLER,3343762205,Voluntary non-profit - Private,Heart Attack,19 patients,1
10047,GEORGIANA HOSPITAL,515 MIRANDA ST,GEORGIANA,36033,BUTLER,3343762205,Voluntary non-profit - Private,Heart Attack,16 patients,1
10047,GEORGIANA HOSPITAL,515 MIRANDA ST,GEORGIANA,36033,BUTLER,3343762205,Voluntary non-profit - Private,Heart Attack,1 patients,1
10047,GEORGIANA HOSPITAL,515 MIRANDA ST,GEORGIANA,36033,BUTLER,3343762205,Voluntary non-profit - Private,Heart Attack,6 patients,1
10047,GEORGIANA HOSPITAL,515 MIRANDA ST,GEORGIANA,36033,BUTLER,3343762205,Voluntary non-profit - Private,Heart Attack,15 patients,1
10047,GEORGIANA HOSPITAL,515 MIRANDA ST,GEORGIANA,36033,BUTLER,3343762205,Voluntary non-profit - Private,Heart Attack,0 patients,1
10047,GEORGIANA HOSPITAL,515 MIRANDA ST,GEORGIANA,36033,BUTLER,3343762205,Voluntary non-profit - Private,Heart Attack,0 patients,1
10047,GEORGIANA HOSPITAL,515 MIRANDA ST,GEORGIANA,36033,BUTLER,3343762205,Voluntary non-profit - Private,Heart Failure,51 patients,1
10047,GEORGIANA HOSPITAL,515 MIRANDA ST,GEORGIANA,36033,BUTLER,3343762205,Voluntary non-profit - Private,Heart Failure,59 patients,1
10047,GEORGIANA HOSPITAL,515 MIRANDA ST,GEORGIANA,36033,BUTLER,3343762205,Voluntary non-profit - Private,Heart Failure,6 patients,1
10047,GEORGIANA HOSPITAL,515 MIRANDA ST,GEORGIANA,36033,BUTLER,3343762205,Voluntary non-profit - Private,Heart Failure,8 patients,1
10047,GEORGIANA HOSPITAL,515 MIRANDA ST,GEORGIANA,36033,BUTLER,3343762205,Voluntary non-profit - Private,Pneumonia,39 patients,1
10047,GEORGIANA HOSPITAL,515 MIRANDA ST,GEORGIANA,36033,BUTLER,3343762205,Voluntary non-profit - Private,Pneumonia,2 patients,1
10047,GEORGIANA HOSPITAL,515 MIRANDA ST,GEORGIANA,36033,BUTLER,3343762205,Voluntary non-profit - Private,Pneumonia,5 patients,1
10047,GEORGIANA HOSPITAL,515 MIRANDA ST,GEORGIANA,36033,BUTLER,3343762205,Voluntary non-profit - Private,Pneumonia,36 patients,1
10047,GEORGIANA HOSPITAL,515 MIRANDA ST,GEORGIANA,36033,BUTLER,3343762205,Voluntary non-profit - Private,Pneumonia,30 patients,1
10047,GEORGIANA HOSPITAL,515 MIRANDA ST,GEORGIANA,36033,BUTLER,3343762205,Voluntary non-profit - Private,Pneumonia,31 patients,1
10047,GEORGIANA HOSPITAL,515 MIRANDA ST,GEORGIANA,36033,BUTLER,3343762205,Voluntary non-profit - Private,Surgical Infection Prevention,Empty,1
10047,GEORGIANA HOSPITAL,515 MIRANDA ST,GEORGIANA,36033,BUTLER,3343762205,Voluntary non-profit - Private,Surgical Infection Prevention,Empty,1
10047,GEORGIANA HOSPITAL,515 MIRANDA ST,GEORGIANA,36033,BUTLER,3343762205,Voluntary non-profit - Private,Surgical Infection Prevention,Empty,1
10047,GEORGIANA HOSPITAL,515 MIRANDA ST,GEORGIANA,36033,BUTLER,3343762205,Voluntary non-profit - Private,Surgical Infection Prevention,Empty,1
10047,GEORGIANA HOSPITAL,515 MIRANDA ST,GEORGIANA,36033,BUTLER,3343762205,Voluntary non-profit - Private,Surgical Infection Prevention,Empty,1
10047,GEORGIANA HOSPITAL,515 MIRANDA ST,GEORGIANA,36033,BUTLER,3343762205,Voluntary non-profit - Private,Surgical Infection Prevention,Empty,1
10047,GEORGIANA HOSPITAL,515 MIRANDA ST,GEORGIANA,36033,BUTLER,3343762205,Voluntary non-profit - Private,Surgical Infection Prevention,Empty,1
10047,GEORGIANA HOSPITAL,515 MIRANDA ST,GEORGIANA,36033,BUTLER,3343762205,Voluntary non-profit - Private,Surgical Infection Prevention,Empty,1
10049,MEDICAL CENTER ENTERPRISE,400 N EDWARDS STREET,ENTERPRISE,36330,COFFEE,3343470584,Proprietary,Heart Attack,4 patients,1
10049,MEDICAL CENTER ENTERPRISE,400 N EDWARDS STREET,ENTERPRISE,36330,COFFEE,3343470584,Proprietary,Heart Attack,1 patients,1
10049,MEDICAL CENTER ENTERPRISE,400 N EDWARDS STREET,ENTERPRISE,36330,COFFEE,3343470584,Proprietary,Heart Attack,0 patients,1
10049,MEDICAL CENTER ENTERPRISE,400 N EDWARDS STREET,ENTERPRISE,36330,COFFEE,3343470584,Proprietary,Heart Attack,0 patients,1
10049,MEDICAL CENTER ENTERPRISE,400 N EDWARDS STREET,ENTERPRISE,36330,COFFEE,3343470584,Proprietary,Heart Attack,2 patients,1
10049,MEDICAL CENTER ENTERPRISE,400 N EDWARDS STREET,ENTERPRISE,36330,COFFEE,3343470584,Proprietary,Heart Attack,0 patients,1
10049,MEDICAL CENTER ENTERPRISE,400 N EDWARDS STREET,ENTERPRISE,36330,COFFEE,3343470584,Proprietary,Heart Attack,0 patients,1
10049,MEDICAL CENTER ENTERPRISE,400 N EDWARDS STREET,ENTERPRISE,36330,COFFEE,3343470584,Proprietary,Heart Failure,70 patients,1
10049,MEDICAL CENTER ENTERPRISE,400 N EDWARDS STREET,ENTERPRISE,36330,COFFEE,3343470584,Proprietary,Heart Failure,82 patients,1
10049,MEDICAL CENTER ENTERPRISE,400 N EDWARDS STREET,ENTERPRISE,36330,COFFEE,3343470584,Proprietary,Heart Failure,34 patients,1
10049,MEDICAL CENTER ENTERPRISE,400 N EDWARDS STREET,ENTERPRISE,36330,COFFEE,3343470584,Proprietary,Heart Failure,15 patients,1
10049,MEDICAL CENTER ENTERPRISE,400 N EDWARDS STREET,ENTERPRISE,36330,COFFEE,3343470584,Proprietary,Pneumonia,72 patients,1
10049,MEDICAL CENTER ENTERPRISE,400 N EDWARDS STREET,ENTERPRISE,36330,COFFEE,3343470584,Proprietary,Pneumonia,49 patients,1
10049,MEDICAL CENTER ENTERPRISE,400 N EDWARDS STREET,ENTERPRISE,36330,COFFEE,3343470584,Proprietary,Pneumonia,24 patients,1
10049,MEDICAL CENTER ENTERPRISE,400 N EDWARDS STREET,ENTERPRISE,36330,COFFEE,3343470584,Proprietary,Pneumonia,85 patients,1
10049,MEDICAL CENTER ENTERPRISE,400 N EDWARDS STREET,ENTERPRISE,36330,COFFEE,3343470584,Proprietary,Pneumonia,67 patients,1
10049,MEDICAL CENTER ENTERPRISE,400 N EDWARDS STREET,ENTERPRISE,36330,COFFEE,3343470584,Proprietary,Pneumonia,37 patients,1
10049,MEDICAL CENTER ENTERPRISE,400 N EDWARDS STREET,ENTERPRISE,36330,COFFEE,3343470584,Proprietary,Surgical Infection Prevention,27 patients,1
10049,MEDICAL CENTER ENTERPRISE,400 N EDWARDS STREET,ENTERPRISE,36330,COFFEE,3343470584,Proprietary,Surgical Infection Prevention,397 patients,1
10049,MEDICAL CENTER ENTERPRISE,400 N EDWARDS STREET,ENTERPRISE,36330,COFFEE,3343470584,Proprietary,Surgical Infection Prevention,399 patients,1
10049,MEDICAL CENTER ENTERPRISE,400 N EDWARDS STREET,ENTERPRISE,36330,COFFEE,3343470584,Proprietary,Surgical Infection Prevention,391 patients,1
10049,MEDICAL CENTER ENTERPRISE,400 N EDWARDS STREET,ENTERPRISE,36330,COFFEE,3343470584,Proprietary,Surgical Infection Prevention,0 patients,1
10049,MEDICAL CENTER ENTERPRISE,400 N EDWARDS STREET,ENTERPRISE,36330,COFFEE,3343470584,Proprietary,Surgical Infection Prevention,485 patients,1
10049,MEDICAL CENTER ENTERPRISE,400 N EDWARDS STREET,ENTERPRISE,36330,COFFEE,3343470584,Proprietary,Surgical Infection Prevention,196 patients,1
10049,MEDICAL CENTER ENTERPRISE,400 N EDWARDS STREET,ENTERPRISE,36330,COFFEE,3343470584,Proprietary,Surgical Infection Prevention,196 patients,1
10050,ST VINCENTS BLOUNT,150 GILBREATH DRIVE,ONEONTA,35121,BLOUNT,2052743000,Voluntary non-profit - Private,Heart Attack,7 patients,1
10050,ST VINCENTS BLOUNT,150 GILBREATH DRIVE,ONEONTA,35121,BLOUNT,2052743000,Voluntary non-profit - Private,Heart Attack,2 patients,1
10050,ST VINCENTS BLOUNT,150 GILBREATH DRIVE,ONEONTA,35121,BLOUNT,2052743000,Voluntary non-profit - Private,Heart Attack,2 patients,1
10050,ST VINCENTS BLOUNT,150 GILBREATH DRIVE,ONEONTA,35121,BLOUNT,2052743000,Voluntary non-profit - Private,Heart Attack,0 patients,1
10050,ST VINCENTS BLOUNT,150 GILBREATH DRIVE,ONEONTA,35121,BLOUNT,2052743000,Voluntary non-profit - Private,Heart Attack,3 patients,1
10050,ST VINCENTS BLOUNT,150 GILBREATH DRIVE,ONEONTA,35121,BLOUNT,2052743000,Voluntary non-profit - Private,Heart Attack,0 patients,1
10050,ST VINCENTS BLOUNT,150 GILBREATH DRIVE,ONEONTA,35121,BLOUNT,2052743000,Voluntary non-profit - Private,Heart Attack,0 patients,1
10050,ST VINCENTS BLOUNT,150 GILBREATH DRIVE,ONEONTA,35121,BLOUNT,2052743000,Voluntary non-profit - Private,Heart Failure,24 patients,1
10050,ST VINCENTS BLOUNT,150 GILBREATH DRIVE,ONEONTA,35121,BLOUNT,2052743000,Voluntary non-profit - Private,Heart Failure,34 patients,1
10050,ST VINCENTS BLOUNT,150 GILBREATH DRIVE,ONEONTA,35121,BLOUNT,2052743000,Voluntary non-profit - Private,Heart Failure,7 patients,1
10050,ST VINCENTS BLOUNT,150 GILBREATH DRIVE,ONEONTA,35121,BLOUNT,2052743000,Voluntary non-profit - Private,Heart Failure,7 patients,1
10050,ST VINCENTS BLOUNT,150 GILBREATH DRIVE,ONEONTA,35121,BLOUNT,2052743000,Voluntary non-profit - Private,Pneumonia,92 patients,1
10050,ST VINCENTS BLOUNT,150 GILBREATH DRIVE,ONEONTA,35121,BLOUNT,2052743000,Voluntary non-profit - Private,Pneumonia,103 patients,1
10050,ST VINCENTS BLOUNT,150 GILBREATH DRIVE,ONEONTA,35121,BLOUNT,2052743000,Voluntary non-profit - Private,Pneumonia,29 patients,1
10050,ST VINCENTS BLOUNT,150 GILBREATH DRIVE,ONEONTA,35121,BLOUNT,2052743000,Voluntary non-profit - Private,Pneumonia,105 patients,1
10050,ST VINCENTS BLOUNT,150 GILBREATH DRIVE,ONEONTA,35121,BLOUNT,2052743000,Voluntary non-profit - Private,Pneumonia,74 patients,1
10050,ST VINCENTS BLOUNT,150 GILBREATH DRIVE,ONEONTA,35121,BLOUNT,2052743000,Voluntary non-profit - Private,Pneumonia,55 patients,1
10050,ST VINCENTS BLOUNT,150 GILBREATH DRIVE,ONEONTA,35121,BLOUNT,2052743000,Voluntary non-profit - Private,Surgical Infection Prevention,8 patients,1
10050,ST VINCENTS BLOUNT,150 GILBREATH DRIVE,ONEONTA,35121,BLOUNT,2052743000,Voluntary non-profit - Private,Surgical Infection Prevention,28 patients,1
10050,ST VINCENTS BLOUNT,150 GILBREATH DRIVE,ONEONTA,35121,BLOUNT,2052743000,Voluntary non-profit - Private,Surgical Infection Prevention,25 patients,1
10018,CALLAHAN EYE FOUNDATION HOSPITAL,1720 UNIVERSITY BLVD,BIRMINGHAM,35233,JEFFERSON,2053258100,Voluntary non-profit - Private,Surgical Infection Prevention,Empty,1
10018,CALLAHAN EYE FOUNDATION HOSPITAL,1720 UNIVERSITY BLVD,BIRMINGHAM,35233,JEFFERSON,2053258100,Voluntary non-profit - Private,Surgical Infection Prevention,Empty,1
10018,CALLAHAN EYE FOUNDATION HOSPITAL,1720 UNIVERSITY BLVD,BIRMINGHAM,35233,JEFFERSON,2053258100,Voluntary non-profit - Private,Surgical Infection Prevention,Empty,1
10018,CALLAHAN EYE FOUNDATION HOSPITAL,1720 UNIVERSITY BLVD,BIRMINGHAM,35233,JEFFERSON,2053258100,Voluntary non-profit - Private,Surgical Infection Prevention,Empty,1
10018,CALLAHAN EYE FOUNDATION HOSPITAL,1720 UNIVERSITY BLVD,BIRMINGHAM,35233,JEFFERSON,2053258100,Voluntary non-profit - Private,Surgical Infection Prevention,Empty,1
10018,CALLAHAN EYE FOUNDATION HOSPITAL,1720 UNIVERSITY BLVD,BIRMINGHAM,35233,JEFFERSON,2053258100,Voluntary non-profit - Private,Surgical Infection Prevention,Empty,1
10018,CALLAHAN EYE FOUNDATION HOSPITAL,1720 UNIVERSITY BLVD,BIRMINGHAM,35233,JEFFERSON,2053258100,Voluntary non-profit - Private,Surgical Infection Prevention,Empty,1
10018,CALLAHAN EYE FOUNDATION HOSPITAL,1720 UNIVERSITY BLVD,BIRMINGHAM,35233,JEFFERSON,2053258100,Voluntary non-profit - Private,Surgical Infection Prevention,Empty,1
10019,HELEN KELLER MEMORIAL HOSPITAL,1300 SOUTH MONTGOMERY AVENUE,SHEFFIELD,35660,JEFFERSON,2563864556,Government - Hospital District or Authority,Heart Attack,33 patients,1
10019,HELEN KELLER MEMORIAL HOSPITAL,1300 SOUTH MONTGOMERY AVENUE,SHEFFIELD,35660,JEFFERSON,2563864556,Government - Hospital District or Authority,Heart Attack,13 patients,1
10019,HELEN KELLER MEMORIAL HOSPITAL,1300 SOUTH MONTGOMERY AVENUE,SHEFFIELD,35660,JEFFERSON,2563864556,Government - Hospital District or Authority,Heart Attack,4 patients,1
10019,HELEN KELLER MEMORIAL HOSPITAL,1300 SOUTH MONTGOMERY AVENUE,SHEFFIELD,35660,JEFFERSON,2563864556,Government - Hospital District or Authority,Heart Attack,4 patients,1
10019,HELEN KELLER MEMORIAL HOSPITAL,1300 SOUTH MONTGOMERY AVENUE,SHEFFIELD,35660,JEFFERSON,2563864556,Government - Hospital District or Authority,Heart Attack,14 patients,1
10019,HELEN KELLER MEMORIAL HOSPITAL,1300 SOUTH MONTGOMERY AVENUE,SHEFFIELD,35660,JEFFERSON,2563864556,Government - Hospital District or Authority,Heart Attack,0 patients,1
10019,HELEN KELLER MEMORIAL HOSPITAL,1300 SOUTH MONTGOMERY AVENUE,SHEFFIELD,35660,JEFFERSON,2563864556,Government - Hospital District or Authority,Heart Attack,0 patients,1
10019,HELEN KELLER MEMORIAL HOSPITAL,1300 SOUTH MONTGOMERY AVENUE,SHEFFIELD,35660,JEFFERSON,2563864556,Government - Hospital District or Authority,Heart Failure,114 patients,1
10019,HELEN KELLER MEMORIAL HOSPITAL,1300 SOUTH MONTGOMERY AVENUE,SHEFFIELD,35660,JEFFERSON,2563864556,Government - Hospital District or Authority,Heart Failure,149 patients,1
10019,HELEN KELLER MEMORIAL HOSPITAL,1300 SOUTH MONTGOMERY AVENUE,SHEFFIELD,35660,JEFFERSON,2563864556,Government - Hospital District or Authority,Heart Failure,37 patients,1
10019,HELEN KELLER MEMORIAL HOSPITAL,1300 SOUTH MONTGOMERY AVENUE,SHEFFIELD,35660,JEFFERSON,2563864556,Government - Hospital District or Authority,Heart Failure,41 patients,1
10001,SOUTHEAST ALABAMA MEDICAL CENTER,1108 ROSS CLARK CIRCLE,DOTHAN,36302,HOUSTON,3347938701,Government - Hospital District or Authority,Heart Attack,270 patients,1
10001,SOUTHEAST ALABAMA MEDICAL CENTER,1108 ROSS CLARK CIRCLE,DOTHAN,36302,HOUSTON,3347938701,Government - Hospital District or Authority,Heart Attack,516 patients,1
10001,SOUTHEAST ALABAMA MEDICAL CENTER,1108 ROSS CLARK CIRCLE,DOTHAN,36302,HOUSTON,3347938701,Government - Hospital District or Authority,Heart Attack,71 patients,1
10001,SOUTHEAST ALABAMA MEDICAL CENTER,1108 ROSS CLARK CIRCLE,DOTHAN,36302,HOUSTON,3347938701,Government - Hospital District or Authority,Heart Attack,244 patients,1
10001,SOUTHEAST ALABAMA MEDICAL CENTER,1108 ROSS CLARK CIRCLE,DOTHAN,36302,HOUSTON,3347938701,Government - Hospital District or Authority,Heart Attack,441 patients,1
10001,SOUTHEAST ALABAMA MEDICAL CENTER,1108 ROSS CLARK CIRCLE,DOTHAN,36302,HOUSTON,3347938701,Government - Hospital District or Authority,Heart Attack,0 patients,1
10001,SOUTHEAST ALABAMA MEDICAL CENTER,1108 ROSS CLARK CIRCLE,DOTHAN,36302,HOUSTON,3347938701,Government - Hospital District or Authority,Heart Attack,40 patients,1
10001,SOUTHEAST ALABAMA MEDICAL CENTER,1108 ROSS CLARK CIRCLE,DOTHAN,36302,HOUSTON,3347938701,Government - Hospital District or Authority,Heart Failure,455 patients,1
10001,SOUTHEAST ALABAMA MEDICAL CENTER,1108 ROSS CLARK CIRCLE,DOTHAN,36302,HOUSTON,3347938701,Government - Hospital District or Authority,Heart Failure,514 patients,1
10001,SOUTHEAST ALABAMA MEDICAL CENTER,1108 ROSS CLARK CIRCLE,DOTHAN,36302,HOUSTON,3347938701,Government - Hospital District or Authority,Heart Failure,165 patients,1
10001,SOUTHEAST ALABAMA MEDICAL CENTER,1108 ROSS CLARK CIRCLE,DOTHAN,36302,HOUSTON,3347938701,Government - Hospital District or Authority,Heart Failure,110 patients,1
10001,SOUTHEAST ALABAMA MEDICAL CENTER,1108 ROSS CLARK CIRCLE,DOTHAN,36302,HOUSTON,3347938701,Government - Hospital District or Authority,Pneumonia,191 patients,1
10001,SOUTHEAST ALABAMA MEDICAL CENTER,1108 ROSS CLARK CIRCLE,DOTHAN,36302,HOUSTON,3347938701,Government - Hospital District or Authority,Pneumonia,125 patients,1
10001,SOUTHEAST ALABAMA MEDICAL CENTER,1108 ROSS CLARK CIRCLE,DOTHAN,36302,HOUSTON,3347938701,Government - Hospital District or Authority,Pneumonia,107 patients,1
10001,SOUTHEAST ALABAMA MEDICAL CENTER,1108 ROSS CLARK CIRCLE,DOTHAN,36302,HOUSTON,3347938701,Government - Hospital District or Authority,Pneumonia,196 patients,1
10001,SOUTHEAST ALABAMA MEDICAL CENTER,1108 ROSS CLARK CIRCLE,DOTHAN,36302,HOUSTON,3347938701,Government - Hospital District or Authority,Pneumonia,147 patients,1
10001,SOUTHEAST ALABAMA MEDICAL CENTER,1108 ROSS CLARK CIRCLE,DOTHAN,36302,HOUSTON,3347938701,Government - Hospital District or Authority,Pneumonia,160 patients,1
10001,SOUTHEAST ALABAMA MEDICAL CENTER,1108 ROSS CLARK CIRCLE,DOTHAN,36302,HOUSTON,3347938701,Government - Hospital District or Authority,Surgical Infection Prevention,79 patients,1
10001,SOUTHEAST ALABAMA MEDICAL CENTER,1108 ROSS CLARK CIRCLE,DOTHAN,36302,HOUSTON,3347938701,Government - Hospital District or Authority,Surgical Infection Prevention,399 patients,1
10001,SOUTHEAST ALABAMA MEDICAL CENTER,1108 ROSS CLARK CIRCLE,DOTHAN,36302,HOUSTON,3347938701,Government - Hospital District or Authority,Surgical Infection Prevention,405 patients,1
10001,SOUTHEAST ALABAMA MEDICAL CENTER,1108 ROSS CLARK CIRCLE,DOTHAN,36302,HOUSTON,3347938701,Government - Hospital District or Authority,Surgical Infection Prevention,385 patients,1
10001,SOUTHEAST ALABAMA MEDICAL CENTER,1108 ROSS CLARK CIRCLE,DOTHAN,36302,HOUSTON,3347938701,Government - Hospital District or Authority,Surgical Infection Prevention,136 patients,1
10001,SOUTHEAST ALABAMA MEDICAL CENTER,1108 ROSS CLARK CIRCLE,DOTHAN,36302,HOUSTON,3347938701,Government - Hospital District or Authority,Surgical Infection Prevention,537 patients,1
10001,SOUTHEAST ALABAMA MEDICAL CENTER,1108 ROSS CLARK CIRCLE,DOTHAN,36302,HOUSTON,3347938701,Government - Hospital District or Authority,Surgical Infection Prevention,185 patients,1
10001,SOUTHEAST ALABAMA MEDICAL CENTER,1108 ROSS CLARK CIRCLE,DOTHAN,36302,HOUSTON,3347938701,Government - Hospital District or Authority,Surgical Infection Prevention,184 patients,1
10005,MARSHALL MEDICAL CENTER SOUTH,2505 U S HIGHWAY 431 NORTH,BOAZ,35957,MARSHALL,2565938310,Government - Hospital District or Authority,Heart Attack,20 patients,1
10005,MARSHALL MEDICAL CENTER SOUTH,2505 U S HIGHWAY 431 NORTH,BOAZ,35957,MARSHALL,2565938310,Government - Hospital District or Authority,Heart Attack,5 patients,1
10005,MARSHALL MEDICAL CENTER SOUTH,2505 U S HIGHWAY 431 NORTH,BOAZ,35957,MARSHALL,2565938310,Government - Hospital District or Authority,Heart Attack,2 patients,1
10005,MARSHALL MEDICAL CENTER SOUTH,2505 U S HIGHWAY 431 NORTH,BOAZ,35957,MARSHALL,2565938310,Government - Hospital District or Authority,Heart Attack,0 patients,1
10005,MARSHALL MEDICAL CENTER SOUTH,2505 U S HIGHWAY 431 NORTH,BOAZ,35957,MARSHALL,2565938310,Government - Hospital District or Authority,Heart Attack,5 patients,1
10005,MARSHALL MEDICAL CENTER SOUTH,2505 U S HIGHWAY 431 NORTH,BOAZ,35957,MARSHALL,2565938310,Government - Hospital District or Authority,Heart Attack,0 patients,1
10005,MARSHALL MEDICAL CENTER SOUTH,2505 U S HIGHWAY 431 NORTH,BOAZ,35957,MARSHALL,2565938310,Government - Hospital District or Authority,Heart Attack,0 patients,1
10005,MARSHALL MEDICAL CENTER SOUTH,2505 U S HIGHWAY 431 NORTH,BOAZ,35957,MARSHALL,2565938310,Government - Hospital District or Authority,Heart Failure,110 patients,1
10005,MARSHALL MEDICAL CENTER SOUTH,2505 U S HIGHWAY 431 NORTH,BOAZ,35957,MARSHALL,2565938310,Government - Hospital District or Authority,Heart Failure,160 patients,1
10005,MARSHALL MEDICAL CENTER SOUTH,2505 U S HIGHWAY 431 NORTH,BOAZ,35957,MARSHALL,2565938310,Government - Hospital District or Authority,Heart Failure,69 patients,1
10005,MARSHALL MEDICAL CENTER SOUTH,2505 U S HIGHWAY 431 NORTH,BOAZ,35957,MARSHALL,2565938310,Government - Hospital District or Authority,Heart Failure,34 patients,1
10005,MARSHALL MEDICAL CENTER SOUTH,2505 U S HIGHWAY 431 NORTH,BOAZ,35957,MARSHALL,2565938310,Government - Hospital District or Authority,Pneumonia,172 patients,1
10005,MARSHALL MEDICAL CENTER SOUTH,2505 U S HIGHWAY 431 NORTH,BOAZ,35957,MARSHALL,2565938310,Government - Hospital District or Authority,Pneumonia,120 patients,1
10005,MARSHALL MEDICAL CENTER SOUTH,2505 U S HIGHWAY 431 NORTH,BOAZ,35957,MARSHALL,2565938310,Government - Hospital District or Authority,Pneumonia,98 patients,1
10005,MARSHALL MEDICAL CENTER SOUTH,2505 U S HIGHWAY 431 NORTH,BOAZ,35957,MARSHALL,2565938310,Government - Hospital District or Authority,Pneumonia,211 patients,1
10005,MARSHALL MEDICAL CENTER SOUTH,2505 U S HIGHWAY 431 NORTH,BOAZ,35957,MARSHALL,2565938310,Government - Hospital District or Authority,Pneumonia,175 patients,1
10005,MARSHALL MEDICAL CENTER SOUTH,2505 U S HIGHWAY 431 NORTH,BOAZ,35957,MARSHALL,2565938310,Government - Hospital District or Authority,Pneumonia,118 patients,1
10005,MARSHALL MEDICAL CENTER SOUTH,2505 U S HIGHWAY 431 NORTH,BOAZ,35957,MARSHALL,2565938310,Government - Hospital District or Authority,Surgical Infection Prevention,14 patients,1
10005,MARSHALL MEDICAL CENTER SOUTH,2505 U S HIGHWAY 431 NORTH,BOAZ,35957,MARSHALL,2565938310,Government - Hospital District or Authority,Surgical Infection Prevention,168 patients,1
10005,MARSHALL MEDICAL CENTER SOUTH,2505 U S HIGHWAY 431 NORTH,BOAZ,35957,MARSHALL,2565938310,Government - Hospital District or Authority,Surgical Infection Prevention,167 patients,1
10005,MARSHALL MEDICAL CENTER SOUTH,2505 U S HIGHWAY 431 NORTH,BOAZ,35957,MARSHALL,2565938310,Government - Hospital District or Authority,Surgical Infection Prevention,158 patients,1
10005,MARSHALL MEDICAL CENTER SOUTH,2505 U S HIGHWAY 431 NORTH,BOAZ,35957,MARSHALL,2565938310,Government - Hospital District or Authority,Surgical Infection Prevention,0 patients,1
10005,MARSHALL MEDICAL CENTER SOUTH,2505 U S HIGHWAY 431 NORTH,BOAZ,35957,MARSHALL,2565938310,Government - Hospital District or Authority,Surgical Infection Prevention,237 patients,1
10005,MARSHALL MEDICAL CENTER SOUTH,2505 U S HIGHWAY 431 NORTH,BOAZ,35957,MARSHALL,2565938310,Government - Hospital District or Authority,Surgical Infection Prevention,76 patients,1
10005,MARSHALL MEDICAL CENTER SOUTH,2505 U S HIGHWAY 431 NORTH,BOAZ,35957,MARSHALL,2565938310,Government - Hospital District or Authority,Surgical Infection Prevention,76 patients,1
10006,ELIZA COFFEE MEMORIAL HOSPITAL,205 MARENGO STREET,FLORENCE,35631,LAUDERDALE,2567688400,Voluntary non-profit - Other,Heart Attack,159 patients,1
10006,ELIZA COFFEE MEMORIAL HOSPITAL,205 MARENGO STREET,FLORENCE,35631,LAUDERDALE,2567688400,Voluntary non-profit - Other,Heart Attack,247 patients,1
10006,ELIZA COFFEE MEMORIAL HOSPITAL,205 MARENGO STREET,FLORENCE,35631,LAUDERDALE,2567688400,Voluntary non-profit - Other,Heart Attack,43 patients,1
10006,ELIZA COFFEE MEMORIAL HOSPITAL,205 MARENGO STREET,FLORENCE,35631,LAUDERDALE,2567688400,Voluntary non-profit - Other,Heart Attack,103 patients,1
10006,ELIZA COFFEE MEMORIAL HOSPITAL,205 MARENGO STREET,FLORENCE,35631,LAUDERDALE,2567688400,Voluntary non-profit - Other,Heart Attack,227 patients,1
10006,ELIZA COFFEE MEMORIAL HOSPITAL,205 MARENGO STREET,FLORENCE,35631,LAUDERDALE,2567688400,Voluntary non-profit - Other,Heart Attack,0 patients,1
10006,ELIZA COFFEE MEMORIAL HOSPITAL,205 MARENGO STREET,FLORENCE,35631,LAUDERDALE,2567688400,Voluntary non-profit - Other,Heart Attack,61 patients,1
10006,ELIZA COFFEE MEMORIAL HOSPITAL,205 MARENGO STREET,FLORENCE,35631,LAUDERDALE,2567688400,Voluntary non-profit - Other,Heart Failure,217 patients,1
10006,ELIZA COFFEE MEMORIAL HOSPITAL,205 MARENGO STREET,FLORENCE,35631,LAUDERDALE,2567688400,Voluntary non-profit - Other,Heart Failure,259 patients,1
10006,ELIZA COFFEE MEMORIAL HOSPITAL,205 MARENGO STREET,FLORENCE,35631,LAUDERDALE,2567688400,Voluntary non-profit - Other,Heart Failure,84 patients,1
10006,ELIZA COFFEE MEMORIAL HOSPITAL,205 MARENGO STREET,FLORENCE,35631,LAUDERDALE,2567688400,Voluntary non-profit - Other,Heart Failure,53 patients,1
10006,ELIZA COFFEE MEMORIAL HOSPITAL,205 MARENGO STREET,FLORENCE,35631,LAUDERDALE,2567688400,Voluntary non-profit - Other,Pneumonia,174 patients,1
10006,ELIZA COFFEE MEMORIAL HOSPITAL,205 MARENGO STREET,FLORENCE,35631,LAUDERDALE,2567688400,Voluntary non-profit - Other,Pneumonia,137 patients,1
10006,ELIZA COFFEE MEMORIAL HOSPITAL,205 MARENGO STREET,FLORENCE,35631,LAUDERDALE,2567688400,Voluntary non-profit - Other,Pneumonia,65 patients,1
10006,ELIZA COFFEE MEMORIAL HOSPITAL,205 MARENGO STREET,FLORENCE,35631,LAUDERDALE,2567688400,Voluntary non-profit - Other,Pneumonia,200 patients,1
10006,ELIZA COFFEE MEMORIAL HOSPITAL,205 MARENGO STREET,FLORENCE,35631,LAUDERDALE,2567688400,Voluntary non-profit - Other,Pneumonia,138 patients,1
10006,ELIZA COFFEE MEMORIAL HOSPITAL,205 MARENGO STREET,FLORENCE,35631,LAUDERDALE,2567688400,Voluntary non-profit - Other,Pneumonia,85 patients,1
10006,ELIZA COFFEE MEMORIAL HOSPITAL,205 MARENGO STREET,FLORENCE,35631,LAUDERDALE,2567688400,Voluntary non-profit - Other,Surgical Infection Prevention,107 patients,1
10006,ELIZA COFFEE MEMORIAL HOSPITAL,205 MARENGO STREET,FLORENCE,35631,LAUDERDALE,2567688400,Voluntary non-profit - Other,Surgical Infection Prevention,457 patients,1
10006,ELIZA COFFEE MEMORIAL HOSPITAL,205 MARENGO STREET,FLORENCE,35631,LAUDERDALE,2567688400,Voluntary non-profit - Other,Surgical Infection Prevention,462 patients,1
10006,ELIZA COFFEE MEMORIAL HOSPITAL,205 MARENGO STREET,FLORENCE,35631,LAUDERDALE,2567688400,Voluntary non-profit - Other,Surgical Infection Prevention,439 patients,1
10006,ELIZA COFFEE MEMORIAL HOSPITAL,205 MARENGO STREET,FLORENCE,35631,LAUDERDALE,2567688400,Voluntary non-profit - Other,Surgical Infection Prevention,130 patients,1
10006,ELIZA COFFEE MEMORIAL HOSPITAL,205 MARENGO STREET,FLORENCE,35631,LAUDERDALE,2567688400,Voluntary non-profit - Other,Surgical Infection Prevention,619 patients,1
10006,ELIZA COFFEE MEMORIAL HOSPITAL,205 MARENGO STREET,FLORENCE,35631,LAUDERDALE,2567688400,Voluntary non-profit - Other,Surgical Infection Prevention,242 patients,1
10006,ELIZA COFFEE MEMORIAL HOSPITAL,205 MARENGO STREET,FLORENCE,35631,LAUDERDALE,2567688400,Voluntary non-profit - Other,Surgical Infection Prevention,242 patients,1
10007,MIZELL MEMORIAL HOSPITAL,702 N MAIN ST,OPP,36467,COVINGTON,3344933541,Voluntary non-profit - Private,Heart Attack,5 patients,1
10007,MIZELL MEMORIAL HOSPITAL,702 N MAIN ST,OPP,36467,COVINGTON,3344933541,Voluntary non-profit - Private,Heart Attack,2 patients,1
10007,MIZELL MEMORIAL HOSPITAL,702 N MAIN ST,OPP,36467,COVINGTON,3344933541,Voluntary non-profit - Private,Heart Attack,0 patients,1
10007,MIZELL MEMORIAL HOSPITAL,702 N MAIN ST,OPP,36467,COVINGTON,3344933541,Voluntary non-profit - Private,Heart Attack,0 patients,1
10007,MIZELL MEMORIAL HOSPITAL,702 N MAIN ST,OPP,36467,COVINGTON,3344933541,Voluntary non-profit - Private,Heart Attack,2 patients,1
10007,MIZELL MEMORIAL HOSPITAL,702 N MAIN ST,OPP,36467,COVINGTON,3344933541,Voluntary non-profit - Private,Heart Attack,0 patients,1
